{"type":"FeatureCollection","features":[{"id":"0","type":"Feature","properties":{"bairro":"Aeronautas","distrito":"Lagoa Santa","regiao":"Lagoa Santa","setores":9,"urbano":9},"geometry":{"type":"Polygon","coordinates":[[[-43.89504,-19.66921],[-43.89196,-19.66932],[-43.89015,-19.66712],[-43.89155,-19.66656],[-43.89137,-19.66553],[-43.88963,-19.6645],[-43.88906,-19.66478],[-43.88807,-19.66439],[-43.88796,-19.66376],[-43.8881,-19.66352],[-43.88887,-19.66309],[-43.88842,-19.66163],[-43.88626,-19.66154],[-43.88469,-19.6618],[-43.88388,-19.66159],[-43.88351,-19.66204],[-43.88182,-19.66274],[-43.87878,-19.66288],[-43.87855,-19.66301],[-43.87858,-19.66492],[-43.87826,-19.66615],[-43.87894,-19.66744],[-43.87793,-19.66835],[-43.87526,-19.66978],[-43.87417,-19.67069],[-43.87269,-19.67145],[-43.8723,-19.67137],[-43.87101,-19.67174],[-43.87131,-19.67229],[-43.87134,-19.67346],[-43.87077,-19.67424],[-43.87096,-19.67578],[-43.87143,-19.67594],[-43.87199,-19.67559],[-43.8735,-19.67565],[-43.87406,-19.67545],[-43.87557,-19.67455],[-43.87619,-19.67375],[-43.87896,-19.67135],[-43.87941,-19.67117],[-43.88146,-19.67121],[-43.88198,-19.6702],[-43.88326,-19.6702],[-43.88653,-19.66777],[-43.88727,-19.66749],[-43.88801,-19.66739],[-43.88794,-19.67025],[-43.88814,-19.67074],[-43.89486,-19.67088],[-43.89485,-19.67151],[-43.89599,-19.6712],[-43.89617,-19.67046],[-43.89504,-19.66921]],[[-43.88807,-19.6662],[-43.8862,-19.66614],[-43.88619,-19.66682],[-43.88458,-19.6668],[-43.88465,-19.66485],[-43.8881,-19.66493],[-43.88807,-19.6662]]]}},{"id":"1","type":"Feature","properties":{"bairro":"Bela Vista","distrito":"Lagoa Santa","regiao":"Lagoa Santa","setores":3,"urbano":3},"geometry":{"type":"Polygon","coordinates":[[[-43.90921,-19.63912],[-43.9114,-19.63894],[-43.91167,-19.64027],[-43.91284,-19.63919],[-43.91297,-19.63875],[-43.91269,-19.63662],[-43.91131,-19.63679],[-43.91131,-19.63568],[-43.9107,-19.63479],[-43.90978,-19.63533],[-43.90878,-19.63484],[-43.90808,-19.63594],[-43.90579,-19.63602],[-43.90558,-19.63637],[-43.90584,-19.63728],[-43.90705,-19.63718],[-43.90688,-19.63947],[-43.90917,-19.63958],[-43.90921,-19.63912]]]}},{"id":"2","type":"Feature","properties":{"bairro":"Campinho","distrito":"Lapinha","regiao":"Lapinha","setores":13,"urbano":13},"geometry":{"type":"Polygon","coordinates":[[[-43.91964,-19.5883],[-43.91881,-19.59163],[-43.91884,-19.59463],[-43.91854,-19.59584],[-43.91766,-19.59689],[-43.91514,-19.59785],[-43.91472,-19.59813],[-43.91455,-19.59866],[-43.915,-19.6008],[-43.91501,-19.60162],[-43.91458,-19.60306],[-43.91458,-19.60386],[-43.91513,-19.60791],[-43.91543,-19.60857],[-43.91676,-19.60925],[-43.9187,-19.609],[-43.92053,-19.60829],[-43.92233,-19.60732],[-43.9226,-19.60698],[-43.92453,-19.60717],[-43.92523,-19.60742],[-43.92548,-19.60743],[-43.92571,-19.60713],[-43.92486,-19.60662],[-43.92464,-19.60531],[-43.9242,-19.60423],[-43.92343,-19.60367],[-43.92231,-19.60342],[-43.92187,-19.60217],[-43.92246,-19.60039],[-43.92402,-19.59935],[-43.92434,-19.59785],[-43.92488,-19.59672],[-43.92471,-19.59599],[-43.9248,-19.59382],[-43.92411,-19.59199],[-43.9239,-19.59072],[-43.92438,-19.58963],[-43.92581,-19.58836],[-43.92542,-19.58728],[-43.92594,-19.58664],[-43.92599,-19.58628],[-43.92578,-19.58568],[-43.92514,-19.58528],[-43.92476,-19.58471],[-43.92921,-19.58391],[-43.93012,-19.5859],[-43.93024,-19.58666],[-43.92996,-19.58798],[-43.92959,-19.58846],[-43.92894,-19.58879],[-43.92866,-19.58939],[-43.92941,-19.5903],[-43.92944,-19.59132],[-43.92965,-19.5917],[-43.92965,-19.59329],[-43.92985,-19.59351],[-43.93038,-19.59315],[-43.93062,-19.59339],[-43.93218,-19.5934],[-43.93249,-19.59311],[-43.93649,-19.59295],[-43.93703,-19.59202],[-43.93879,-19.59022],[-43.93896,-19.58972],[-43.94076,-19.58894],[-43.94091,-19.58669],[-43.9403,-19.58287],[-43.93977,-19.5819],[-43.93972,-19.57879],[-43.93837,-19.57916],[-43.93437,-19.57822],[-43.92804,-19.57792],[-43.92722,-19.57754],[-43.92546,-19.57495],[-43.92487,-19.57469],[-43.92419,-19.5747],[-43.92442,-19.5742],[-43.92387,-19.57305],[-43.92421,-19.57285],[-43.92399,-19.57217],[-43.92381,-19.57209],[-43.92395,-19.57147],[-43.92302,-19.57134],[-43.92293,-19.5709],[-43.92221,-19.57073],[-43.92198,-19.57028],[-43.92159,-19.57035],[-43.9217,-19.57016],[-43.9214,-19.56993],[-43.92127,-19.56907],[-43.92192,-19.56772],[-43.92233,-19.56767],[-43.92248,-19.56744],[-43.92246,-19.56635],[-43.9229,-19.56586],[-43.92296,-19.5643],[-43.92225,-19.56382],[-43.92192,-19.56326],[-43.9219,-19.56199],[-43.92142,-19.56176],[-43.9212,-19.56211],[-43.92088,-19.56193],[-43.91997,-19.56054],[-43.9201,-19.55996],[-43.91984,-19.55898],[-43.9179,-19.55901],[-43.91511,-19.55819],[-43.91426,-19.55814],[-43.91386,-19.55848],[-43.91381,-19.5591],[-43.91355,-19.55948],[-43.91266,-19.55981],[-43.91175,-19.5593],[-43.91093,-19.55946],[-43.91055,-19.56006],[-43.91056,-19.56121],[-43.91015,-19.56245],[-43.91056,-19.56335],[-43.91119,-19.56356],[-43.91137,-19.56409],[-43.91106,-19.56522],[-43.91098,-19.56673],[-43.91022,-19.56899],[-43.90984,-19.56938],[-43.90969,-19.56997],[-43.90963,-19.57294],[-43.90875,-19.57417],[-43.9081,-19.57467],[-43.90789,-19.57523],[-43.9083,-19.57579],[-43.90816,-19.57682],[-43.90868,-19.57655],[-43.91041,-19.57635],[-43.9116,-19.57897],[-43.91235,-19.5796],[-43.91244,-19.58074],[-43.91329,-19.58184],[-43.91333,-19.58217],[-43.91244,-19.58295],[-43.91431,-19.58475],[-43.91359,-19.58789],[-43.91337,-19.58855],[-43.91293,-19.58899],[-43.91317,-19.58932],[-43.91842,-19.58875],[-43.91964,-19.5883]]]}},{"id":"3","type":"Feature","properties":{"bairro":"Centro","distrito":"Lagoa Santa","regiao":"Lagoa Santa","setores":23,"urbano":23},"geometry":{"type":"Polygon","coordinates":[[[-43.89375,-19.63322],[-43.89586,-19.63402],[-43.89776,-19.63543],[-43.90119,-19.63235],[-43.90101,-19.62976],[-43.90387,-19.62994],[-43.90423,-19.62925],[-43.90126,-19.62367],[-43.90143,-19.62358],[-43.89923,-19.62066],[-43.89633,-19.62276],[-43.89537,-19.62064],[-43.89436,-19.62137],[-43.89375,-19.62036],[-43.89376,-19.62021],[-43.89461,-19.61987],[-43.89528,-19.61985],[-43.89586,-19.61929],[-43.8983,-19.61855],[-43.89882,-19.61806],[-43.90032,-19.61753],[-43.90088,-19.61676],[-43.9025,-19.61586],[-43.90268,-19.6153],[-43.90254,-19.61488],[-43.90352,-19.61401],[-43.90383,-19.61314],[-43.90366,-19.61234],[-43.90379,-19.61146],[-43.90322,-19.60974],[-43.90317,-19.60883],[-43.89937,-19.60898],[-43.89907,-19.60947],[-43.89892,-19.60938],[-43.89816,-19.61085],[-43.89751,-19.61272],[-43.89659,-19.61408],[-43.89597,-19.61606],[-43.89606,-19.61622],[-43.89319,-19.61761],[-43.89283,-19.61795],[-43.89261,-19.61853],[-43.89242,-19.61856],[-43.89201,-19.61836],[-43.89229,-19.61771],[-43.89213,-19.61738],[-43.88896,-19.61622],[-43.88769,-19.61599],[-43.88627,-19.616],[-43.88424,-19.61548],[-43.88295,-19.6156],[-43.88137,-19.61507],[-43.88053,-19.61386],[-43.88057,-19.61289],[-43.8808,-19.61231],[-43.8806,-19.61223],[-43.88012,-19.61383],[-43.88095,-19.61524],[-43.88317,-19.61661],[-43.88508,-19.61733],[-43.88471,-19.61883],[-43.88545,-19.61964],[-43.88555,-19.62024],[-43.88445,-19.6227],[-43.88384,-19.62348],[-43.88723,-19.62823],[-43.88789,-19.62883],[-43.88839,-19.62832],[-43.88859,-19.6266],[-43.89165,-19.62709],[-43.89161,-19.62772],[-43.89003,-19.62757],[-43.88872,-19.62853],[-43.8894,-19.62872],[-43.89057,-19.62991],[-43.89183,-19.63032],[-43.89253,-19.63076],[-43.89265,-19.63118],[-43.89245,-19.63195],[-43.89375,-19.63322]]]}},{"id":"4","type":"Feature","properties":{"bairro":"Condados da Lagoa","distrito":"Lagoa Santa","regiao":"Lagoa Santa","setores":5,"urbano":5},"geometry":{"type":"Polygon","coordinates":[[[-43.93029,-19.65697],[-43.9329,-19.66258],[-43.93326,-19.66244],[-43.93367,-19.6629],[-43.93479,-19.66216],[-43.93475,-19.66165],[-43.93542,-19.66083],[-43.93767,-19.6599],[-43.93897,-19.65982],[-43.94042,-19.65908],[-43.94078,-19.65839],[-43.94052,-19.65676],[-43.94073,-19.65621],[-43.93964,-19.65559],[-43.9377,-19.65372],[-43.93556,-19.65216],[-43.93417,-19.65203],[-43.93213,-19.65123],[-43.93055,-19.65004],[-43.9289,-19.64861],[-43.92712,-19.64535],[-43.92521,-19.64577],[-43.92558,-19.64782],[-43.92665,-19.65002],[-43.92731,-19.652],[-43.92608,-19.65235],[-43.92615,-19.653],[-43.92342,-19.65418],[-43.92354,-19.6558],[-43.92427,-19.65631],[-43.92729,-19.65619],[-43.92859,-19.65693],[-43.93029,-19.65697]]]}},{"id":"5","type":"Feature","properties":{"bairro":"Condados do Bougainville","distrito":"Lagoa Santa","regiao":"Lagoa Santa","setores":1,"urbano":1},"geometry":{"type":"Polygon","coordinates":[[[-43.91947,-19.64775],[-43.91868,-19.65023],[-43.91881,-19.6505],[-43.917,-19.65052],[-43.9164,-19.65464],[-43.91674,-19.65449],[-43.91738,-19.65493],[-43.9203,-19.65453],[-43.92088,-19.65467],[-43.92247,-19.65572],[-43.92304,-19.65564],[-43.92354,-19.6558],[-43.92322,-19.65358],[-43.92213,-19.65233],[-43.91966,-19.65069],[-43.92033,-19.64829],[-43.91947,-19.64775]]]}},{"id":"6","type":"Feature","properties":{"bairro":"Condominio Amendoeiras","distrito":"Lagoa Santa","regiao":"Lagoa Santa","setores":3,"urbano":3},"geometry":{"type":"Polygon","coordinates":[[[-43.91983,-19.66267],[-43.92013,-19.66421],[-43.91994,-19.66616],[-43.92302,-19.67207],[-43.92569,-19.67092],[-43.92778,-19.66959],[-43.92883,-19.66859],[-43.93272,-19.66377],[-43.93367,-19.6629],[-43.93326,-19.66244],[-43.9329,-19.66258],[-43.93029,-19.65697],[-43.92859,-19.65693],[-43.92729,-19.65619],[-43.92427,-19.65631],[-43.92304,-19.65564],[-43.92247,-19.65572],[-43.92102,-19.65739],[-43.91969,-19.6571],[-43.91871,-19.65778],[-43.91639,-19.65822],[-43.91573,-19.65853],[-43.91579,-19.66345],[-43.91752,-19.66297],[-43.91983,-19.66267]]]}},{"id":"7","type":"Feature","properties":{"bairro":"Condominio Champagne","distrito":"Lagoa Santa","regiao":"Lagoa Santa","setores":1,"urbano":1},"geometry":{"type":"Polygon","coordinates":[[[-43.87493,-19.66257],[-43.87296,-19.66559],[-43.87358,-19.66851],[-43.8735,-19.66886],[-43.87214,-19.67021],[-43.8723,-19.67137],[-43.87269,-19.67145],[-43.87417,-19.67069],[-43.87526,-19.66978],[-43.87793,-19.66835],[-43.87894,-19.66744],[-43.87826,-19.66615],[-43.87858,-19.66492],[-43.87855,-19.66301],[-43.87691,-19.66293],[-43.87594,-19.66221],[-43.87554,-19.66227],[-43.87532,-19.66267],[-43.87493,-19.66257]]]}},{"id":"8","type":"Feature","properties":{"bairro":"Condominio Lagoa Santa Park Residence","distrito":"Lagoa Santa","regiao":"Lagoa Santa","setores":1,"urbano":1},"geometry":{"type":"Polygon","coordinates":[[[-43.85843,-19.65465],[-43.86071,-19.65429],[-43.86209,-19.65378],[-43.86123,-19.65224],[-43.86116,-19.65174],[-43.86037,-19.65185],[-43.8598,-19.65171],[-43.85979,-19.65157],[-43.86024,-19.65098],[-43.86066,-19.65079],[-43.86312,-19.65048],[-43.86294,-19.64924],[-43.85974,-19.65035],[-43.85505,-19.65103],[-43.85456,-19.65091],[-43.85356,-19.64969],[-43.85294,-19.65019],[-43.85223,-19.65028],[-43.8517,-19.65067],[-43.84918,-19.65107],[-43.84872,-19.65195],[-43.84933,-19.65326],[-43.85009,-19.65408],[-43.85113,-19.65464],[-43.85359,-19.65457],[-43.85528,-19.65478],[-43.85843,-19.65465]]]}},{"id":"9","type":"Feature","properties":{"bairro":"Condominio Metropolitan Business Center","distrito":"Lagoa Santa","regiao":"Lagoa Santa","setores":1,"urbano":0},"geometry":{"type":"Polygon","coordinates":[[[-43.93479,-19.66216],[-43.93272,-19.66377],[-43.92883,-19.66859],[-43.92778,-19.66959],[-43.92569,-19.67092],[-43.92302,-19.67207],[-43.92342,-19.67392],[-43.91679,-19.67583],[-43.91646,-19.67403],[-43.91602,-19.67417],[-43.91494,-19.67511],[-43.91412,-19.6775],[-43.91521,-19.6807],[-43.91503,-19.68189],[-43.9152,-19.68294],[-43.91599,-19.68344],[-43.91711,-19.68267],[-43.92036,-19.68246],[-43.92279,-19.68528],[-43.92421,-19.6848],[-43.92589,-19.68506],[-43.9281,-19.68346],[-43.92875,-19.68282],[-43.92936,-19.68182],[-43.9307,-19.68069],[-43.93098,-19.68],[-43.9313,-19.67979],[-43.93262,-19.67969],[-43.93613,-19.68087],[-43.93727,-19.68092],[-43.93836,-19.67973],[-43.93859,-19.67883],[-43.94164,-19.67677],[-43.9421,-19.6757],[-43.94194,-19.67421],[-43.94249,-19.6725],[-43.94415,-19.67216],[-43.94488,-19.67163],[-43.9444,-19.67114],[-43.94413,-19.66816],[-43.94387,-19.66745],[-43.94279,-19.66628],[-43.94232,-19.66514],[-43.94112,-19.6635],[-43.93839,-19.66324],[-43.93647,-19.66344],[-43.93479,-19.66216]]]}},{"id":"10","type":"Feature","properties":{"bairro":"Conjunto Ovidio Guerra","distrito":"Lagoa Santa","regiao":"Lagoa Santa","setores":6,"urbano":6},"geometry":{"type":"Polygon","coordinates":[[[-43.91269,-19.63662],[-43.91284,-19.63919],[-43.9116,-19.64027],[-43.9114,-19.63894],[-43.90921,-19.63912],[-43.90917,-19.63958],[-43.90688,-19.63947],[-43.90705,-19.63718],[-43.90604,-19.63729],[-43.90503,-19.63776],[-43.90494,-19.63913],[-43.90407,-19.6395],[-43.90396,-19.63998],[-43.90457,-19.64139],[-43.90463,-19.64197],[-43.90455,-19.64554],[-43.90543,-19.64734],[-43.91175,-19.64536],[-43.91337,-19.64565],[-43.91623,-19.64479],[-43.9163,-19.64422],[-43.91526,-19.64304],[-43.91466,-19.64306],[-43.91479,-19.64219],[-43.91746,-19.63936],[-43.91819,-19.63824],[-43.91856,-19.63753],[-43.9189,-19.6359],[-43.91269,-19.63662]]]}},{"id":"11","type":"Feature","properties":{"bairro":"Conjunto Vila Maria","distrito":"Lagoa Santa","regiao":"Lagoa Santa","setores":1,"urbano":1},"geometry":{"type":"Polygon","coordinates":[[[-43.90525,-19.60111],[-43.90702,-19.6014],[-43.90701,-19.59886],[-43.90599,-19.59868],[-43.90525,-19.60111]]]}},{"id":"12","type":"Feature","properties":{"bairro":"Estancia das Amendoeiras","distrito":"Lagoa Santa","regiao":"Lagoa Santa","setores":1,"urbano":1},"geometry":{"type":"Polygon","coordinates":[[[-43.9164,-19.65464],[-43.9158,-19.65762],[-43.91538,-19.65767],[-43.91573,-19.65853],[-43.91639,-19.65822],[-43.91871,-19.65778],[-43.91969,-19.6571],[-43.92102,-19.65739],[-43.92247,-19.65572],[-43.92088,-19.65467],[-43.9203,-19.65453],[-43.91738,-19.65493],[-43.91674,-19.65449],[-43.9164,-19.65464]]]}},{"id":"13","type":"Feature","properties":{"bairro":"Fazenda Perdigao","distrito":"Lagoa Santa","regiao":"Lagoa Santa","setores":1,"urbano":0},"geometry":{"type":"Polygon","coordinates":[[[-43.88694,-19.68236],[-43.88544,-19.68146],[-43.87904,-19.67664],[-43.8754,-19.67562],[-43.8752,-19.67551],[-43.87506,-19.67489],[-43.8735,-19.67565],[-43.87199,-19.67559],[-43.87143,-19.67594],[-43.87096,-19.67578],[-43.8704,-19.67617],[-43.87098,-19.67719],[-43.87092,-19.67812],[-43.87011,-19.67838],[-43.86993,-19.67902],[-43.87059,-19.68067],[-43.87158,-19.6816],[-43.87248,-19.68209],[-43.87266,-19.68404],[-43.87242,-19.68447],[-43.87367,-19.68595],[-43.8737,-19.68716],[-43.87423,-19.68802],[-43.87469,-19.68967],[-43.87471,-19.69122],[-43.87548,-19.6929],[-43.87552,-19.69489],[-43.87489,-19.69616],[-43.87478,-19.69715],[-43.87431,-19.69774],[-43.87409,-19.6985],[-43.87346,-19.69895],[-43.87274,-19.69915],[-43.87237,-19.69985],[-43.87098,-19.70091],[-43.87207,-19.70205],[-43.87658,-19.70075],[-43.87725,-19.69967],[-43.87825,-19.69995],[-43.87956,-19.69939],[-43.88042,-19.69987],[-43.88091,-19.69983],[-43.88167,-19.69857],[-43.88276,-19.69727],[-43.88198,-19.69551],[-43.88239,-19.69518],[-43.88439,-19.69451],[-43.88482,-19.6942],[-43.8853,-19.69419],[-43.88558,-19.69461],[-43.88496,-19.69599],[-43.88498,-19.69699],[-43.88525,-19.69739],[-43.88596,-19.69745],[-43.8871,-19.69692],[-43.88835,-19.69685],[-43.89014,-19.69804],[-43.89063,-19.69853],[-43.89132,-19.69978],[-43.8923,-19.70018],[-43.89308,-19.70018],[-43.89407,-19.69952],[-43.89431,-19.6991],[-43.89491,-19.69867],[-43.8965,-19.69844],[-43.89752,-19.69879],[-43.90048,-19.70037],[-43.90145,-19.70122],[-43.90189,-19.70134],[-43.90466,-19.70044],[-43.90544,-19.6999],[-43.90772,-19.69946],[-43.90794,-19.69876],[-43.9083,-19.69858],[-43.91024,-19.69922],[-43.9109,-19.69926],[-43.91303,-19.69828],[-43.91444,-19.69817],[-43.9149,-19.69795],[-43.91505,-19.69711],[-43.91437,-19.69663],[-43.91418,-19.69487],[-43.90931,-19.69452],[-43.90823,-19.69417],[-43.9048,-19.6921],[-43.90417,-19.69089],[-43.90266,-19.68455],[-43.90391,-19.68332],[-43.90374,-19.68206],[-43.90407,-19.68043],[-43.90489,-19.67927],[-43.91043,-19.67462],[-43.91072,-19.67386],[-43.91082,-19.67274],[-43.91063,-19.67199],[-43.90957,-19.67076],[-43.90855,-19.67009],[-43.90557,-19.66879],[-43.9047,-19.66815],[-43.90443,-19.66774],[-43.90432,-19.66687],[-43.90481,-19.66421],[-43.9002,-19.66572],[-43.89928,-19.66565],[-43.89806,-19.66635],[-43.89632,-19.66663],[-43.89525,-19.66639],[-43.89476,-19.66664],[-43.89446,-19.66725],[-43.89492,-19.66922],[-43.89617,-19.67046],[-43.89599,-19.6712],[-43.89474,-19.6715],[-43.89426,-19.67235],[-43.89448,-19.67306],[-43.89431,-19.67481],[-43.89195,-19.67622],[-43.89122,-19.67741],[-43.89115,-19.67917],[-43.89098,-19.67962],[-43.8895,-19.68098],[-43.88772,-19.6816],[-43.88694,-19.68236]]]}},{"id":"14","type":"Feature","properties":{"bairro":"Fazenda Sao Francisco de Assis","distrito":"Lagoa Santa","regiao":"Lagoa Santa","setores":1,"urbano":0},"geometry":{"type":"Polygon","coordinates":[[[-43.93221,-19.60618],[-43.93326,-19.60764],[-43.93263,-19.60767],[-43.93169,-19.61032],[-43.93117,-19.61124],[-43.9309,-19.61584],[-43.93066,-19.61657],[-43.93004,-19.61724],[-43.92915,-19.6173],[-43.92826,-19.61777],[-43.92542,-19.62143],[-43.92276,-19.62438],[-43.92011,-19.62507],[-43.91935,-19.62496],[-43.91781,-19.62562],[-43.91669,-19.62585],[-43.91853,-19.62967],[-43.91797,-19.63145],[-43.91717,-19.63124],[-43.91621,-19.63346],[-43.91761,-19.63355],[-43.91765,-19.63318],[-43.91872,-19.63318],[-43.92005,-19.63195],[-43.92148,-19.63288],[-43.92192,-19.63154],[-43.92408,-19.63111],[-43.92479,-19.62992],[-43.92583,-19.62652],[-43.9314,-19.62671],[-43.93076,-19.62743],[-43.92987,-19.6291],[-43.93969,-19.62792],[-43.93897,-19.63002],[-43.93916,-19.63153],[-43.93957,-19.63213],[-43.94033,-19.6325],[-43.94045,-19.63341],[-43.94005,-19.63412],[-43.93219,-19.63957],[-43.92879,-19.63917],[-43.92421,-19.63373],[-43.92148,-19.63368],[-43.92131,-19.63441],[-43.92048,-19.6352],[-43.9189,-19.6359],[-43.91856,-19.63753],[-43.91819,-19.63824],[-43.91746,-19.63936],[-43.91479,-19.64219],[-43.91466,-19.64306],[-43.91526,-19.64304],[-43.9163,-19.64422],[-43.91689,-19.64443],[-43.91692,-19.64492],[-43.91947,-19.64775],[-43.92033,-19.64829],[-43.91966,-19.65069],[-43.92213,-19.65233],[-43.92322,-19.65358],[-43.92342,-19.65418],[-43.92615,-19.653],[-43.92608,-19.65235],[-43.92731,-19.652],[-43.92665,-19.65002],[-43.92558,-19.64782],[-43.92521,-19.64577],[-43.92712,-19.64535],[-43.9289,-19.64861],[-43.93055,-19.65004],[-43.93213,-19.65123],[-43.93417,-19.65203],[-43.93556,-19.65216],[-43.9377,-19.65372],[-43.93964,-19.65559],[-43.94073,-19.65621],[-43.94187,-19.65385],[-43.94525,-19.65012],[-43.94788,-19.64877],[-43.9484,-19.64788],[-43.94934,-19.64693],[-43.95185,-19.64676],[-43.9533,-19.64594],[-43.95677,-19.64234],[-43.95882,-19.63964],[-43.95912,-19.63896],[-43.95916,-19.63764],[-43.95872,-19.63607],[-43.95919,-19.63427],[-43.95999,-19.63314],[-43.9592,-19.63068],[-43.95625,-19.62687],[-43.95273,-19.62457],[-43.95218,-19.62398],[-43.95232,-19.62206],[-43.95211,-19.61978],[-43.95104,-19.61761],[-43.95069,-19.61566],[-43.95139,-19.61278],[-43.95199,-19.61167],[-43.95366,-19.60952],[-43.95335,-19.60916],[-43.9516,-19.6078],[-43.95089,-19.60751],[-43.95018,-19.60679],[-43.94894,-19.60643],[-43.94827,-19.60511],[-43.94723,-19.60446],[-43.94641,-19.60424],[-43.945,-19.60442],[-43.94449,-19.6042],[-43.9432,-19.60409],[-43.94137,-19.60332],[-43.94042,-19.60236],[-43.9392,-19.602],[-43.93652,-19.60287],[-43.93298,-19.60275],[-43.9326,-19.6031],[-43.93206,-19.60453],[-43.93221,-19.60618]]]}},{"id":"15","type":"Feature","properties":{"bairro":"Francisco Pereira","distrito":"Lagoa Santa","regiao":"Lagoa Santa","setores":5,"urbano":5},"geometry":{"type":"Polygon","coordinates":[[[-43.86571,-19.65914],[-43.86556,-19.65923],[-43.86759,-19.66051],[-43.86701,-19.66135],[-43.87033,-19.66347],[-43.87125,-19.66355],[-43.87493,-19.66257],[-43.87534,-19.66201],[-43.87549,-19.66134],[-43.87508,-19.66066],[-43.87513,-19.66032],[-43.87719,-19.65486],[-43.87838,-19.65308],[-43.87808,-19.65313],[-43.87716,-19.65156],[-43.87684,-19.65131],[-43.87557,-19.65222],[-43.87245,-19.65275],[-43.87236,-19.65394],[-43.87166,-19.6539],[-43.87162,-19.65517],[-43.86786,-19.65499],[-43.86777,-19.65693],[-43.8658,-19.65685],[-43.86546,-19.65712],[-43.86571,-19.65914]]]}},{"id":"16","type":"Feature","properties":{"bairro":"Jardim Imperial","distrito":"Lagoa Santa","regiao":"Lagoa Santa","setores":3,"urbano":3},"geometry":{"type":"Polygon","coordinates":[[[-43.8958,-19.6054],[-43.89545,-19.60587],[-43.89526,-19.60817],[-43.89835,-19.60899],[-43.89907,-19.60947],[-43.89937,-19.60898],[-43.90317,-19.60883],[-43.90293,-19.60772],[-43.90339,-19.60705],[-43.90333,-19.6057],[-43.90365,-19.60505],[-43.90343,-19.6048],[-43.90353,-19.60405],[-43.90325,-19.60249],[-43.90297,-19.60214],[-43.90186,-19.60296],[-43.90066,-19.60321],[-43.90035,-19.60351],[-43.90001,-19.60299],[-43.89891,-19.60294],[-43.89829,-19.60211],[-43.89772,-19.60239],[-43.89664,-19.60224],[-43.89689,-19.60126],[-43.89777,-19.601],[-43.89747,-19.60045],[-43.89886,-19.60026],[-43.89895,-19.5998],[-43.89829,-19.59991],[-43.89735,-19.59941],[-43.89512,-19.6],[-43.89418,-19.60301],[-43.89464,-19.60303],[-43.8962,-19.60522],[-43.8958,-19.6054]]]}},{"id":"17","type":"Feature","properties":{"bairro":"Jardim Ipe","distrito":"Lagoa Santa","regiao":"Lagoa Santa","setores":5,"urbano":5},"geometry":{"type":"Polygon","coordinates":[[[-43.91072,-19.65721],[-43.91032,-19.65897],[-43.91349,-19.65878],[-43.91523,-19.65836],[-43.91573,-19.65853],[-43.91538,-19.65767],[-43.9158,-19.65762],[-43.917,-19.65052],[-43.91881,-19.6505],[-43.91868,-19.65023],[-43.9191,-19.64897],[-43.91441,-19.64798],[-43.9142,-19.64948],[-43.91486,-19.64952],[-43.91461,-19.65251],[-43.91262,-19.65274],[-43.91211,-19.64946],[-43.91149,-19.65015],[-43.91062,-19.6506],[-43.90989,-19.65035],[-43.90936,-19.64955],[-43.90719,-19.65057],[-43.91049,-19.65644],[-43.91072,-19.65721]]]}},{"id":"18","type":"Feature","properties":{"bairro":"Joa","distrito":"Lagoa Santa","regiao":"Lagoa Santa","setores":16,"urbano":16},"geometry":{"type":"Polygon","coordinates":[[[-43.87684,-19.65131],[-43.87716,-19.65156],[-43.87808,-19.65313],[-43.88135,-19.65069],[-43.88167,-19.64974],[-43.88117,-19.64957],[-43.88142,-19.64895],[-43.87975,-19.64814],[-43.88154,-19.64518],[-43.88241,-19.64299],[-43.88327,-19.64154],[-43.88137,-19.64073],[-43.88081,-19.6417],[-43.87791,-19.6412],[-43.87925,-19.63833],[-43.87606,-19.63805],[-43.87571,-19.63785],[-43.87505,-19.63647],[-43.87657,-19.63592],[-43.87871,-19.63554],[-43.87961,-19.63605],[-43.88161,-19.63495],[-43.8815,-19.63428],[-43.88187,-19.63413],[-43.88181,-19.63286],[-43.88233,-19.63325],[-43.88358,-19.63332],[-43.88441,-19.63363],[-43.88351,-19.63454],[-43.88368,-19.63469],[-43.88526,-19.63378],[-43.88547,-19.63336],[-43.88649,-19.63347],[-43.88698,-19.63157],[-43.88517,-19.63123],[-43.88181,-19.63133],[-43.88022,-19.6311],[-43.87865,-19.63132],[-43.87662,-19.63111],[-43.87565,-19.63074],[-43.87505,-19.62912],[-43.87477,-19.62916],[-43.87418,-19.63101],[-43.87276,-19.63152],[-43.87113,-19.63171],[-43.87039,-19.63238],[-43.86919,-19.63276],[-43.86886,-19.63333],[-43.86889,-19.63464],[-43.86837,-19.6355],[-43.86762,-19.63592],[-43.86659,-19.63706],[-43.86548,-19.63765],[-43.8643,-19.63868],[-43.86421,-19.63898],[-43.86465,-19.63932],[-43.86516,-19.64041],[-43.86751,-19.64375],[-43.86798,-19.64415],[-43.86881,-19.64414],[-43.86285,-19.6492],[-43.86704,-19.64964],[-43.86786,-19.6507],[-43.87512,-19.64784],[-43.87694,-19.64676],[-43.87809,-19.6465],[-43.87807,-19.64742],[-43.8769,-19.64993],[-43.87575,-19.65042],[-43.87615,-19.65127],[-43.87657,-19.65152],[-43.87684,-19.65131]]]}},{"id":"19","type":"Feature","properties":{"bairro":"Lagoa Mansoes","distrito":"Lagoa Santa","regiao":"Lagoa Santa","setores":3,"urbano":3},"geometry":{"type":"Polygon","coordinates":[[[-43.86126,-19.65415],[-43.85843,-19.65465],[-43.85849,-19.65713],[-43.85871,-19.65782],[-43.86238,-19.65993],[-43.86302,-19.65924],[-43.86269,-19.65901],[-43.8623,-19.65954],[-43.86203,-19.65938],[-43.86239,-19.65799],[-43.86308,-19.65801],[-43.86331,-19.65934],[-43.86371,-19.65993],[-43.8657,-19.65902],[-43.86546,-19.65712],[-43.8658,-19.65685],[-43.86777,-19.65693],[-43.86786,-19.65499],[-43.87162,-19.65517],[-43.87166,-19.6539],[-43.87236,-19.65394],[-43.87245,-19.65275],[-43.87298,-19.65263],[-43.87332,-19.65167],[-43.87363,-19.65134],[-43.87206,-19.64905],[-43.86786,-19.6507],[-43.86704,-19.64964],[-43.86297,-19.64927],[-43.86312,-19.65048],[-43.86066,-19.65079],[-43.86024,-19.65098],[-43.85979,-19.65157],[-43.8598,-19.65171],[-43.86037,-19.65185],[-43.86116,-19.65174],[-43.86123,-19.65224],[-43.86209,-19.65378],[-43.86126,-19.65415]]]}},{"id":"20","type":"Feature","properties":{"bairro":"Lagoa Santa — sem bairro declarado","distrito":"Lagoa Santa","regiao":"Lagoa Santa","setores":1,"urbano":0},"geometry":{"type":"Polygon","coordinates":[[[-43.88791,-19.63698],[-43.88858,-19.63827],[-43.88884,-19.63941],[-43.88833,-19.64042],[-43.88628,-19.6422],[-43.8861,-19.64392],[-43.88544,-19.645],[-43.88553,-19.64573],[-43.88594,-19.64628],[-43.88703,-19.64638],[-43.88755,-19.64601],[-43.88805,-19.64507],[-43.8891,-19.64439],[-43.88993,-19.64412],[-43.89315,-19.64413],[-43.89609,-19.64509],[-43.89658,-19.6451],[-43.89745,-19.64478],[-43.8985,-19.64378],[-43.90011,-19.64273],[-43.90075,-19.64283],[-43.90158,-19.64374],[-43.90226,-19.6435],[-43.90263,-19.64307],[-43.90213,-19.64055],[-43.90079,-19.63901],[-43.90052,-19.63794],[-43.89963,-19.63666],[-43.89586,-19.63402],[-43.89375,-19.63322],[-43.89245,-19.63195],[-43.89265,-19.63118],[-43.89253,-19.63076],[-43.89183,-19.63032],[-43.89057,-19.62991],[-43.8894,-19.62872],[-43.88905,-19.62864],[-43.88877,-19.62862],[-43.88849,-19.62886],[-43.88823,-19.62945],[-43.88788,-19.63131],[-43.88764,-19.63307],[-43.88801,-19.63541],[-43.88791,-19.63698]]]}},{"id":"21","type":"Feature","properties":{"bairro":"Lagoinha de Fora — sem bairro declarado","distrito":"Lagoinha de Fora","regiao":"Lagoinha de Fora","setores":2,"urbano":2},"geometry":{"type":"Polygon","coordinates":[[[-43.8453,-19.68747],[-43.8459,-19.68792],[-43.8462,-19.6898],[-43.84666,-19.6907],[-43.84755,-19.68963],[-43.84925,-19.68855],[-43.85006,-19.68763],[-43.85273,-19.68392],[-43.85356,-19.68202],[-43.85063,-19.67923],[-43.85041,-19.67929],[-43.85013,-19.68131],[-43.84964,-19.68239],[-43.84972,-19.68276],[-43.84941,-19.68263],[-43.84903,-19.68208],[-43.84809,-19.68189],[-43.84683,-19.68283],[-43.84638,-19.68283],[-43.84328,-19.68008],[-43.84258,-19.68039],[-43.84143,-19.68044],[-43.8453,-19.68747]]]}},{"id":"22","type":"Feature","properties":{"bairro":"Lapinha","distrito":"Lapinha","regiao":"Lapinha","setores":9,"urbano":8},"geometry":{"type":"Polygon","coordinates":[[[-43.93979,-19.58139],[-43.94148,-19.58243],[-43.94181,-19.58312],[-43.94766,-19.58222],[-43.95119,-19.58035],[-43.95821,-19.57719],[-43.96106,-19.57381],[-43.9613,-19.57395],[-43.96362,-19.57269],[-43.96635,-19.57061],[-43.96593,-19.5706],[-43.96534,-19.57016],[-43.96507,-19.56871],[-43.96435,-19.56802],[-43.96362,-19.56638],[-43.96376,-19.5644],[-43.96309,-19.5637],[-43.96309,-19.56345],[-43.96354,-19.56283],[-43.96608,-19.56143],[-43.96732,-19.56137],[-43.96743,-19.56088],[-43.96666,-19.55994],[-43.96663,-19.55715],[-43.96543,-19.55636],[-43.9644,-19.5563],[-43.96353,-19.55554],[-43.96309,-19.55559],[-43.96273,-19.55492],[-43.96316,-19.55436],[-43.96435,-19.55395],[-43.96483,-19.55346],[-43.96512,-19.55249],[-43.96493,-19.54977],[-43.96459,-19.54866],[-43.9636,-19.54857],[-43.96318,-19.54823],[-43.96237,-19.54807],[-43.96197,-19.54747],[-43.96155,-19.54649],[-43.96158,-19.54599],[-43.96187,-19.54559],[-43.96153,-19.54433],[-43.96147,-19.54311],[-43.96054,-19.54196],[-43.96063,-19.54015],[-43.96039,-19.53973],[-43.95808,-19.53936],[-43.95675,-19.53818],[-43.95577,-19.53764],[-43.95405,-19.53607],[-43.95254,-19.5354],[-43.94976,-19.53535],[-43.94866,-19.53553],[-43.94705,-19.53617],[-43.94571,-19.53744],[-43.94499,-19.53878],[-43.9446,-19.53909],[-43.94366,-19.53931],[-43.94207,-19.54117],[-43.93789,-19.5428],[-43.93084,-19.54271],[-43.9273,-19.5399],[-43.92541,-19.53795],[-43.92555,-19.53785],[-43.92402,-19.53735],[-43.9219,-19.53569],[-43.92083,-19.53636],[-43.92011,-19.53712],[-43.919,-19.53773],[-43.91686,-19.53851],[-43.91579,-19.53858],[-43.91309,-19.53976],[-43.91126,-19.54061],[-43.90882,-19.54224],[-43.90704,-19.54276],[-43.90647,-19.54269],[-43.90454,-19.54306],[-43.90438,-19.54325],[-43.90253,-19.54316],[-43.90097,-19.5425],[-43.8993,-19.54216],[-43.8973,-19.54121],[-43.89648,-19.54106],[-43.89529,-19.54036],[-43.89423,-19.54037],[-43.89379,-19.5406],[-43.89318,-19.54177],[-43.89269,-19.54734],[-43.89145,-19.55121],[-43.89149,-19.55264],[-43.89211,-19.55309],[-43.89358,-19.55341],[-43.89679,-19.55257],[-43.89838,-19.55264],[-43.90006,-19.55326],[-43.90174,-19.55435],[-43.90281,-19.5547],[-43.90467,-19.5551],[-43.9076,-19.55489],[-43.91057,-19.55621],[-43.91123,-19.55779],[-43.91124,-19.55877],[-43.91093,-19.55946],[-43.91175,-19.5593],[-43.91266,-19.55981],[-43.91355,-19.55948],[-43.91403,-19.55823],[-43.91463,-19.55809],[-43.9179,-19.55901],[-43.91984,-19.55898],[-43.91988,-19.55924],[-43.92042,-19.55796],[-43.92141,-19.55677],[-43.92322,-19.55353],[-43.92489,-19.55315],[-43.92644,-19.55408],[-43.92666,-19.55458],[-43.92855,-19.55633],[-43.92942,-19.55754],[-43.93069,-19.55844],[-43.93192,-19.55892],[-43.93315,-19.55868],[-43.93621,-19.55952],[-43.93696,-19.56013],[-43.93737,-19.56089],[-43.93826,-19.56147],[-43.93857,-19.56149],[-43.93906,-19.56226],[-43.94187,-19.56436],[-43.93455,-19.57645],[-43.93481,-19.57832],[-43.93837,-19.57916],[-43.93972,-19.57879],[-43.93979,-19.58139]]]}},{"id":"23","type":"Feature","properties":{"bairro":"Lundcea","distrito":"Lagoa Santa","regiao":"Lagoa Santa","setores":4,"urbano":4},"geometry":{"type":"MultiPolygon","coordinates":[[[[-43.9154,-19.63629],[-43.91893,-19.6359],[-43.92048,-19.6352],[-43.92131,-19.63441],[-43.92148,-19.63288],[-43.92005,-19.63195],[-43.91872,-19.63318],[-43.91765,-19.63318],[-43.91761,-19.63355],[-43.9145,-19.63338],[-43.91534,-19.6339],[-43.91544,-19.63416],[-43.91522,-19.63415],[-43.9154,-19.63629]]],[[[-43.90554,-19.63539],[-43.90579,-19.63602],[-43.90808,-19.63594],[-43.90878,-19.63484],[-43.90978,-19.63533],[-43.9115,-19.63426],[-43.91152,-19.63331],[-43.90784,-19.63327],[-43.90782,-19.63431],[-43.90625,-19.63505],[-43.9057,-19.63402],[-43.90458,-19.63338],[-43.90329,-19.63223],[-43.90315,-19.62987],[-43.90101,-19.62976],[-43.90119,-19.63235],[-43.90183,-19.63357],[-43.9026,-19.63422],[-43.90502,-19.63508],[-43.90554,-19.63539]]]]}},{"id":"24","type":"Feature","properties":{"bairro":"Lundceia","distrito":"Lagoa Santa","regiao":"Lagoa Santa","setores":3,"urbano":3},"geometry":{"type":"MultiPolygon","coordinates":[[[[-43.91152,-19.63331],[-43.9115,-19.63426],[-43.9107,-19.63479],[-43.91131,-19.63568],[-43.91131,-19.63679],[-43.9154,-19.63629],[-43.91522,-19.63415],[-43.91544,-19.63416],[-43.91534,-19.6339],[-43.9145,-19.63338],[-43.91152,-19.63331]]],[[[-43.90625,-19.63505],[-43.90782,-19.63431],[-43.90784,-19.63327],[-43.90661,-19.63325],[-43.90621,-19.63236],[-43.90874,-19.63262],[-43.90875,-19.63186],[-43.908,-19.63175],[-43.904,-19.62998],[-43.90315,-19.62987],[-43.90329,-19.63223],[-43.90458,-19.63338],[-43.9057,-19.63402],[-43.90625,-19.63505]]],[[[-43.91183,-19.62856],[-43.91299,-19.62917],[-43.91324,-19.62906],[-43.91432,-19.62965],[-43.91457,-19.62917],[-43.91389,-19.62878],[-43.91343,-19.62818],[-43.91335,-19.62765],[-43.91237,-19.62732],[-43.91183,-19.62856]]]]}},{"id":"25","type":"Feature","properties":{"bairro":"Lundceia 2","distrito":"Lagoa Santa","regiao":"Lagoa Santa","setores":2,"urbano":2},"geometry":{"type":"Polygon","coordinates":[[[-43.91621,-19.63346],[-43.91717,-19.63124],[-43.91651,-19.6308],[-43.91541,-19.63343],[-43.91621,-19.63346]]]}},{"id":"26","type":"Feature","properties":{"bairro":"Nossa Senhora de Lourdes","distrito":"Lagoa Santa","regiao":"Lagoa Santa","setores":1,"urbano":1},"geometry":{"type":"Polygon","coordinates":[[[-43.87206,-19.64905],[-43.87363,-19.65134],[-43.87332,-19.65167],[-43.87298,-19.65263],[-43.87557,-19.65222],[-43.87657,-19.65152],[-43.87615,-19.65127],[-43.87465,-19.64803],[-43.87206,-19.64905]]]}},{"id":"27","type":"Feature","properties":{"bairro":"Novo Santos Drumond","distrito":"Lagoa Santa","regiao":"Lagoa Santa","setores":1,"urbano":1},"geometry":{"type":"Polygon","coordinates":[[[-43.88407,-19.65737],[-43.88298,-19.66087],[-43.88318,-19.66114],[-43.88308,-19.66176],[-43.88181,-19.66269],[-43.88351,-19.66204],[-43.88388,-19.66159],[-43.88469,-19.6618],[-43.88626,-19.66154],[-43.88842,-19.66163],[-43.88831,-19.66101],[-43.88903,-19.66089],[-43.89065,-19.66139],[-43.89244,-19.66031],[-43.89374,-19.65866],[-43.89409,-19.65759],[-43.89264,-19.65565],[-43.89149,-19.65621],[-43.89112,-19.65577],[-43.89046,-19.65557],[-43.88729,-19.65641],[-43.88478,-19.65675],[-43.88407,-19.65737]]]}},{"id":"28","type":"Feature","properties":{"bairro":"Ovideo Guerra","distrito":"Lagoa Santa","regiao":"Lagoa Santa","setores":2,"urbano":2},"geometry":{"type":"Polygon","coordinates":[[[-43.91152,-19.63331],[-43.91541,-19.63343],[-43.91651,-19.6308],[-43.91717,-19.63124],[-43.91797,-19.63145],[-43.91853,-19.62967],[-43.91669,-19.62585],[-43.91558,-19.62606],[-43.91457,-19.62677],[-43.91374,-19.62693],[-43.91273,-19.62681],[-43.91237,-19.62732],[-43.91335,-19.62765],[-43.91343,-19.62818],[-43.91389,-19.62878],[-43.91457,-19.62917],[-43.91432,-19.62965],[-43.91183,-19.62856],[-43.911,-19.62997],[-43.91202,-19.63053],[-43.91111,-19.63198],[-43.91152,-19.63331]]]}},{"id":"29","type":"Feature","properties":{"bairro":"Palmital","distrito":"Lagoa Santa","regiao":"Lagoa Santa","setores":18,"urbano":18},"geometry":{"type":"MultiPolygon","coordinates":[[[[-43.89891,-19.60294],[-43.90001,-19.60299],[-43.90035,-19.60351],[-43.90066,-19.60321],[-43.90186,-19.60296],[-43.90293,-19.60211],[-43.90281,-19.60152],[-43.903,-19.60059],[-43.90248,-19.59807],[-43.90322,-19.59673],[-43.90381,-19.59608],[-43.90087,-19.59599],[-43.90098,-19.59426],[-43.90079,-19.59176],[-43.90084,-19.59153],[-43.90246,-19.5921],[-43.90264,-19.59235],[-43.90258,-19.59364],[-43.90337,-19.59379],[-43.90349,-19.59249],[-43.90411,-19.59117],[-43.90434,-19.58968],[-43.90282,-19.58943],[-43.90249,-19.58922],[-43.90201,-19.59072],[-43.9018,-19.59063],[-43.90227,-19.58907],[-43.90208,-19.58902],[-43.90234,-19.58748],[-43.90218,-19.58704],[-43.90266,-19.58576],[-43.90217,-19.58542],[-43.90243,-19.58341],[-43.90291,-19.58319],[-43.90387,-19.58121],[-43.90465,-19.57892],[-43.90528,-19.57877],[-43.90405,-19.57681],[-43.90783,-19.5718],[-43.90732,-19.57109],[-43.90797,-19.5699],[-43.90812,-19.569],[-43.90829,-19.56539],[-43.90878,-19.5615],[-43.90442,-19.561],[-43.90256,-19.55905],[-43.90008,-19.5572],[-43.89864,-19.5568],[-43.89753,-19.55732],[-43.89675,-19.55838],[-43.89668,-19.55931],[-43.89705,-19.5609],[-43.89692,-19.56252],[-43.89513,-19.56531],[-43.89412,-19.56652],[-43.89221,-19.56774],[-43.89186,-19.56857],[-43.89179,-19.56946],[-43.89248,-19.57211],[-43.88862,-19.57842],[-43.88739,-19.58009],[-43.88437,-19.5815],[-43.88169,-19.58214],[-43.88039,-19.58188],[-43.87938,-19.58138],[-43.87873,-19.58079],[-43.87815,-19.57983],[-43.87805,-19.57934],[-43.87819,-19.57882],[-43.8797,-19.57687],[-43.87989,-19.57633],[-43.87961,-19.57571],[-43.87889,-19.575],[-43.87638,-19.57392],[-43.87513,-19.57343],[-43.87254,-19.57285],[-43.87113,-19.57183],[-43.87046,-19.57091],[-43.87025,-19.57036],[-43.87028,-19.56941],[-43.871,-19.56655],[-43.8712,-19.56509],[-43.87103,-19.56449],[-43.86881,-19.56115],[-43.86831,-19.55951],[-43.86784,-19.5591],[-43.8671,-19.55916],[-43.86615,-19.55964],[-43.86533,-19.56083],[-43.86483,-19.56238],[-43.86681,-19.5705],[-43.86701,-19.57219],[-43.8668,-19.57303],[-43.86648,-19.57373],[-43.86517,-19.57457],[-43.86429,-19.57441],[-43.86214,-19.57354],[-43.86136,-19.57359],[-43.85992,-19.57434],[-43.8589,-19.57632],[-43.86074,-19.57897],[-43.86221,-19.58017],[-43.86279,-19.58101],[-43.86287,-19.58161],[-43.86175,-19.5829],[-43.86182,-19.58408],[-43.86277,-19.58487],[-43.86572,-19.58508],[-43.86623,-19.58416],[-43.86704,-19.58369],[-43.8685,-19.58353],[-43.86938,-19.58405],[-43.86993,-19.58518],[-43.87069,-19.58553],[-43.87229,-19.58581],[-43.8732,-19.58666],[-43.87506,-19.58774],[-43.87533,-19.58824],[-43.8756,-19.59133],[-43.87656,-19.59291],[-43.87715,-19.59585],[-43.87772,-19.59727],[-43.87764,-19.59889],[-43.87788,-19.59996],[-43.87881,-19.60014],[-43.87947,-19.60168],[-43.87995,-19.60207],[-43.88096,-19.60246],[-43.8814,-19.6031],[-43.88155,-19.60506],[-43.88117,-19.60733],[-43.88151,-19.61039],[-43.88144,-19.61087],[-43.8806,-19.61223],[-43.8808,-19.61231],[-43.88053,-19.61347],[-43.88053,-19.61386],[-43.88096,-19.61468],[-43.88137,-19.61507],[-43.88295,-19.6156],[-43.88424,-19.61548],[-43.88627,-19.616],[-43.88769,-19.61599],[-43.88896,-19.61622],[-43.89213,-19.61738],[-43.89229,-19.61771],[-43.89201,-19.61836],[-43.89242,-19.61856],[-43.89261,-19.61853],[-43.89283,-19.61795],[-43.89319,-19.61761],[-43.89606,-19.61622],[-43.89597,-19.61606],[-43.89659,-19.61408],[-43.89751,-19.61272],[-43.89816,-19.61085],[-43.89892,-19.60938],[-43.89835,-19.60899],[-43.8922,-19.60744],[-43.89336,-19.6067],[-43.89209,-19.60678],[-43.89165,-19.60603],[-43.89122,-19.6058],[-43.89098,-19.60605],[-43.89072,-19.60553],[-43.89178,-19.60382],[-43.89262,-19.60108],[-43.89138,-19.59976],[-43.89109,-19.59922],[-43.89125,-19.59694],[-43.8919,-19.59626],[-43.89192,-19.59528],[-43.89262,-19.59545],[-43.89357,-19.59507],[-43.89368,-19.59521],[-43.8935,-19.59575],[-43.89415,-19.5959],[-43.89501,-19.59545],[-43.89533,-19.59553],[-43.89573,-19.59511],[-43.89667,-19.59522],[-43.89758,-19.595],[-43.89783,-19.59521],[-43.89754,-19.59605],[-43.89909,-19.5998],[-43.89895,-19.5998],[-43.89886,-19.60026],[-43.89747,-19.60045],[-43.89777,-19.601],[-43.89689,-19.60126],[-43.89664,-19.60224],[-43.89772,-19.60239],[-43.89829,-19.60211],[-43.89891,-19.60294]]],[[[-43.90781,-19.57842],[-43.90644,-19.57932],[-43.90712,-19.58049],[-43.90632,-19.58097],[-43.90866,-19.58144],[-43.90859,-19.58175],[-43.91,-19.58235],[-43.9104,-19.58197],[-43.911,-19.58201],[-43.91244,-19.58295],[-43.91333,-19.58217],[-43.91329,-19.58184],[-43.91244,-19.58074],[-43.91235,-19.5796],[-43.9116,-19.57897],[-43.91041,-19.57635],[-43.90868,-19.57655],[-43.90816,-19.57682],[-43.90781,-19.57842]]]]}},{"id":"30","type":"Feature","properties":{"bairro":"Palmital 3","distrito":"Lagoa Santa","regiao":"Lagoa Santa","setores":2,"urbano":2},"geometry":{"type":"Polygon","coordinates":[[[-43.89262,-19.60108],[-43.89178,-19.60382],[-43.89073,-19.60535],[-43.89098,-19.60605],[-43.89122,-19.6058],[-43.89165,-19.60603],[-43.89209,-19.60678],[-43.89336,-19.6067],[-43.8922,-19.60744],[-43.89526,-19.60817],[-43.89545,-19.60587],[-43.8958,-19.6054],[-43.8962,-19.60522],[-43.89464,-19.60303],[-43.89418,-19.60301],[-43.89512,-19.6],[-43.89735,-19.59941],[-43.89829,-19.59991],[-43.89909,-19.5998],[-43.89754,-19.59605],[-43.89783,-19.59521],[-43.89758,-19.595],[-43.89667,-19.59522],[-43.89573,-19.59511],[-43.89533,-19.59553],[-43.89501,-19.59545],[-43.89415,-19.5959],[-43.8935,-19.59575],[-43.89368,-19.59521],[-43.89357,-19.59507],[-43.89262,-19.59545],[-43.89192,-19.59528],[-43.8919,-19.59626],[-43.89125,-19.59694],[-43.89109,-19.59922],[-43.89138,-19.59976],[-43.89262,-19.60108]]]}},{"id":"31","type":"Feature","properties":{"bairro":"Praia Angelica I","distrito":"Lagoa Santa","regiao":"Lagoa Santa","setores":1,"urbano":1},"geometry":{"type":"Polygon","coordinates":[[[-43.8974,-19.64481],[-43.89855,-19.64751],[-43.89913,-19.64736],[-43.89944,-19.64817],[-43.902,-19.64778],[-43.90211,-19.64719],[-43.90091,-19.64516],[-43.89936,-19.64314],[-43.8974,-19.64481]]]}},{"id":"32","type":"Feature","properties":{"bairro":"Praia Angelica III","distrito":"Lagoa Santa","regiao":"Lagoa Santa","setores":1,"urbano":1},"geometry":{"type":"Polygon","coordinates":[[[-43.89855,-19.64751],[-43.89981,-19.65074],[-43.90578,-19.65257],[-43.90311,-19.64929],[-43.90302,-19.64914],[-43.90334,-19.64857],[-43.90262,-19.64836],[-43.90275,-19.64792],[-43.902,-19.64778],[-43.89944,-19.64817],[-43.89913,-19.64736],[-43.89855,-19.64751]]]}},{"id":"33","type":"Feature","properties":{"bairro":"Promissao","distrito":"Lagoa Santa","regiao":"Lagoa Santa","setores":11,"urbano":11},"geometry":{"type":"Polygon","coordinates":[[[-43.90393,-19.62378],[-43.90618,-19.62815],[-43.9055,-19.62851],[-43.90765,-19.62947],[-43.9074,-19.6301],[-43.90851,-19.63055],[-43.9096,-19.62884],[-43.90939,-19.62827],[-43.90963,-19.62778],[-43.91185,-19.62838],[-43.91273,-19.62681],[-43.91374,-19.62693],[-43.91457,-19.62677],[-43.91558,-19.62606],[-43.91781,-19.62562],[-43.91935,-19.62496],[-43.92011,-19.62507],[-43.92276,-19.62438],[-43.92542,-19.62143],[-43.92658,-19.61983],[-43.92256,-19.61789],[-43.9254,-19.61451],[-43.92456,-19.61392],[-43.92397,-19.61452],[-43.9232,-19.6149],[-43.92328,-19.61501],[-43.92205,-19.6164],[-43.92171,-19.61446],[-43.92027,-19.61345],[-43.91943,-19.61508],[-43.9198,-19.61529],[-43.91837,-19.6176],[-43.91802,-19.6174],[-43.9166,-19.61795],[-43.91639,-19.61863],[-43.91596,-19.61915],[-43.91413,-19.61826],[-43.91384,-19.61854],[-43.9134,-19.61735],[-43.91221,-19.61578],[-43.91234,-19.6155],[-43.91215,-19.61529],[-43.91205,-19.61433],[-43.91231,-19.61186],[-43.9128,-19.61207],[-43.91345,-19.61163],[-43.91267,-19.61041],[-43.91301,-19.61038],[-43.91296,-19.60982],[-43.91098,-19.61004],[-43.90995,-19.60691],[-43.90758,-19.60739],[-43.9078,-19.6055],[-43.90678,-19.6058],[-43.9048,-19.60923],[-43.90464,-19.60996],[-43.90485,-19.61091],[-43.90374,-19.61117],[-43.90378,-19.61341],[-43.90352,-19.61401],[-43.90254,-19.61488],[-43.90268,-19.6153],[-43.9025,-19.61586],[-43.90088,-19.61676],[-43.90032,-19.61753],[-43.89882,-19.61806],[-43.8983,-19.61855],[-43.89586,-19.61929],[-43.89528,-19.61985],[-43.89461,-19.61987],[-43.89376,-19.62021],[-43.89375,-19.62036],[-43.89436,-19.62137],[-43.89537,-19.62064],[-43.89633,-19.62276],[-43.89923,-19.62066],[-43.90143,-19.62358],[-43.90263,-19.623],[-43.90327,-19.62412],[-43.90393,-19.62378]]]}},{"id":"34","type":"Feature","properties":{"bairro":"Promissao II","distrito":"Lagoa Santa","regiao":"Lagoa Santa","setores":2,"urbano":2},"geometry":{"type":"Polygon","coordinates":[[[-43.90604,-19.63091],[-43.90822,-19.63183],[-43.90875,-19.63186],[-43.91037,-19.6303],[-43.91117,-19.62984],[-43.91185,-19.62838],[-43.90963,-19.62778],[-43.90939,-19.62827],[-43.9096,-19.62884],[-43.90851,-19.63055],[-43.9074,-19.6301],[-43.90765,-19.62947],[-43.90699,-19.62919],[-43.90604,-19.63091]]]}},{"id":"35","type":"Feature","properties":{"bairro":"Promissao III","distrito":"Lagoa Santa","regiao":"Lagoa Santa","setores":3,"urbano":3},"geometry":{"type":"Polygon","coordinates":[[[-43.90423,-19.62925],[-43.90387,-19.62994],[-43.90604,-19.63091],[-43.90699,-19.62919],[-43.9055,-19.62851],[-43.90618,-19.62815],[-43.90455,-19.62488],[-43.90393,-19.62378],[-43.90327,-19.62412],[-43.90263,-19.623],[-43.90126,-19.62367],[-43.90253,-19.62588],[-43.90423,-19.62925]]]}},{"id":"36","type":"Feature","properties":{"bairro":"Recanto da Lagoa","distrito":"Lagoa Santa","regiao":"Lagoa Santa","setores":6,"urbano":6},"geometry":{"type":"Polygon","coordinates":[[[-43.8819,-19.65375],[-43.88118,-19.65498],[-43.88139,-19.65578],[-43.8818,-19.65622],[-43.88229,-19.6564],[-43.88394,-19.65616],[-43.88407,-19.65737],[-43.88478,-19.65675],[-43.88729,-19.65641],[-43.89046,-19.65557],[-43.89112,-19.65577],[-43.89149,-19.65621],[-43.89264,-19.65565],[-43.89184,-19.64402],[-43.88936,-19.64427],[-43.88805,-19.64507],[-43.88755,-19.64601],[-43.88703,-19.64638],[-43.88625,-19.64638],[-43.88575,-19.64613],[-43.88543,-19.6454],[-43.88544,-19.645],[-43.8861,-19.64392],[-43.88609,-19.64361],[-43.88519,-19.64364],[-43.88483,-19.64448],[-43.88284,-19.64696],[-43.88277,-19.64851],[-43.88179,-19.64949],[-43.88135,-19.65069],[-43.88084,-19.65117],[-43.88107,-19.65161],[-43.88028,-19.65342],[-43.88129,-19.65361],[-43.88244,-19.65303],[-43.88251,-19.65352],[-43.8819,-19.65375]]]}},{"id":"37","type":"Feature","properties":{"bairro":"Recanto do Poeta","distrito":"Lagoa Santa","regiao":"Lagoa Santa","setores":2,"urbano":2},"geometry":{"type":"Polygon","coordinates":[[[-43.91331,-19.64578],[-43.91339,-19.64595],[-43.91294,-19.64617],[-43.91098,-19.64663],[-43.91066,-19.64709],[-43.91169,-19.64918],[-43.91217,-19.64951],[-43.91262,-19.65274],[-43.91461,-19.65251],[-43.91486,-19.64952],[-43.9142,-19.64948],[-43.91441,-19.64798],[-43.9191,-19.64897],[-43.91947,-19.64775],[-43.91692,-19.64492],[-43.91689,-19.64443],[-43.91662,-19.64423],[-43.9163,-19.64422],[-43.91627,-19.64473],[-43.91582,-19.64501],[-43.91331,-19.64578]]]}},{"id":"38","type":"Feature","properties":{"bairro":"Residencia Lagoa Santa","distrito":"Lagoa Santa","regiao":"Lagoa Santa","setores":1,"urbano":1},"geometry":{"type":"Polygon","coordinates":[[[-43.91037,-19.6303],[-43.90875,-19.63186],[-43.90874,-19.63262],[-43.90621,-19.63236],[-43.90661,-19.63325],[-43.91152,-19.63331],[-43.91111,-19.63198],[-43.91202,-19.63053],[-43.911,-19.62997],[-43.91037,-19.6303]]]}},{"id":"39","type":"Feature","properties":{"bairro":"Residencial Eldorado","distrito":"Lagoa Santa","regiao":"Lagoa Santa","setores":6,"urbano":6},"geometry":{"type":"Polygon","coordinates":[[[-43.90655,-19.58936],[-43.90762,-19.59102],[-43.9091,-19.59276],[-43.91109,-19.59053],[-43.91337,-19.58855],[-43.91431,-19.58475],[-43.91201,-19.58257],[-43.91128,-19.58211],[-43.9104,-19.58197],[-43.91,-19.58235],[-43.90859,-19.58175],[-43.90866,-19.58144],[-43.90632,-19.58097],[-43.90712,-19.58049],[-43.90644,-19.57932],[-43.90749,-19.57882],[-43.90781,-19.57842],[-43.9083,-19.57579],[-43.90789,-19.57523],[-43.9081,-19.57467],[-43.90875,-19.57417],[-43.90963,-19.57294],[-43.90969,-19.56997],[-43.90984,-19.56938],[-43.91022,-19.56899],[-43.91098,-19.56673],[-43.91106,-19.56522],[-43.91137,-19.56409],[-43.91119,-19.56356],[-43.91056,-19.56335],[-43.91018,-19.56277],[-43.91056,-19.56121],[-43.90878,-19.5615],[-43.90829,-19.56539],[-43.90812,-19.569],[-43.90797,-19.5699],[-43.90732,-19.57109],[-43.90783,-19.5718],[-43.90405,-19.57681],[-43.90528,-19.57877],[-43.90465,-19.57892],[-43.90387,-19.58121],[-43.90291,-19.58319],[-43.90243,-19.58341],[-43.90217,-19.58542],[-43.90266,-19.58576],[-43.90218,-19.58704],[-43.90234,-19.58748],[-43.90208,-19.58902],[-43.90227,-19.58907],[-43.9018,-19.59063],[-43.90201,-19.59072],[-43.90249,-19.58922],[-43.90282,-19.58943],[-43.90434,-19.58968],[-43.90452,-19.58937],[-43.90582,-19.59108],[-43.90655,-19.58936]]]}},{"id":"40","type":"Feature","properties":{"bairro":"Residencial Real Mont Ville","distrito":"Lagoa Santa","regiao":"Lagoa Santa","setores":2,"urbano":2},"geometry":{"type":"Polygon","coordinates":[[[-43.86343,-19.66014],[-43.86178,-19.66275],[-43.86108,-19.66353],[-43.86086,-19.66433],[-43.86021,-19.66515],[-43.85952,-19.66101],[-43.8591,-19.66006],[-43.85802,-19.65897],[-43.85224,-19.66224],[-43.85193,-19.66248],[-43.85152,-19.66361],[-43.85096,-19.66429],[-43.8505,-19.66543],[-43.84973,-19.66947],[-43.85028,-19.66999],[-43.85225,-19.66976],[-43.8531,-19.66995],[-43.85478,-19.66946],[-43.85699,-19.66797],[-43.8581,-19.66795],[-43.85883,-19.6672],[-43.85985,-19.66789],[-43.86213,-19.66888],[-43.86766,-19.6697],[-43.86889,-19.67004],[-43.86949,-19.67065],[-43.87104,-19.67127],[-43.87026,-19.67165],[-43.87057,-19.67224],[-43.87011,-19.67303],[-43.87086,-19.6734],[-43.87057,-19.67441],[-43.87079,-19.67468],[-43.87077,-19.67424],[-43.87134,-19.67346],[-43.87131,-19.67229],[-43.87095,-19.67186],[-43.87226,-19.67145],[-43.87214,-19.67021],[-43.8735,-19.66886],[-43.8735,-19.66792],[-43.87296,-19.66559],[-43.87462,-19.66326],[-43.8749,-19.66257],[-43.87125,-19.66355],[-43.87033,-19.66347],[-43.86701,-19.66135],[-43.86759,-19.66051],[-43.86556,-19.65923],[-43.8657,-19.65902],[-43.86343,-19.66014]]]}},{"id":"41","type":"Feature","properties":{"bairro":"Santos Dumont","distrito":"Lagoa Santa","regiao":"Lagoa Santa","setores":12,"urbano":12},"geometry":{"type":"MultiPolygon","coordinates":[[[[-43.90579,-19.65247],[-43.90878,-19.65346],[-43.90719,-19.65057],[-43.90936,-19.64955],[-43.90989,-19.65035],[-43.9104,-19.65055],[-43.91097,-19.6505],[-43.91149,-19.65015],[-43.91211,-19.64946],[-43.91169,-19.64918],[-43.91106,-19.64801],[-43.9107,-19.64727],[-43.91072,-19.64683],[-43.91098,-19.64663],[-43.91294,-19.64617],[-43.91339,-19.64595],[-43.91337,-19.64565],[-43.91175,-19.64536],[-43.90543,-19.64734],[-43.90455,-19.64554],[-43.90463,-19.64197],[-43.90457,-19.64139],[-43.90396,-19.63998],[-43.90407,-19.6395],[-43.90494,-19.63913],[-43.90503,-19.63776],[-43.90604,-19.63729],[-43.90584,-19.63728],[-43.90562,-19.6368],[-43.90577,-19.63582],[-43.90554,-19.63539],[-43.90502,-19.63508],[-43.90327,-19.63451],[-43.9022,-19.63394],[-43.90138,-19.63293],[-43.90119,-19.63235],[-43.89776,-19.63543],[-43.8989,-19.63601],[-43.90015,-19.63729],[-43.90061,-19.63815],[-43.90079,-19.63901],[-43.90213,-19.64055],[-43.90263,-19.64307],[-43.90226,-19.6435],[-43.90158,-19.64374],[-43.90052,-19.64272],[-43.90011,-19.64273],[-43.89936,-19.64314],[-43.90091,-19.64516],[-43.90211,-19.64719],[-43.902,-19.64778],[-43.90275,-19.64792],[-43.90262,-19.64836],[-43.90334,-19.64857],[-43.90302,-19.64914],[-43.90311,-19.64929],[-43.90579,-19.65247]]],[[[-43.88619,-19.66682],[-43.8862,-19.66614],[-43.88807,-19.6662],[-43.8881,-19.66493],[-43.88465,-19.66485],[-43.88458,-19.6668],[-43.88619,-19.66682]]]]}},{"id":"42","type":"Feature","properties":{"bairro":"Sobradinho","distrito":"Lagoa Santa","regiao":"Lagoa Santa","setores":7,"urbano":7},"geometry":{"type":"Polygon","coordinates":[[[-43.90084,-19.59153],[-43.90087,-19.59599],[-43.90381,-19.59608],[-43.90425,-19.59534],[-43.90424,-19.59502],[-43.90394,-19.59429],[-43.90346,-19.59378],[-43.90487,-19.5942],[-43.90582,-19.5942],[-43.90593,-19.59335],[-43.90777,-19.59402],[-43.90831,-19.59394],[-43.9091,-19.59276],[-43.90762,-19.59102],[-43.90655,-19.58936],[-43.90582,-19.59108],[-43.90452,-19.58937],[-43.90421,-19.58995],[-43.90411,-19.59117],[-43.90349,-19.59249],[-43.90337,-19.59379],[-43.90258,-19.59364],[-43.90264,-19.59235],[-43.90246,-19.5921],[-43.90084,-19.59153]]]}},{"id":"43","type":"Feature","properties":{"bairro":"Varzea","distrito":"Lagoa Santa","regiao":"Lagoa Santa","setores":15,"urbano":15},"geometry":{"type":"MultiPolygon","coordinates":[[[[-43.88241,-19.64299],[-43.88154,-19.64518],[-43.87975,-19.64814],[-43.88142,-19.64895],[-43.88117,-19.64957],[-43.88167,-19.64974],[-43.88277,-19.64851],[-43.88284,-19.64696],[-43.88483,-19.64448],[-43.88519,-19.64364],[-43.88609,-19.64361],[-43.88628,-19.6422],[-43.88833,-19.64042],[-43.88873,-19.63981],[-43.88882,-19.63892],[-43.88791,-19.63698],[-43.88801,-19.63541],[-43.88764,-19.63307],[-43.88823,-19.62945],[-43.88872,-19.62853],[-43.89003,-19.62757],[-43.89161,-19.62772],[-43.89165,-19.62709],[-43.88859,-19.6266],[-43.88839,-19.62832],[-43.88789,-19.62883],[-43.88765,-19.62867],[-43.88682,-19.62939],[-43.88656,-19.62927],[-43.8866,-19.6287],[-43.88499,-19.6281],[-43.88443,-19.62757],[-43.88362,-19.62757],[-43.88329,-19.62853],[-43.88332,-19.62905],[-43.88446,-19.62991],[-43.87711,-19.62782],[-43.87498,-19.62831],[-43.87491,-19.62872],[-43.87565,-19.63074],[-43.8762,-19.631],[-43.87865,-19.63132],[-43.88022,-19.6311],[-43.88181,-19.63133],[-43.88517,-19.63123],[-43.88698,-19.63157],[-43.88649,-19.63347],[-43.88547,-19.63336],[-43.88526,-19.63378],[-43.88368,-19.63469],[-43.88351,-19.63454],[-43.88441,-19.63363],[-43.88358,-19.63332],[-43.88233,-19.63325],[-43.88181,-19.63286],[-43.88187,-19.63413],[-43.8815,-19.63428],[-43.88161,-19.63495],[-43.87961,-19.63605],[-43.87871,-19.63554],[-43.87657,-19.63592],[-43.87505,-19.63647],[-43.87571,-19.63785],[-43.87606,-19.63805],[-43.87925,-19.63833],[-43.87791,-19.6412],[-43.88081,-19.6417],[-43.88137,-19.64073],[-43.88327,-19.64154],[-43.88241,-19.64299]]],[[[-43.87694,-19.64676],[-43.87465,-19.64803],[-43.87575,-19.65042],[-43.8769,-19.64993],[-43.87807,-19.64742],[-43.87809,-19.6465],[-43.87694,-19.64676]]]]}},{"id":"44","type":"Feature","properties":{"bairro":"Varzea do Lobo","distrito":"Lagoa Santa","regiao":"Lagoa Santa","setores":1,"urbano":1},"geometry":{"type":"Polygon","coordinates":[[[-43.92148,-19.63288],[-43.92148,-19.63368],[-43.92421,-19.63373],[-43.92879,-19.63917],[-43.93219,-19.63957],[-43.94005,-19.63412],[-43.94045,-19.63341],[-43.94033,-19.6325],[-43.93957,-19.63213],[-43.93916,-19.63153],[-43.93897,-19.63002],[-43.93969,-19.62792],[-43.92987,-19.6291],[-43.93076,-19.62743],[-43.9314,-19.62671],[-43.92821,-19.62653],[-43.92583,-19.62652],[-43.92479,-19.62992],[-43.92408,-19.63111],[-43.92192,-19.63154],[-43.92148,-19.63288]]]}},{"id":"45","type":"Feature","properties":{"bairro":"Vila Asas","distrito":"Lagoa Santa","regiao":"Lagoa Santa","setores":2,"urbano":2},"geometry":{"type":"Polygon","coordinates":[[[-43.90481,-19.66421],[-43.90432,-19.66725],[-43.90443,-19.66774],[-43.90505,-19.66852],[-43.90855,-19.67009],[-43.90957,-19.67076],[-43.91109,-19.67255],[-43.91267,-19.67217],[-43.91283,-19.67199],[-43.9123,-19.67136],[-43.91277,-19.6674],[-43.91383,-19.66481],[-43.91391,-19.66443],[-43.9137,-19.66368],[-43.91579,-19.66345],[-43.91573,-19.65853],[-43.91523,-19.65836],[-43.91213,-19.65892],[-43.91032,-19.65897],[-43.91027,-19.65879],[-43.90886,-19.66004],[-43.90863,-19.65935],[-43.90549,-19.65801],[-43.90266,-19.65768],[-43.8974,-19.64481],[-43.89609,-19.64509],[-43.89315,-19.64413],[-43.89184,-19.64402],[-43.89264,-19.65565],[-43.89409,-19.65759],[-43.89374,-19.65866],[-43.89244,-19.66031],[-43.89065,-19.66139],[-43.88903,-19.66089],[-43.88831,-19.66101],[-43.88887,-19.66309],[-43.8881,-19.66352],[-43.88796,-19.66376],[-43.88807,-19.66439],[-43.88906,-19.66478],[-43.88963,-19.6645],[-43.89137,-19.66553],[-43.89155,-19.66656],[-43.89015,-19.66712],[-43.89196,-19.66932],[-43.89492,-19.66922],[-43.89445,-19.66716],[-43.89476,-19.66664],[-43.89525,-19.66639],[-43.89632,-19.66663],[-43.89806,-19.66635],[-43.89928,-19.66565],[-43.9002,-19.66572],[-43.90481,-19.66421]]]}},{"id":"46","type":"Feature","properties":{"bairro":"Vila Maria 3","distrito":"Lagoa Santa","regiao":"Lagoa Santa","setores":13,"urbano":13},"geometry":{"type":"Polygon","coordinates":[[[-43.90995,-19.60691],[-43.91098,-19.61004],[-43.91296,-19.60982],[-43.91377,-19.60803],[-43.91342,-19.60784],[-43.91321,-19.60717],[-43.91308,-19.60428],[-43.91219,-19.59912],[-43.91137,-19.5992],[-43.91121,-19.59781],[-43.91182,-19.59665],[-43.91273,-19.59584],[-43.91291,-19.59446],[-43.9133,-19.59377],[-43.91348,-19.59001],[-43.91293,-19.58899],[-43.91109,-19.59053],[-43.90853,-19.59347],[-43.90784,-19.59665],[-43.90681,-19.59643],[-43.90648,-19.59703],[-43.90599,-19.59868],[-43.90701,-19.59886],[-43.90705,-19.60261],[-43.90379,-19.60205],[-43.90325,-19.60249],[-43.90353,-19.60405],[-43.90343,-19.6048],[-43.90365,-19.60505],[-43.90333,-19.6057],[-43.90339,-19.60705],[-43.90293,-19.60772],[-43.90322,-19.60974],[-43.90374,-19.61117],[-43.90485,-19.61091],[-43.90464,-19.60996],[-43.9048,-19.60923],[-43.90678,-19.6058],[-43.9078,-19.6055],[-43.90758,-19.60739],[-43.90995,-19.60691]]]}},{"id":"47","type":"Feature","properties":{"bairro":"Vila Militar","distrito":"Lagoa Santa","regiao":"Lagoa Santa","setores":1,"urbano":1},"geometry":{"type":"Polygon","coordinates":[[[-43.90886,-19.66004],[-43.91028,-19.65879],[-43.91066,-19.65794],[-43.91072,-19.65721],[-43.91049,-19.65644],[-43.90878,-19.65346],[-43.89981,-19.65074],[-43.90266,-19.65768],[-43.90549,-19.65801],[-43.90863,-19.65935],[-43.90886,-19.66004]]]}},{"id":"48","type":"Feature","properties":{"bairro":"Vila Rica","distrito":"Lagoa Santa","regiao":"Lagoa Santa","setores":4,"urbano":4},"geometry":{"type":"Polygon","coordinates":[[[-43.903,-19.60059],[-43.90293,-19.60211],[-43.90325,-19.60249],[-43.90379,-19.60205],[-43.90705,-19.60261],[-43.90702,-19.6014],[-43.90525,-19.60111],[-43.90535,-19.60043],[-43.90681,-19.59643],[-43.90784,-19.59665],[-43.90831,-19.59394],[-43.90777,-19.59402],[-43.90593,-19.59335],[-43.90582,-19.5942],[-43.90487,-19.5942],[-43.90346,-19.59378],[-43.90411,-19.59458],[-43.90425,-19.59534],[-43.90248,-19.59807],[-43.903,-19.60059]]]}},{"id":"49","type":"Feature","properties":{"bairro":"Vila dos Ipes","distrito":"Lagoa Santa","regiao":"Lagoa Santa","setores":1,"urbano":1},"geometry":{"type":"Polygon","coordinates":[[[-43.88801,-19.66739],[-43.88653,-19.66777],[-43.88326,-19.6702],[-43.88198,-19.6702],[-43.88146,-19.67121],[-43.87941,-19.67117],[-43.87896,-19.67135],[-43.87504,-19.67491],[-43.8752,-19.67551],[-43.8754,-19.67562],[-43.87904,-19.67664],[-43.88544,-19.68146],[-43.88697,-19.68238],[-43.88772,-19.6816],[-43.88819,-19.68149],[-43.88595,-19.67964],[-43.88725,-19.6763],[-43.88826,-19.67468],[-43.88796,-19.67449],[-43.88658,-19.67497],[-43.8866,-19.67428],[-43.88692,-19.67419],[-43.88693,-19.67346],[-43.88883,-19.67291],[-43.88827,-19.67268],[-43.88803,-19.67184],[-43.88801,-19.66739]]]}},{"id":"50","type":"Feature","properties":{"bairro":"Village do Gramado","distrito":"Lagoa Santa","regiao":"Lagoa Santa","setores":2,"urbano":2},"geometry":{"type":"Polygon","coordinates":[[[-43.87719,-19.65486],[-43.87508,-19.66066],[-43.87549,-19.66134],[-43.87534,-19.66201],[-43.87493,-19.66257],[-43.87513,-19.66264],[-43.87532,-19.66267],[-43.87567,-19.66219],[-43.87617,-19.66234],[-43.87667,-19.66286],[-43.87742,-19.66302],[-43.88182,-19.66274],[-43.88203,-19.66239],[-43.88308,-19.66176],[-43.88318,-19.66114],[-43.88298,-19.66087],[-43.88407,-19.65737],[-43.88394,-19.65616],[-43.88229,-19.6564],[-43.8818,-19.65622],[-43.88139,-19.65578],[-43.88118,-19.65532],[-43.88125,-19.65456],[-43.8819,-19.65375],[-43.88251,-19.65352],[-43.88244,-19.65303],[-43.88129,-19.65361],[-43.88028,-19.65342],[-43.88107,-19.65161],[-43.88084,-19.65117],[-43.87826,-19.65301],[-43.87838,-19.65308],[-43.87719,-19.65486]]]}},{"id":"51","type":"Feature","properties":{"bairro":"Visao","distrito":"Lagoa Santa","regiao":"Lagoa Santa","setores":4,"urbano":4},"geometry":{"type":"Polygon","coordinates":[[[-43.88595,-19.67964],[-43.88819,-19.68149],[-43.8895,-19.68098],[-43.89098,-19.67962],[-43.89115,-19.67917],[-43.89122,-19.67741],[-43.89195,-19.67622],[-43.89431,-19.67481],[-43.89448,-19.67306],[-43.89426,-19.67235],[-43.89474,-19.6715],[-43.89486,-19.67088],[-43.88814,-19.67074],[-43.88803,-19.67184],[-43.88827,-19.67268],[-43.88883,-19.67291],[-43.88693,-19.67346],[-43.88692,-19.67419],[-43.8866,-19.67428],[-43.88658,-19.67497],[-43.88796,-19.67449],[-43.88826,-19.67468],[-43.88725,-19.6763],[-43.88595,-19.67964]]]}},{"id":"52","type":"Feature","properties":{"bairro":"Vista Alegre","distrito":"Lagoa Santa","regiao":"Lagoa Santa","setores":3,"urbano":3},"geometry":{"type":"Polygon","coordinates":[[[-43.91038,-19.6801],[-43.91483,-19.68126],[-43.91445,-19.68183],[-43.91484,-19.68271],[-43.9152,-19.68294],[-43.91503,-19.68189],[-43.91521,-19.6807],[-43.91412,-19.6775],[-43.91477,-19.67531],[-43.91602,-19.67417],[-43.91646,-19.67403],[-43.91679,-19.67583],[-43.92342,-19.67392],[-43.92291,-19.67179],[-43.91994,-19.66616],[-43.92013,-19.66421],[-43.91978,-19.66299],[-43.91985,-19.6626],[-43.91579,-19.66345],[-43.9137,-19.66368],[-43.91391,-19.66443],[-43.91277,-19.6674],[-43.9123,-19.67136],[-43.91283,-19.67199],[-43.91267,-19.67217],[-43.91109,-19.67255],[-43.91066,-19.67206],[-43.91082,-19.67274],[-43.91072,-19.67386],[-43.91043,-19.67462],[-43.90489,-19.67927],[-43.90407,-19.68043],[-43.90384,-19.68118],[-43.90374,-19.68206],[-43.90391,-19.68332],[-43.90552,-19.68143],[-43.91019,-19.6826],[-43.91038,-19.6801]]]}},{"id":"53","type":"Feature","properties":{"bairro":"Zona rural — Lagoa Santa","distrito":"Lagoa Santa","regiao":"Lagoa Santa","setores":4,"urbano":0},"geometry":{"type":"MultiPolygon","coordinates":[[[[-43.81656,-19.62332],[-43.81397,-19.63099],[-43.81385,-19.63307],[-43.81445,-19.6345],[-43.81628,-19.63682],[-43.81703,-19.63824],[-43.81739,-19.63968],[-43.81728,-19.64106],[-43.81705,-19.64146],[-43.81656,-19.6417],[-43.81573,-19.64172],[-43.81502,-19.64144],[-43.81391,-19.64072],[-43.81141,-19.63803],[-43.81043,-19.63808],[-43.80965,-19.63838],[-43.80883,-19.63953],[-43.8087,-19.64084],[-43.80886,-19.64198],[-43.80953,-19.64306],[-43.81025,-19.64562],[-43.81088,-19.64708],[-43.81081,-19.64788],[-43.81008,-19.64891],[-43.80941,-19.6504],[-43.80959,-19.65172],[-43.81117,-19.6532],[-43.8114,-19.65394],[-43.81122,-19.65602],[-43.81076,-19.65719],[-43.81002,-19.65774],[-43.80886,-19.65809],[-43.80658,-19.65829],[-43.80412,-19.65818],[-43.80364,-19.65844],[-43.80123,-19.65889],[-43.80066,-19.65879],[-43.79889,-19.65765],[-43.79775,-19.65753],[-43.79642,-19.65768],[-43.79474,-19.65844],[-43.7944,-19.66063],[-43.79466,-19.66104],[-43.7957,-19.66184],[-43.79818,-19.66261],[-43.80048,-19.66276],[-43.8023,-19.66242],[-43.80475,-19.6624],[-43.80607,-19.66251],[-43.80703,-19.66288],[-43.80936,-19.66467],[-43.81036,-19.6661],[-43.81129,-19.66702],[-43.81255,-19.66753],[-43.81272,-19.66779],[-43.81435,-19.66798],[-43.81566,-19.66868],[-43.81656,-19.67011],[-43.81672,-19.6713],[-43.81703,-19.67185],[-43.81925,-19.6735],[-43.82157,-19.67467],[-43.82526,-19.67457],[-43.82826,-19.67542],[-43.82953,-19.67477],[-43.83089,-19.6733],[-43.83208,-19.67247],[-43.83283,-19.67164],[-43.83377,-19.67115],[-43.8354,-19.67163],[-43.83701,-19.67176],[-43.84112,-19.67111],[-43.84227,-19.67032],[-43.84517,-19.67063],[-43.84833,-19.67051],[-43.85028,-19.66999],[-43.84973,-19.66947],[-43.8505,-19.66543],[-43.85096,-19.66429],[-43.85152,-19.66361],[-43.85193,-19.66248],[-43.85802,-19.65897],[-43.8591,-19.66006],[-43.85952,-19.66101],[-43.86021,-19.66515],[-43.86068,-19.66467],[-43.86108,-19.66353],[-43.86178,-19.66275],[-43.86286,-19.66085],[-43.86371,-19.65993],[-43.86331,-19.65934],[-43.86308,-19.65801],[-43.86239,-19.65799],[-43.86203,-19.65938],[-43.8623,-19.65954],[-43.86269,-19.65901],[-43.86302,-19.65924],[-43.86238,-19.65993],[-43.85871,-19.65782],[-43.85849,-19.65713],[-43.85843,-19.65465],[-43.85528,-19.65478],[-43.85359,-19.65457],[-43.85113,-19.65464],[-43.85009,-19.65408],[-43.84933,-19.65326],[-43.84872,-19.65195],[-43.84918,-19.65107],[-43.8517,-19.65067],[-43.85223,-19.65028],[-43.85294,-19.65019],[-43.85356,-19.64969],[-43.85456,-19.65091],[-43.85505,-19.65103],[-43.85974,-19.65035],[-43.86071,-19.65005],[-43.86285,-19.6492],[-43.86881,-19.64414],[-43.86798,-19.64415],[-43.86751,-19.64375],[-43.86516,-19.64041],[-43.86465,-19.63932],[-43.86421,-19.63898],[-43.8643,-19.63868],[-43.86548,-19.63765],[-43.86659,-19.63706],[-43.86762,-19.63592],[-43.86837,-19.6355],[-43.86889,-19.63464],[-43.86886,-19.63333],[-43.86919,-19.63276],[-43.87039,-19.63238],[-43.87113,-19.63171],[-43.87276,-19.63152],[-43.87418,-19.63101],[-43.87477,-19.62916],[-43.87505,-19.62912],[-43.87498,-19.62831],[-43.87711,-19.62782],[-43.88446,-19.62991],[-43.88332,-19.62905],[-43.88329,-19.62853],[-43.88362,-19.62757],[-43.88443,-19.62757],[-43.88499,-19.6281],[-43.8866,-19.6287],[-43.88656,-19.62927],[-43.88682,-19.62939],[-43.88765,-19.62867],[-43.88384,-19.62348],[-43.88445,-19.6227],[-43.88555,-19.62024],[-43.88545,-19.61964],[-43.88471,-19.61883],[-43.88508,-19.61733],[-43.88317,-19.61661],[-43.88141,-19.61557],[-43.88083,-19.61508],[-43.88012,-19.61383],[-43.8806,-19.61223],[-43.88144,-19.61087],[-43.88151,-19.61039],[-43.88117,-19.60733],[-43.88155,-19.60506],[-43.8814,-19.6031],[-43.88096,-19.60246],[-43.87995,-19.60207],[-43.87947,-19.60168],[-43.87881,-19.60014],[-43.87788,-19.59996],[-43.87764,-19.59889],[-43.87772,-19.59727],[-43.87715,-19.59585],[-43.87656,-19.59291],[-43.8756,-19.59133],[-43.87533,-19.58824],[-43.87506,-19.58774],[-43.8732,-19.58666],[-43.87229,-19.58581],[-43.87069,-19.58553],[-43.86993,-19.58518],[-43.86938,-19.58405],[-43.8685,-19.58353],[-43.86704,-19.58369],[-43.86623,-19.58416],[-43.86572,-19.58508],[-43.86277,-19.58487],[-43.86182,-19.58408],[-43.86175,-19.5829],[-43.86287,-19.58161],[-43.86279,-19.58101],[-43.86221,-19.58017],[-43.86074,-19.57897],[-43.8589,-19.57632],[-43.85823,-19.57803],[-43.85756,-19.57885],[-43.85675,-19.57935],[-43.85396,-19.57983],[-43.85325,-19.57956],[-43.85114,-19.57674],[-43.85008,-19.57592],[-43.84861,-19.57593],[-43.84505,-19.57723],[-43.84242,-19.579],[-43.8412,-19.58124],[-43.84152,-19.58656],[-43.84121,-19.58915],[-43.84033,-19.59153],[-43.8407,-19.59684],[-43.8397,-19.59642],[-43.83936,-19.59813],[-43.83758,-19.59992],[-43.83677,-19.60007],[-43.83602,-19.59979],[-43.83559,-19.59934],[-43.8344,-19.59865],[-43.83332,-19.59829],[-43.83092,-19.59694],[-43.82756,-19.59454],[-43.82653,-19.59429],[-43.82491,-19.59455],[-43.82382,-19.59521],[-43.82337,-19.59645],[-43.82356,-19.59983],[-43.82433,-19.60154],[-43.82417,-19.60251],[-43.82378,-19.60319],[-43.8224,-19.60334],[-43.81899,-19.60066],[-43.81735,-19.59864],[-43.81492,-19.59662],[-43.8138,-19.59614],[-43.81275,-19.59642],[-43.81119,-19.59769],[-43.81051,-19.59927],[-43.81046,-19.60009],[-43.81218,-19.60299],[-43.81409,-19.60693],[-43.81475,-19.6087],[-43.81497,-19.6109],[-43.81439,-19.61213],[-43.81259,-19.61279],[-43.81118,-19.61307],[-43.80956,-19.61311],[-43.80816,-19.61247],[-43.80609,-19.61106],[-43.80354,-19.6103],[-43.80083,-19.61039],[-43.79871,-19.61111],[-43.79839,-19.61231],[-43.79836,-19.61396],[-43.79917,-19.6158],[-43.79908,-19.61833],[-43.79924,-19.61981],[-43.79992,-19.6214],[-43.80122,-19.62349],[-43.80271,-19.62508],[-43.80405,-19.6258],[-43.80561,-19.62582],[-43.8063,-19.62557],[-43.80651,-19.6249],[-43.80594,-19.6238],[-43.8059,-19.62328],[-43.80648,-19.62219],[-43.81131,-19.61842],[-43.8125,-19.61796],[-43.81381,-19.61785],[-43.81447,-19.61815],[-43.81559,-19.61924],[-43.81652,-19.62173],[-43.81656,-19.62332]]],[[[-43.91267,-19.61041],[-43.91345,-19.61163],[-43.9128,-19.61207],[-43.91231,-19.61186],[-43.91205,-19.61433],[-43.91215,-19.61529],[-43.91234,-19.6155],[-43.91221,-19.61578],[-43.9134,-19.61735],[-43.91384,-19.61854],[-43.91413,-19.61826],[-43.91596,-19.61915],[-43.91639,-19.61863],[-43.9166,-19.61795],[-43.91802,-19.6174],[-43.91837,-19.6176],[-43.9198,-19.61529],[-43.91943,-19.61508],[-43.92027,-19.61345],[-43.92171,-19.61446],[-43.92205,-19.6164],[-43.92328,-19.61501],[-43.9232,-19.6149],[-43.92397,-19.61452],[-43.92456,-19.61392],[-43.9254,-19.61451],[-43.92256,-19.61789],[-43.92658,-19.61983],[-43.92826,-19.61777],[-43.92915,-19.6173],[-43.93004,-19.61724],[-43.93083,-19.6163],[-43.93117,-19.61124],[-43.93169,-19.61032],[-43.93263,-19.60767],[-43.93326,-19.60764],[-43.93273,-19.60674],[-43.93202,-19.60704],[-43.93027,-19.60617],[-43.92882,-19.60612],[-43.92819,-19.60644],[-43.92796,-19.60636],[-43.92754,-19.6049],[-43.92675,-19.60525],[-43.92548,-19.60743],[-43.9226,-19.60698],[-43.92233,-19.60732],[-43.92053,-19.60829],[-43.9187,-19.609],[-43.91731,-19.60926],[-43.91652,-19.60922],[-43.9153,-19.60837],[-43.91459,-19.60413],[-43.91458,-19.60306],[-43.91501,-19.60162],[-43.9146,-19.59841],[-43.91514,-19.59785],[-43.91766,-19.59689],[-43.91854,-19.59584],[-43.91884,-19.59463],[-43.91881,-19.59163],[-43.91964,-19.5883],[-43.91842,-19.58875],[-43.91317,-19.58932],[-43.91348,-19.59001],[-43.9133,-19.59377],[-43.91291,-19.59446],[-43.91273,-19.59584],[-43.91182,-19.59665],[-43.91121,-19.59781],[-43.91137,-19.5992],[-43.91219,-19.59912],[-43.91308,-19.60428],[-43.91321,-19.60717],[-43.91342,-19.60784],[-43.91377,-19.60803],[-43.91296,-19.60982],[-43.91301,-19.61038],[-43.91267,-19.61041]]]]}},{"id":"54","type":"Feature","properties":{"bairro":"Zona rural — Lagoinha de Fora","distrito":"Lagoinha de Fora","regiao":"Lagoinha de Fora","setores":3,"urbano":0},"geometry":{"type":"Polygon","coordinates":[[[-43.83883,-19.70508],[-43.83977,-19.70549],[-43.83989,-19.70573],[-43.84037,-19.70704],[-43.84051,-19.70909],[-43.84197,-19.71146],[-43.84282,-19.71233],[-43.84454,-19.71271],[-43.84579,-19.71512],[-43.84664,-19.71601],[-43.84744,-19.71617],[-43.84767,-19.71615],[-43.8487,-19.71498],[-43.84924,-19.71484],[-43.85015,-19.71394],[-43.8522,-19.7131],[-43.85383,-19.71212],[-43.85467,-19.71095],[-43.85568,-19.71024],[-43.85693,-19.71028],[-43.85751,-19.70989],[-43.85851,-19.70982],[-43.86018,-19.71012],[-43.86029,-19.70993],[-43.86011,-19.70901],[-43.86027,-19.70885],[-43.86083,-19.70923],[-43.86167,-19.70878],[-43.86263,-19.70868],[-43.863,-19.70807],[-43.86492,-19.70693],[-43.86518,-19.7065],[-43.86545,-19.70508],[-43.86563,-19.70494],[-43.86672,-19.70539],[-43.86693,-19.70524],[-43.8671,-19.70447],[-43.86748,-19.70409],[-43.86888,-19.70452],[-43.8702,-19.70439],[-43.87027,-19.70351],[-43.8707,-19.70319],[-43.87093,-19.7027],[-43.8717,-19.70256],[-43.87207,-19.70205],[-43.87098,-19.70091],[-43.87237,-19.69985],[-43.87274,-19.69915],[-43.87346,-19.69895],[-43.87409,-19.6985],[-43.87431,-19.69774],[-43.87478,-19.69715],[-43.87489,-19.69616],[-43.87539,-19.69533],[-43.87555,-19.69463],[-43.87545,-19.69267],[-43.87471,-19.69122],[-43.87469,-19.68967],[-43.87423,-19.68802],[-43.8737,-19.68716],[-43.87367,-19.68595],[-43.87242,-19.68447],[-43.87266,-19.68404],[-43.87248,-19.68209],[-43.87158,-19.6816],[-43.87059,-19.68067],[-43.86993,-19.67902],[-43.87011,-19.67838],[-43.87092,-19.67812],[-43.87098,-19.67719],[-43.8704,-19.67617],[-43.87096,-19.67578],[-43.87079,-19.67468],[-43.87057,-19.67441],[-43.87086,-19.6734],[-43.87011,-19.67303],[-43.87057,-19.67224],[-43.87026,-19.67165],[-43.87104,-19.67127],[-43.86949,-19.67065],[-43.86889,-19.67004],[-43.86766,-19.6697],[-43.86213,-19.66888],[-43.85985,-19.66789],[-43.85883,-19.6672],[-43.8581,-19.66795],[-43.85699,-19.66797],[-43.85478,-19.66946],[-43.8531,-19.66995],[-43.85119,-19.66979],[-43.84833,-19.67051],[-43.84517,-19.67063],[-43.84227,-19.67032],[-43.84112,-19.67111],[-43.83701,-19.67176],[-43.8354,-19.67163],[-43.83377,-19.67115],[-43.83283,-19.67164],[-43.83208,-19.67247],[-43.83089,-19.6733],[-43.82953,-19.67477],[-43.82826,-19.67542],[-43.82526,-19.67457],[-43.82157,-19.67467],[-43.81925,-19.6735],[-43.81729,-19.67215],[-43.81672,-19.6713],[-43.81656,-19.67011],[-43.81566,-19.66868],[-43.81435,-19.66798],[-43.81272,-19.66779],[-43.81255,-19.66753],[-43.81129,-19.66702],[-43.81036,-19.6661],[-43.80936,-19.66467],[-43.80703,-19.66288],[-43.80607,-19.66251],[-43.80475,-19.6624],[-43.8023,-19.66242],[-43.80072,-19.66274],[-43.79908,-19.66274],[-43.7957,-19.66184],[-43.79466,-19.66104],[-43.7944,-19.66063],[-43.79474,-19.65844],[-43.79211,-19.65991],[-43.79177,-19.66028],[-43.79169,-19.66102],[-43.79225,-19.66259],[-43.79292,-19.66347],[-43.796,-19.66546],[-43.7968,-19.66652],[-43.79799,-19.66867],[-43.79882,-19.66882],[-43.80038,-19.66811],[-43.80191,-19.66685],[-43.80298,-19.66524],[-43.80377,-19.6646],[-43.80479,-19.6645],[-43.80554,-19.6649],[-43.80646,-19.6667],[-43.80613,-19.66887],[-43.80503,-19.67156],[-43.80423,-19.67204],[-43.80206,-19.67202],[-43.80093,-19.6724],[-43.79937,-19.67443],[-43.79886,-19.67544],[-43.79878,-19.67755],[-43.7991,-19.67859],[-43.80091,-19.68051],[-43.80221,-19.68125],[-43.80326,-19.68221],[-43.80402,-19.68453],[-43.80396,-19.685],[-43.80314,-19.68607],[-43.80014,-19.68592],[-43.7999,-19.68598],[-43.79987,-19.68652],[-43.80044,-19.68736],[-43.8009,-19.68771],[-43.80173,-19.68794],[-43.80354,-19.68787],[-43.80794,-19.68666],[-43.80864,-19.68698],[-43.80899,-19.68741],[-43.80919,-19.6879],[-43.80905,-19.6888],[-43.80862,-19.69032],[-43.80798,-19.69109],[-43.80781,-19.69211],[-43.80781,-19.69314],[-43.80848,-19.69675],[-43.80993,-19.69931],[-43.81223,-19.70052],[-43.81341,-19.70149],[-43.8137,-19.70208],[-43.81525,-19.70385],[-43.81563,-19.70531],[-43.81584,-19.70769],[-43.81542,-19.70887],[-43.81538,-19.71107],[-43.81483,-19.71291],[-43.81389,-19.71418],[-43.81406,-19.71516],[-43.81445,-19.71576],[-43.81578,-19.71661],[-43.81839,-19.71692],[-43.81863,-19.7171],[-43.82111,-19.71702],[-43.82316,-19.71666],[-43.82355,-19.71632],[-43.82632,-19.71498],[-43.8281,-19.71376],[-43.83187,-19.71208],[-43.83255,-19.71108],[-43.83289,-19.71002],[-43.83318,-19.70771],[-43.83384,-19.70703],[-43.8355,-19.7059],[-43.83698,-19.70528],[-43.83883,-19.70508]],[[-43.85356,-19.68202],[-43.85273,-19.68392],[-43.85006,-19.68763],[-43.84925,-19.68855],[-43.84755,-19.68963],[-43.84666,-19.6907],[-43.8462,-19.6898],[-43.8459,-19.68792],[-43.8453,-19.68747],[-43.84143,-19.68044],[-43.84258,-19.68039],[-43.84328,-19.68008],[-43.84638,-19.68283],[-43.84683,-19.68283],[-43.84809,-19.68189],[-43.84903,-19.68208],[-43.84941,-19.68263],[-43.84972,-19.68276],[-43.84964,-19.68239],[-43.85013,-19.68131],[-43.85041,-19.67929],[-43.85063,-19.67923],[-43.85356,-19.68202]]]}},{"id":"55","type":"Feature","properties":{"bairro":"Zona rural — Lapinha","distrito":"Lapinha","regiao":"Lapinha","setores":3,"urbano":0},"geometry":{"type":"MultiPolygon","coordinates":[[[[-43.92478,-19.58475],[-43.92514,-19.58528],[-43.92578,-19.58568],[-43.92599,-19.58628],[-43.92594,-19.58664],[-43.92542,-19.58728],[-43.92581,-19.58836],[-43.92438,-19.58963],[-43.9239,-19.59072],[-43.92411,-19.59199],[-43.9248,-19.59382],[-43.92471,-19.59599],[-43.92488,-19.59672],[-43.92434,-19.59785],[-43.92402,-19.59935],[-43.92246,-19.60039],[-43.92187,-19.60217],[-43.92231,-19.60342],[-43.92343,-19.60367],[-43.9242,-19.60423],[-43.92464,-19.60531],[-43.92486,-19.60662],[-43.92571,-19.60713],[-43.92587,-19.60654],[-43.92675,-19.60525],[-43.92754,-19.6049],[-43.92796,-19.60636],[-43.92819,-19.60644],[-43.92882,-19.60612],[-43.93027,-19.60617],[-43.93202,-19.60704],[-43.93273,-19.60674],[-43.93221,-19.60618],[-43.93206,-19.60453],[-43.9326,-19.6031],[-43.93298,-19.60275],[-43.93354,-19.60266],[-43.93486,-19.60293],[-43.93679,-19.60284],[-43.93897,-19.60197],[-43.94042,-19.60236],[-43.94137,-19.60332],[-43.9432,-19.60409],[-43.94449,-19.6042],[-43.945,-19.60442],[-43.94641,-19.60424],[-43.94723,-19.60446],[-43.94827,-19.60511],[-43.94894,-19.60643],[-43.95018,-19.60679],[-43.95089,-19.60751],[-43.9516,-19.6078],[-43.95366,-19.60952],[-43.95472,-19.60786],[-43.95536,-19.60617],[-43.95582,-19.60577],[-43.95731,-19.60323],[-43.95776,-19.60287],[-43.95986,-19.60234],[-43.96191,-19.60114],[-43.9644,-19.60155],[-43.96561,-19.60148],[-43.96665,-19.60101],[-43.96815,-19.59928],[-43.97041,-19.59933],[-43.97115,-19.59897],[-43.97163,-19.59838],[-43.97183,-19.59788],[-43.97153,-19.59589],[-43.97112,-19.59526],[-43.96991,-19.59436],[-43.97014,-19.59031],[-43.96993,-19.58858],[-43.96934,-19.5879],[-43.9675,-19.58652],[-43.96545,-19.58539],[-43.96514,-19.58451],[-43.96532,-19.58341],[-43.96565,-19.58291],[-43.96725,-19.58219],[-43.96756,-19.58181],[-43.96829,-19.57881],[-43.9689,-19.57807],[-43.97025,-19.57746],[-43.971,-19.57688],[-43.97148,-19.57498],[-43.97273,-19.57394],[-43.97373,-19.5736],[-43.9737,-19.57288],[-43.9732,-19.57229],[-43.97199,-19.57167],[-43.97077,-19.57075],[-43.96948,-19.57089],[-43.96882,-19.57058],[-43.96753,-19.57044],[-43.96635,-19.57061],[-43.96362,-19.57269],[-43.9613,-19.57395],[-43.96106,-19.57381],[-43.95821,-19.57719],[-43.95119,-19.58035],[-43.94766,-19.58222],[-43.94181,-19.58312],[-43.94148,-19.58243],[-43.93979,-19.58139],[-43.93977,-19.5819],[-43.9403,-19.58287],[-43.94074,-19.58519],[-43.94093,-19.58745],[-43.94076,-19.58894],[-43.93896,-19.58972],[-43.93879,-19.59022],[-43.93703,-19.59202],[-43.93649,-19.59295],[-43.93249,-19.59311],[-43.93218,-19.5934],[-43.93062,-19.59339],[-43.93038,-19.59315],[-43.92985,-19.59351],[-43.92965,-19.59329],[-43.92965,-19.5917],[-43.92944,-19.59132],[-43.92941,-19.5903],[-43.92866,-19.58939],[-43.92894,-19.58879],[-43.92959,-19.58846],[-43.92996,-19.58798],[-43.93024,-19.58666],[-43.93012,-19.5859],[-43.92921,-19.58391],[-43.92478,-19.58475]]],[[[-43.93783,-19.5612],[-43.93621,-19.55952],[-43.93315,-19.55868],[-43.93192,-19.55892],[-43.93069,-19.55844],[-43.92942,-19.55754],[-43.92855,-19.55633],[-43.92666,-19.55458],[-43.92644,-19.55408],[-43.92489,-19.55315],[-43.92322,-19.55353],[-43.92141,-19.55677],[-43.92042,-19.55796],[-43.91988,-19.55924],[-43.9201,-19.55996],[-43.91997,-19.56054],[-43.92101,-19.56211],[-43.9212,-19.56211],[-43.92142,-19.56176],[-43.9219,-19.56199],[-43.92192,-19.56326],[-43.92225,-19.56382],[-43.92296,-19.5643],[-43.9229,-19.56586],[-43.92246,-19.56635],[-43.92258,-19.5672],[-43.92233,-19.56767],[-43.92192,-19.56772],[-43.92147,-19.56854],[-43.92127,-19.56907],[-43.9214,-19.56993],[-43.9217,-19.57016],[-43.92159,-19.57035],[-43.92198,-19.57028],[-43.92221,-19.57073],[-43.92293,-19.5709],[-43.92302,-19.57134],[-43.92395,-19.57147],[-43.92381,-19.57209],[-43.92399,-19.57217],[-43.92421,-19.57285],[-43.92387,-19.57305],[-43.92442,-19.5742],[-43.92419,-19.5747],[-43.92487,-19.57469],[-43.92546,-19.57495],[-43.92722,-19.57754],[-43.92804,-19.57792],[-43.93329,-19.57808],[-43.93481,-19.57832],[-43.93455,-19.57645],[-43.94187,-19.56436],[-43.93906,-19.56226],[-43.93857,-19.56149],[-43.93783,-19.5612]]]]}}]}