{"type":"FeatureCollection","features":[{"type":"Feature","properties":{"municipio":"BELO HORIZONTE"},"geometry":{"type":"Polygon","coordinates":[[[-44.039981195532484,-20.013559491898693],[-44.04038,-20.01339],[-44.04046,-20.00971],[-44.04216,-20.00794],[-44.04267,-20.00655],[-44.04451,-20.00482],[-44.04433,-20.00445],[-44.04464,-20.00476],[-44.04612,-20.00127],[-44.04576,-19.9997],[-44.04615,-20.00054],[-44.0476,-20.0003],[-44.04814,-19.99756],[-44.04954,-19.99749],[-44.04962,-19.99683],[-44.0513,-19.99761],[-44.05237,-19.99716],[-44.05367,-19.99736],[-44.05386,-19.99639],[-44.05526,-19.99589],[-44.05511,-19.99343],[-44.05602,-19.99188],[-44.05597,-19.99096],[-44.05695,-19.99044],[-44.05611,-19.98929],[-44.05676,-19.98914],[-44.05595,-19.98596],[-44.05681,-19.98493],[-44.05641,-19.98365],[-44.0573,-19.98303],[-44.05701,-19.98203],[-44.05786,-19.98147],[-44.05769,-19.98014],[-44.0601,-19.9774],[-44.0604,-19.97617],[-44.06287,-19.97683],[-44.06266,-19.97563],[-44.06334,-19.97541],[-44.06271,-19.97364],[-44.05683,-19.97473],[-44.05505,-19.97424],[-44.0537,-19.97304],[-44.05035,-19.97272],[-44.04467,-19.97422],[-44.04511,-19.97539],[-44.0385,-19.98267],[-44.03858,-19.98311],[-44.04088,-19.98172],[-44.03804,-19.98354],[-44.03602,-19.98367],[-44.03424,-19.98268],[-44.03103,-19.97688],[-44.02983,-19.97605],[-44.02842,-19.9759],[-44.02811,-19.97506],[-44.02635,-19.97443],[-44.02528,-19.97296],[-44.01837,-19.97032],[-44.01579,-19.97031],[-44.01356,-19.96877],[-44.01243,-19.96663],[-44.01316,-19.96432],[-44.01195,-19.9626],[-44.01322,-19.96075],[-44.01226,-19.96007],[-44.01429,-19.95773],[-44.01401,-19.95619],[-44.01335,-19.9555],[-44.00543,-19.95504],[-44.00732,-19.95341],[-44.00927,-19.95264],[-44.00916,-19.95068],[-44.01174,-19.94695],[-44.01303,-19.94628],[-44.01257,-19.94653],[-44.0154,-19.94702],[-44.01652,-19.94664],[-44.01691,-19.94548],[-44.01662,-19.94654],[-44.02072,-19.94566],[-44.0229,-19.94462],[-44.02382,-19.94352],[-44.02574,-19.93792],[-44.02705,-19.93709],[-44.02675,-19.93504],[-44.0244,-19.93345],[-44.02529,-19.92978],[-44.02449,-19.92666],[-44.02358,-19.92524],[-44.02113,-19.9253],[-44.02074,-19.92437],[-44.02198,-19.92392],[-44.02358,-19.92133],[-44.02234,-19.91994],[-44.02348,-19.92121],[-44.02675,-19.91863],[-44.02781,-19.91827],[-44.02691,-19.91651],[-44.02809,-19.91598],[-44.02825,-19.91524],[-44.02738,-19.91376],[-44.02727,-19.91221],[-44.02557,-19.91042],[-44.02551,-19.90982],[-44.0261,-19.90978],[-44.02556,-19.90933],[-44.02552,-19.90835],[-44.02673,-19.90706],[-44.02539,-19.90656],[-44.02602,-19.90522],[-44.01964,-19.90278],[-44.02536,-19.90496],[-44.02636,-19.90258],[-44.02562,-19.8999],[-44.0259,-19.89909],[-44.02397,-19.89849],[-44.02423,-19.89772],[-44.02233,-19.89714],[-44.0226,-19.89636],[-44.02068,-19.89577],[-44.02096,-19.89501],[-44.01903,-19.89443],[-44.01958,-19.89287],[-44.01577,-19.89169],[-44.01598,-19.89092],[-44.01476,-19.88787],[-44.01407,-19.88633],[-44.01415,-19.88377],[-44.01311,-19.88215],[-44.01404,-19.87919],[-44.01499,-19.87942],[-44.01522,-19.87907],[-44.01556,-19.87677],[-44.01601,-19.87623],[-44.01677,-19.8769],[-44.0173,-19.87662],[-44.0155,-19.87442],[-44.01692,-19.87517],[-44.01818,-19.87362],[-44.01527,-19.87386],[-44.019,-19.87349],[-44.01869,-19.87288],[-44.01933,-19.87134],[-44.01833,-19.8705],[-44.0184,-19.86935],[-44.02098,-19.86782],[-44.02223,-19.86792],[-44.02225,-19.86701],[-44.02096,-19.86636],[-44.02139,-19.86557],[-44.02016,-19.86494],[-44.02027,-19.8636],[-44.01902,-19.86249],[-44.0191,-19.8601],[-44.01647,-19.85867],[-44.01589,-19.86013],[-44.01491,-19.86086],[-44.01234,-19.85788],[-44.01123,-19.85743],[-44.01389,-19.85458],[-44.00853,-19.8537],[-44.01628,-19.84704],[-44.02025,-19.83801],[-44.01706,-19.83369],[-44.01746,-19.83337],[-44.01655,-19.83222],[-44.0173,-19.83163],[-44.01674,-19.83069],[-44.0154,-19.83095],[-44.01546,-19.83169],[-44.01429,-19.83149],[-44.0123,-19.82982],[-44.01356,-19.82777],[-44.01355,-19.82626],[-44.01208,-19.82575],[-44.01039,-19.82593],[-44.00978,-19.82309],[-44.00565,-19.82038],[-44.00717,-19.81703],[-44.00734,-19.81504],[-44.00845,-19.81413],[-44.00745,-19.81146],[-44.00605,-19.81019],[-44.00513,-19.81044],[-44.0044,-19.81152],[-44.00488,-19.81031],[-44.00372,-19.80982],[-44.00253,-19.8068],[-44.00075,-19.80544],[-44.00062988860698,-19.805448048701596],[-44.00034,-19.80037],[-44.00067,-19.80071],[-44.00116,-19.79977],[-43.99801,-19.79853],[-43.99685,-19.79779],[-43.99656,-19.79692],[-43.99527,-19.79728],[-43.99539,-19.79629],[-43.99263,-19.79659],[-43.9925,-19.79594],[-43.99085,-19.79613],[-43.99075,-19.79433],[-43.98978,-19.79432],[-43.99045,-19.79421],[-43.98984,-19.79009],[-43.99049,-19.78791],[-43.98983,-19.78694],[-43.98933,-19.78447],[-43.98755,-19.78535],[-43.98625,-19.78522],[-43.9842,-19.78434],[-43.9844,-19.78383],[-43.98327,-19.78373],[-43.98354,-19.78255],[-43.98286,-19.78247],[-43.98263,-19.7831],[-43.97998,-19.78209],[-43.97983,-19.7827],[-43.97859,-19.78254],[-43.97849,-19.78327],[-43.97736,-19.78221],[-43.97529,-19.78223],[-43.97524,-19.78314],[-43.97372,-19.78373],[-43.97094,-19.78612],[-43.96953,-19.78819],[-43.96861,-19.78839],[-43.96655,-19.79158],[-43.96475,-19.79161],[-43.96403,-19.7914],[-43.96405,-19.78855],[-43.96577,-19.7866],[-43.9657,-19.78501],[-43.96496,-19.78409],[-43.96307,-19.7832],[-43.96142,-19.78073],[-43.95947,-19.78048],[-43.95917,-19.77902],[-43.95824,-19.77788],[-43.95636,-19.77795],[-43.95426,-19.77728],[-43.95179,-19.77762],[-43.95211,-19.77695],[-43.94948,-19.77643],[-43.94913,-19.77718],[-43.94914,-19.77673],[-43.94874,-19.77672],[-43.94608,-19.77724],[-43.94559,-19.77826],[-43.946,-19.77991],[-43.94737,-19.78212],[-43.94747,-19.78559],[-43.94834,-19.78631],[-43.94833,-19.78726],[-43.94741,-19.78806],[-43.94784,-19.7928],[-43.94532,-19.79552],[-43.9458,-19.79582],[-43.94527,-19.79597],[-43.94515,-19.79695],[-43.94238,-19.79818],[-43.94228,-19.79874],[-43.9411,-19.79824],[-43.94117,-19.79886],[-43.94041,-19.79939],[-43.93734,-19.79758],[-43.93773,-19.79709],[-43.93662,-19.79544],[-43.93592,-19.79515],[-43.93548,-19.79611],[-43.93476,-19.79579],[-43.93497,-19.79535],[-43.93372,-19.79524],[-43.93373,-19.7958],[-43.93263,-19.79589],[-43.93232,-19.79697],[-43.93139,-19.79758],[-43.92625,-19.7994],[-43.9244,-19.79938],[-43.92168,-19.80208],[-43.92094,-19.80219],[-43.92022,-19.80182],[-43.91948,-19.79981],[-43.91799,-19.79839],[-43.91586,-19.79748],[-43.91295,-19.79706],[-43.90968,-19.8026],[-43.90942,-19.8023],[-43.90705,-19.80322],[-43.90516,-19.80282],[-43.90506,-19.80235],[-43.90233,-19.80435],[-43.90074,-19.80369],[-43.89945,-19.80243],[-43.89762,-19.80314],[-43.89733,-19.80424],[-43.89849,-19.80829],[-43.89798,-19.80935],[-43.89392,-19.81034],[-43.89317,-19.81397],[-43.89107,-19.8146],[-43.88941,-19.81651],[-43.88802,-19.8166],[-43.88595,-19.81508],[-43.88529,-19.81531],[-43.88581,-19.81578],[-43.8855,-19.81607],[-43.8851,-19.81558],[-43.88367,-19.81603],[-43.88321,-19.81425],[-43.87836,-19.81395],[-43.87673,-19.81314],[-43.87616,-19.81804],[-43.8756,-19.81921],[-43.87444,-19.82022],[-43.8712,-19.82029],[-43.87004,-19.81974],[-43.86937,-19.82021],[-43.86892,-19.82435],[-43.86823,-19.82564],[-43.8645,-19.82564],[-43.86194,-19.82626],[-43.8618,-19.82752],[-43.86236,-19.82844],[-43.86519,-19.83118],[-43.86572,-19.83223],[-43.8623,-19.83764],[-43.86726,-19.83986],[-43.86794,-19.84168],[-43.86738,-19.84565],[-43.86409,-19.85109],[-43.86184,-19.85216],[-43.85722,-19.85633],[-43.86042,-19.85739],[-43.86262,-19.85574],[-43.86538,-19.85747],[-43.86669,-19.85744],[-43.86704,-19.85841],[-43.86663,-19.85864],[-43.87027,-19.86211],[-43.87027,-19.86257],[-43.87369,-19.86483],[-43.87473,-19.86665],[-43.87648,-19.86743],[-43.87752,-19.8685],[-43.87892,-19.86662],[-43.88011,-19.86598],[-43.88033,-19.86354],[-43.88179,-19.86247],[-43.8842,-19.86238],[-43.88581,-19.86367],[-43.88992,-19.86357],[-43.89026,-19.8646],[-43.89229,-19.86572],[-43.89462,-19.86459],[-43.89514,-19.86478],[-43.89655,-19.86702],[-43.89617,-19.86761],[-43.8964,-19.86891],[-43.89846,-19.86981],[-43.89741,-19.86946],[-43.89713,-19.87155],[-43.89952,-19.87118],[-43.89735,-19.87186],[-43.89705,-19.87268],[-43.8985,-19.87416],[-43.89833,-19.87483],[-43.89998,-19.87635],[-43.90575,-19.8755],[-43.90978,-19.87634],[-43.90809,-19.8795],[-43.9086,-19.88018],[-43.90783,-19.8834],[-43.90684,-19.8842],[-43.9059,-19.88644],[-43.90393,-19.88637],[-43.90348,-19.88503],[-43.9003,-19.88485],[-43.89892,-19.88563],[-43.89703,-19.88528],[-43.89687,-19.88592],[-43.89615,-19.88588],[-43.89548,-19.88699],[-43.89393,-19.8878],[-43.89297,-19.88752],[-43.89171,-19.88622],[-43.89029,-19.88672],[-43.89062,-19.88858],[-43.88983,-19.89186],[-43.89009,-19.89308],[-43.88882115955588,-19.89465855740292],[-43.88801,-19.89217],[-43.88707,-19.8923],[-43.88607,-19.89337],[-43.8854,-19.89812],[-43.88435,-19.89913],[-43.88455,-19.90005],[-43.88398,-19.90116],[-43.88477,-19.9029],[-43.88403,-19.9015],[-43.88158,-19.90134],[-43.88126,-19.9017],[-43.8819,-19.90406],[-43.88182,-19.90567],[-43.88092,-19.90645],[-43.88083,-19.9074],[-43.88047,-19.90719],[-43.87969,-19.90774],[-43.8801,-19.90837],[-43.87887,-19.909],[-43.8785,-19.90951],[-43.87886,-19.90962],[-43.87815,-19.90944],[-43.87647,-19.91104],[-43.87694,-19.912],[-43.87651,-19.91309],[-43.87679,-19.91433],[-43.87568,-19.9146],[-43.87449,-19.91698],[-43.87365,-19.91772],[-43.87079,-19.91925],[-43.87013,-19.92337],[-43.86946,-19.92395],[-43.86932,-19.92524],[-43.86995,-19.92586],[-43.86998,-19.92771],[-43.87127,-19.92866],[-43.87159,-19.92987],[-43.87375,-19.93081],[-43.87711,-19.93464],[-43.8787,-19.9357],[-43.87957,-19.93729],[-43.88073,-19.93755],[-43.88114,-19.93702],[-43.88216,-19.93713],[-43.88473,-19.93887],[-43.88479,-19.94071],[-43.88553,-19.94167],[-43.88801,-19.94146],[-43.88914,-19.9439],[-43.8896,-19.94642],[-43.89089,-19.94604],[-43.89289,-19.94667],[-43.89336,-19.94733],[-43.89384,-19.94696],[-43.89459,-19.94742],[-43.89475,-19.94821],[-43.89553,-19.94871],[-43.89561,-19.94968],[-43.89722,-19.95124],[-43.90145,-19.95261],[-43.90353,-19.95542],[-43.90622,-19.95647],[-43.9103,-19.9607],[-43.9147,-19.96244],[-43.91581,-19.96366],[-43.91801,-19.96451],[-43.91842,-19.96541],[-43.91971,-19.96552],[-43.92289,-19.96714],[-43.92538,-19.96905],[-43.92914,-19.97072],[-43.93058,-19.97076],[-43.931,-19.97288],[-43.93245,-19.97284],[-43.93292,-19.97387],[-43.93355,-19.97412],[-43.93365,-19.97503],[-43.9384,-19.97476],[-43.93971,-19.97537],[-43.94771,-19.98248],[-43.94716,-19.98336],[-43.94759,-19.98426],[-43.94741,-19.98508],[-43.94899,-19.98522],[-43.94853,-19.98653],[-43.94996,-19.98733],[-43.95031,-19.98873],[-43.95273,-19.99031],[-43.95452,-19.99072],[-43.95584,-19.9928],[-43.95689,-19.99306],[-43.95734,-19.99457],[-43.95908,-19.99676],[-43.95954,-19.99837],[-43.96277,-20.00204],[-43.96379,-20.00294],[-43.96612,-20.00364],[-43.9714,-20.00729],[-43.97542,-20.00868],[-43.977,-20.01082],[-43.98031,-20.01361],[-43.98133,-20.01394],[-43.98356,-20.01633],[-43.98321,-20.01723],[-43.98345,-20.01965],[-43.98619,-20.02286],[-43.98729,-20.02559],[-43.98889,-20.02645],[-43.98924,-20.02799],[-43.99109,-20.02887],[-43.99219,-20.02885],[-43.99332,-20.02996],[-43.99261,-20.03156],[-43.99342,-20.03375],[-43.99546,-20.03503],[-43.99841,-20.03883],[-43.99846,-20.04196],[-43.9996,-20.04329],[-43.99877,-20.04397],[-43.99678,-20.04432],[-43.99654,-20.04511],[-43.99976,-20.04891],[-43.99965,-20.05022],[-43.99858,-20.05152],[-44.00057,-20.05275],[-44.00196,-20.05488],[-44.00229,-20.056],[-44.00113,-20.05666],[-44.00286,-20.05697],[-44.00333,-20.05772],[-44.0056,-20.05775],[-44.00823,-20.05877],[-44.01328,-20.0597],[-44.01483,-20.05739],[-44.01865,-20.05449],[-44.01759,-20.05289],[-44.01802,-20.05057],[-44.01746,-20.04962],[-44.01492,-20.04734],[-44.01304,-20.04674],[-44.01189,-20.04535],[-44.01129,-20.04549],[-44.01058,-20.04444],[-44.01066,-20.04346],[-44.00932,-20.04176],[-44.00952,-20.0405],[-44.01043,-20.04027],[-44.01012,-20.0391],[-44.0107,-20.03914],[-44.01362,-20.03645],[-44.01694,-20.03578],[-44.01771,-20.03498],[-44.01781,-20.0336],[-44.02007,-20.03374],[-44.02074,-20.03278],[-44.02518,-20.03051],[-44.02607,-20.02943],[-44.02586,-20.02872],[-44.02633,-20.02851],[-44.02295,-20.02413],[-44.02682,-20.02911],[-44.03152,-20.02424],[-44.03141,-20.0231],[-44.03189,-20.02339],[-44.03282,-20.02208],[-44.0368,-20.02127],[-44.0368,-20.01835],[-44.03851,-20.01629],[-44.03621,-20.01664],[-44.03873,-20.01618],[-44.03898,-20.01472],[-44.03998,-20.01357],[-44.039981195532484,-20.013559491898693]],[[-44.01964,-19.90278],[-44.0195,-19.9033],[-44.0196,-19.90273],[-44.01964,-19.90278]],[[-44.01476,-19.88787],[-44.00944,-19.89227],[-44.01197,-19.88992],[-44.01476,-19.88787]],[[-43.96403,-19.7914],[-43.96286,-19.79293],[-43.96288,-19.79289],[-43.96403,-19.7914]],[[-43.89952,-19.87118],[-43.89942,-19.8709],[-43.89946,-19.87095],[-43.89952,-19.87118]],[[-43.90978,-19.87634],[-43.91347,-19.87127],[-43.91236,-19.87288],[-43.90978,-19.87634]],[[-44.03621,-20.01664],[-44.03185,-20.01858],[-44.03353,-20.01779],[-44.03499,-20.01717],[-44.03621,-20.01664]],[[-44.03499,-20.01717],[-44.0321,-20.01644],[-44.02632,-20.01494],[-44.03499,-20.01717]],[[-43.86663,-19.82824],[-43.8667,-19.8281],[-43.86843,-19.82691],[-43.86663,-19.82824]],[[-43.86983,-19.83106],[-43.86967,-19.83073],[-43.86973,-19.83059],[-43.87051,-19.82999],[-43.86983,-19.83106]],[[-43.87006,-19.8298],[-43.86998,-19.8303],[-43.86984,-19.83034],[-43.87006,-19.8298]],[[-43.87273,-19.92217],[-43.87268,-19.92216],[-43.87271,-19.92214],[-43.87273,-19.92217]],[[-43.87376,-19.9233],[-43.87366,-19.92336],[-43.87363,-19.92331],[-43.87376,-19.9233]],[[-43.87464,-19.92279],[-43.87408,-19.92311],[-43.87424,-19.9229],[-43.87464,-19.92279]],[[-43.87915,-19.92168],[-43.88097,-19.92162],[-43.88457,-19.92121],[-43.88219,-19.92166],[-43.87915,-19.92168]],[[-43.88171,-19.85907],[-43.88395,-19.86019],[-43.88111,-19.85885],[-43.88171,-19.85907]],[[-43.88254,-19.91238],[-43.88267,-19.91255],[-43.88164,-19.91201],[-43.88254,-19.91238]],[[-43.88199,-19.83786],[-43.88209,-19.83789],[-43.88185,-19.83792],[-43.88199,-19.83786]],[[-43.88203,-19.83347],[-43.88436,-19.83057],[-43.88469,-19.83032],[-43.88203,-19.83347]],[[-43.88365,-19.92454],[-43.88365,-19.92439],[-43.88369,-19.92434],[-43.88365,-19.92454]],[[-43.88461,-19.92308],[-43.88472,-19.92294],[-43.88561,-19.92232],[-43.88461,-19.92308]],[[-43.88747,-19.85753],[-43.88739,-19.85755],[-43.8851,-19.85727],[-43.88747,-19.85753]],[[-43.88551,-19.83963],[-43.88541,-19.84076],[-43.88514,-19.83817],[-43.88551,-19.83963]],[[-43.88569,-19.84295],[-43.88566,-19.84275],[-43.88757,-19.84701],[-43.88569,-19.84295]],[[-43.88682,-19.90606],[-43.88658,-19.90594],[-43.88636,-19.9057],[-43.88682,-19.90606]],[[-43.8864,-19.92989],[-43.88668,-19.92868],[-43.88641,-19.93098],[-43.8864,-19.92989]],[[-43.88647,-19.83564],[-43.88691,-19.83579],[-43.8864,-19.83562],[-43.88647,-19.83564]],[[-43.8912,-19.92076],[-43.89124,-19.92084],[-43.88904,-19.91971],[-43.8912,-19.92076]],[[-43.88904,-19.91971],[-43.88802,-19.91946],[-43.88800030042918,-19.919452550582463],[-43.88802061033596,-19.919457579702236],[-43.8886,-19.91716],[-43.88858,-19.91737],[-43.88802064612623,-19.91945758856459],[-43.88904,-19.91971]],[[-43.8886,-19.91716],[-43.88812,-19.91686],[-43.88816,-19.91687],[-43.8886,-19.91716]],[[-43.88736,-19.90617],[-43.88715,-19.90622],[-43.88705,-19.90617],[-43.88736,-19.90617]],[[-43.8872,-19.90404],[-43.88716,-19.90393],[-43.88734,-19.90412],[-43.8872,-19.90404]],[[-43.88827,-19.90663],[-43.88834,-19.90671],[-43.88736,-19.908],[-43.88827,-19.90663]],[[-43.88739,-19.90395],[-43.88846,-19.90412],[-43.88766,-19.90411],[-43.88739,-19.90395]],[[-43.88769,-19.90265],[-43.88747,-19.90277],[-43.88753,-19.9026],[-43.88769,-19.90265]],[[-43.88771,-19.91628],[-43.88853,-19.91234],[-43.88762,-19.91682],[-43.88771,-19.91628]],[[-43.88782,-19.9044],[-43.88764,-19.90429],[-43.88869,-19.90423],[-43.88782,-19.9044]],[[-43.88781,-19.84804],[-43.88814,-19.85131],[-43.88776,-19.84785],[-43.88781,-19.84804]],[[-43.88964,-19.8571],[-43.88795,-19.85744],[-43.88947,-19.85709],[-43.88964,-19.8571]],[[-43.88848,-19.91132],[-43.88849,-19.91134],[-43.8885,-19.91147],[-43.88848,-19.91132]],[[-43.8898,-19.85532],[-43.88864,-19.85573],[-43.88976,-19.8553],[-43.8898,-19.85532]],[[-43.88886,-19.85246],[-43.8914,-19.85446],[-43.89104,-19.85433],[-43.88886,-19.85246]],[[-43.88956,-19.832],[-43.88952,-19.83199],[-43.88967,-19.82933],[-43.88956,-19.832]],[[-43.89019,-19.9031],[-43.88975,-19.9029],[-43.88989,-19.90281],[-43.89019,-19.9031]],[[-43.89155,-19.90378],[-43.89097,-19.90398],[-43.89115,-19.90388],[-43.89155,-19.90378]],[[-43.89219,-19.83097],[-43.89171,-19.83159],[-43.8916,-19.83151],[-43.89219,-19.83097]],[[-43.89189,-19.89487],[-43.89253,-19.89605],[-43.89222,-19.89578],[-43.89189,-19.89487]],[[-43.89213,-19.91663],[-43.89189,-19.91693],[-43.89236,-19.91554],[-43.89213,-19.91663]],[[-43.8938,-19.85112],[-43.89474,-19.85117],[-43.89232,-19.85133],[-43.8938,-19.85112]],[[-43.89257,-19.85487],[-43.89241,-19.85482],[-43.89364,-19.85516],[-43.89257,-19.85487]],[[-43.89381,-19.91574],[-43.89244,-19.91542],[-43.89568,-19.91613],[-43.89381,-19.91574]],[[-43.89309,-19.90355],[-43.89261,-19.9035],[-43.8928,-19.90345],[-43.89309,-19.90355]],[[-43.89291,-19.82138],[-43.89495,-19.81938],[-43.89511,-19.81956],[-43.89291,-19.82138]],[[-43.89376,-19.86194],[-43.89377,-19.86253],[-43.89308,-19.85948],[-43.89376,-19.86194]],[[-43.8945,-19.90476],[-43.89333,-19.90364],[-43.89343,-19.90367],[-43.8945,-19.90476]],[[-43.89383,-19.83073],[-43.89369,-19.83075],[-43.89479,-19.82926],[-43.89383,-19.83073]],[[-43.89391,-19.89605],[-43.89431,-19.8961],[-43.89387,-19.89613],[-43.89391,-19.89605]],[[-43.89466,-19.89343],[-43.90128,-19.8951],[-43.89438,-19.89336],[-43.89466,-19.89343]],[[-43.89466,-19.94717],[-43.89472,-19.94722],[-43.89465,-19.94733],[-43.89466,-19.94717]],[[-43.89477,-19.84937],[-43.895,-19.84943],[-43.89494,-19.84949],[-43.89477,-19.84937]],[[-43.89649,-19.90522],[-43.89536,-19.90521],[-43.89532,-19.90519],[-43.89649,-19.90522]],[[-43.89862,-19.8204],[-43.89738,-19.82044],[-43.89635,-19.82026],[-43.89862,-19.8204]],[[-43.90005,-19.91153],[-43.89787,-19.91103],[-43.89696,-19.91085],[-43.89983,-19.91134],[-43.89942,-19.91096],[-43.90005,-19.91153]],[[-43.89942,-19.91096],[-43.89868,-19.90703],[-43.89828,-19.90524],[-43.89902,-19.90854],[-43.89942,-19.91096]],[[-43.89828,-19.90524],[-43.89822,-19.90524],[-43.89926,-19.90422],[-43.89828,-19.90524]],[[-43.89728,-19.82407],[-43.89727,-19.82398],[-43.89735,-19.82388],[-43.89728,-19.82407]],[[-43.90072,-19.91926],[-43.90197,-19.91808],[-43.902,-19.91808],[-43.90072,-19.91926]],[[-43.90072,-19.91926],[-43.89733,-19.91965],[-43.89728,-19.91963],[-43.90072,-19.91926]],[[-43.89759,-19.82359],[-43.89774,-19.82341],[-43.89936,-19.82278],[-43.89759,-19.82359]],[[-43.89791,-19.84395],[-43.89765,-19.84313],[-43.89761,-19.84222],[-43.89791,-19.84395]],[[-43.89794,-19.92342],[-43.89793,-19.92333],[-43.89794,-19.92325],[-43.89794,-19.92342]],[[-43.8995,-19.9205],[-43.89803,-19.92288],[-43.89805,-19.92281],[-43.8995,-19.9205]],[[-43.89969,-19.92548],[-43.89806,-19.92431],[-43.89805,-19.92418],[-43.89969,-19.92548]],[[-43.8981,-19.84587],[-43.8992,-19.84699],[-43.89891,-19.84688],[-43.8981,-19.84587]],[[-43.89847,-19.82578],[-43.89825,-19.82656],[-43.89839,-19.82571],[-43.89847,-19.82578]],[[-43.89894,-19.89532],[-43.89929,-19.89543],[-43.89866,-19.89542],[-43.89894,-19.89532]],[[-43.8989,-19.85495],[-43.89886,-19.85493],[-43.89922,-19.85451],[-43.8989,-19.85495]],[[-43.89987,-19.82014],[-43.89913,-19.82038],[-43.89899,-19.82039],[-43.89987,-19.82014]],[[-43.90037,-19.85578],[-43.90205,-19.8568],[-43.89954,-19.85533],[-43.90037,-19.85578]],[[-43.90002,-19.9208],[-43.89995,-19.92086],[-43.89964,-19.92081],[-43.90002,-19.9208]],[[-43.90576,-19.90169],[-43.90388,-19.90249],[-43.90569,-19.90166],[-43.90576,-19.90169]],[[-43.90388,-19.90249],[-43.89997,-19.90351],[-43.90002,-19.90346],[-43.90388,-19.90249]],[[-43.90569,-19.90166],[-43.90521,-19.90035],[-43.90549,-19.90076],[-43.90569,-19.90166]],[[-43.90076,-19.85022],[-43.9001,-19.84777],[-43.90089,-19.85036],[-43.90076,-19.85022]],[[-43.90191,-19.91858],[-43.90059,-19.92029],[-43.90101,-19.92023],[-43.90031,-19.92052],[-43.90191,-19.91858]],[[-43.9009,-19.91229],[-43.90091,-19.91234],[-43.90043,-19.91187],[-43.9009,-19.91229]],[[-43.9006,-19.81993],[-43.90131,-19.82016],[-43.90149,-19.82037],[-43.9006,-19.81993]],[[-43.90105,-19.91349],[-43.90107,-19.91366],[-43.90107,-19.91367],[-43.90105,-19.91349]],[[-43.9014,-19.85092],[-43.90175,-19.85118],[-43.90161,-19.85115],[-43.9014,-19.85092]],[[-43.90267,-19.91605],[-43.90196,-19.91711],[-43.90264,-19.91601],[-43.90267,-19.91605]],[[-43.90333,-19.82984],[-43.90389,-19.82994],[-43.9025,-19.82982],[-43.90333,-19.82984]],[[-43.9025,-19.82982],[-43.90208,-19.83078],[-43.90203,-19.83071],[-43.9025,-19.82982]],[[-43.90223,-19.8415],[-43.90206,-19.84206],[-43.9022,-19.84154],[-43.90223,-19.8415]],[[-43.90304,-19.91723],[-43.90459,-19.91658],[-43.90239,-19.91769],[-43.90304,-19.91723]],[[-43.90239,-19.91769],[-43.90256,-19.91804],[-43.90247,-19.918],[-43.90239,-19.91769]],[[-43.90247,-19.918],[-43.90246,-19.91813],[-43.90223,-19.91804],[-43.90247,-19.918]],[[-43.90226,-19.92751],[-43.90303,-19.92812],[-43.90308,-19.92842],[-43.90226,-19.92751]],[[-43.90296,-19.93151],[-43.90254,-19.9336],[-43.90286,-19.93155],[-43.90296,-19.93151]],[[-43.90315,-19.93157],[-43.90315,-19.93144],[-43.90322,-19.92915],[-43.90332,-19.92972],[-43.90315,-19.93157]],[[-43.90354,-19.84387],[-43.90355,-19.84395],[-43.90321,-19.84449],[-43.90354,-19.84387]],[[-43.90413,-19.8756],[-43.90403,-19.87523],[-43.90336,-19.87239],[-43.90413,-19.8756]],[[-43.90336,-19.87239],[-43.90337,-19.87095],[-43.90364,-19.86948],[-43.90336,-19.87239]],[[-43.90362,-19.83325],[-43.90363,-19.83324],[-43.90399,-19.83395],[-43.90362,-19.83325]],[[-43.90906,-19.84944],[-43.90897,-19.84952],[-43.90559,-19.85097],[-43.90906,-19.84944]],[[-43.90559,-19.85097],[-43.90562,-19.85103],[-43.90365,-19.85166],[-43.90559,-19.85097]],[[-43.90366,-19.83321],[-43.90372,-19.83302],[-43.90419,-19.83322],[-43.90366,-19.83321]],[[-43.90462,-19.91887],[-43.90405,-19.91864],[-43.90471,-19.91883],[-43.90462,-19.91887]],[[-43.90423,-19.83324],[-43.90578,-19.8339],[-43.9064,-19.83439],[-43.90423,-19.83324]],[[-43.90466,-19.83766],[-43.90506,-19.8378],[-43.90462,-19.8377],[-43.90466,-19.83766]],[[-43.90487,-19.84001],[-43.90498,-19.84012],[-43.90495,-19.84093],[-43.90487,-19.84001]],[[-43.9055,-19.94235],[-43.90622,-19.94179],[-43.90646,-19.94174],[-43.9055,-19.94235]],[[-43.90657,-19.94311],[-43.90592,-19.94277],[-43.90563,-19.94248],[-43.90657,-19.94311]],[[-43.90569,-19.88759],[-43.90572,-19.88824],[-43.90565,-19.88779],[-43.90569,-19.88759]],[[-43.90573,-19.85128],[-43.90582,-19.85147],[-43.90581,-19.8517],[-43.90573,-19.85128]],[[-43.90644,-19.83505],[-43.90593,-19.83452],[-43.90606,-19.83456],[-43.90644,-19.83505]],[[-43.90594,-19.88959],[-43.90603,-19.88991],[-43.90598,-19.88985],[-43.90594,-19.88959]],[[-43.90649,-19.9355],[-43.90648,-19.93548],[-43.90657,-19.93553],[-43.90649,-19.9355]],[[-43.90696,-19.9094],[-43.90672,-19.90938],[-43.90666,-19.9091],[-43.90696,-19.9094]],[[-43.90667,-19.93295],[-43.90682,-19.93234],[-43.90676,-19.93286],[-43.90667,-19.93295]],[[-43.90672,-19.84309],[-43.90667,-19.84309],[-43.9074,-19.84216],[-43.90672,-19.84309]],[[-43.90701,-19.83594],[-43.9069,-19.83621],[-43.90681,-19.83629],[-43.90701,-19.83594]],[[-43.90704,-19.90949],[-43.90704,-19.90948],[-43.90705,-19.90948],[-43.90704,-19.90949]],[[-43.90706,-19.94154],[-43.9078,-19.94102],[-43.90711,-19.94157],[-43.90706,-19.94154]],[[-43.90722,-19.85802],[-43.91035,-19.85831],[-43.91428,-19.8587],[-43.91122,-19.8584],[-43.90722,-19.85802]],[[-43.90779,-19.89199],[-43.90925,-19.89317],[-43.90799,-19.89223],[-43.90779,-19.89199]],[[-43.90797,-19.9197],[-43.90785,-19.91941],[-43.90799,-19.91967],[-43.90797,-19.9197]],[[-43.90887,-19.91099],[-43.90804,-19.9131],[-43.90844,-19.91181],[-43.90887,-19.91099]],[[-43.90805,-19.92949],[-43.90852,-19.92873],[-43.9083,-19.92928],[-43.90805,-19.92949]],[[-43.90824,-19.91441],[-43.90838,-19.91473],[-43.90826,-19.91454],[-43.90824,-19.91441]],[[-43.90892,-19.93663],[-43.90843,-19.9364],[-43.9094,-19.93669],[-43.90892,-19.93663]],[[-43.91097,-19.92974],[-43.90936,-19.92961],[-43.90879,-19.92954],[-43.91097,-19.92974]],[[-43.90882,-19.91544],[-43.90962,-19.91647],[-43.9092,-19.91604],[-43.90882,-19.91544]],[[-43.90892,-19.82896],[-43.90916,-19.82827],[-43.90896,-19.82941],[-43.90892,-19.82896]],[[-43.90901,-19.93113],[-43.90962,-19.9318],[-43.90929,-19.93155],[-43.90901,-19.93113]],[[-43.90912,-19.91838],[-43.90903,-19.91974],[-43.90902,-19.91973],[-43.90912,-19.91838]],[[-43.90934,-19.94028],[-43.91017,-19.9398],[-43.91012,-19.93987],[-43.90934,-19.94028]],[[-43.91067,-19.82765],[-43.91075,-19.82782],[-43.90939,-19.82702],[-43.91067,-19.82765]],[[-43.90983,-19.86658],[-43.90955,-19.8671],[-43.90941,-19.86715],[-43.90944,-19.86713],[-43.90983,-19.86658]],[[-43.90965,-19.90481],[-43.90973,-19.90488],[-43.90981,-19.90503],[-43.90965,-19.90481]],[[-43.9119,-19.84693],[-43.90978,-19.8488],[-43.91171,-19.84698],[-43.9119,-19.84693]],[[-43.91171,-19.84698],[-43.91165,-19.84692],[-43.91176,-19.84666],[-43.91171,-19.84698]],[[-43.91022,-19.93974],[-43.9099,-19.9394],[-43.91025,-19.93969],[-43.91022,-19.93974]],[[-43.91047,-19.90735],[-43.91022,-19.9058],[-43.91036,-19.90606],[-43.91047,-19.90735]],[[-43.91047,-19.90735],[-43.9101,-19.90857],[-43.9099,-19.90896],[-43.91047,-19.90735]],[[-43.91013,-19.91911],[-43.91013,-19.91913],[-43.91012,-19.91945],[-43.91013,-19.91911]],[[-43.91088,-19.91779],[-43.91082,-19.91773],[-43.91131,-19.91804],[-43.91088,-19.91779]],[[-43.91088,-19.91779],[-43.91027,-19.91856],[-43.9103,-19.91843],[-43.91088,-19.91779]],[[-43.9133,-19.9433],[-43.9107,-19.94372],[-43.91069,-19.94372],[-43.9133,-19.9433]],[[-43.91109,-19.93596],[-43.91136,-19.93591],[-43.91109,-19.93602],[-43.91109,-19.93596]],[[-43.9111,-19.93559],[-43.91111,-19.93483],[-43.91139,-19.93283],[-43.91145,-19.93329],[-43.9111,-19.93559]],[[-43.91146,-19.9217],[-43.91131,-19.92311],[-43.91128,-19.92314],[-43.91146,-19.9217]],[[-43.91156,-19.84579],[-43.91136,-19.8454],[-43.91158,-19.84563],[-43.91156,-19.84579]],[[-43.91194,-19.938],[-43.91139,-19.93752],[-43.91143,-19.93718],[-43.91221,-19.93683],[-43.91143,-19.93736],[-43.91194,-19.938]],[[-43.91194,-19.938],[-43.91468,-19.93828],[-43.91141,-19.93795],[-43.91194,-19.938]],[[-43.91224,-19.84574],[-43.91143,-19.84453],[-43.91242,-19.84577],[-43.91224,-19.84574]],[[-43.91178,-19.84656],[-43.91171,-19.84652],[-43.91186,-19.846],[-43.91178,-19.84656]],[[-43.92112,-19.86459],[-43.92033,-19.86458],[-43.91604,-19.86425],[-43.92112,-19.86459]],[[-43.91604,-19.86425],[-43.91398,-19.86289],[-43.91208,-19.86159],[-43.91604,-19.86425]],[[-43.92112,-19.86459],[-43.92061,-19.86671],[-43.92038,-19.86716],[-43.92112,-19.86459]],[[-43.91257,-19.9357],[-43.91342,-19.93584],[-43.91211,-19.93578],[-43.91257,-19.9357]],[[-43.91228,-19.84016],[-43.91215,-19.83995],[-43.91216,-19.83923],[-43.91228,-19.84016]],[[-43.91412,-19.84613],[-43.91465,-19.84644],[-43.91287,-19.84585],[-43.91412,-19.84613]],[[-43.91287,-19.84585],[-43.91272,-19.84583],[-43.91285,-19.84578],[-43.91287,-19.84585]],[[-43.91441,-19.8818],[-43.91489,-19.88252],[-43.91308,-19.87989],[-43.91441,-19.8818]],[[-43.91792,-19.92947],[-43.91797,-19.92986],[-43.91739030384212,-19.927601183936552],[-43.91366,-19.92851],[-43.91739,-19.9276],[-43.91994,-19.92698],[-43.917390333505914,-19.927601176709548],[-43.91792,-19.92947]],[[-43.91508,-19.92],[-43.91461,-19.91995],[-43.91388,-19.91953],[-43.91508,-19.92]],[[-43.91458,-19.84361],[-43.91443,-19.84353],[-43.9172,-19.84447],[-43.91458,-19.84361]],[[-43.91562,-19.87611],[-43.91452,-19.87652],[-43.91571,-19.87601],[-43.91562,-19.87611]],[[-43.91571,-19.90644],[-43.91531,-19.90621],[-43.91461,-19.90578],[-43.91571,-19.90644]],[[-43.9148,-19.867],[-43.91495,-19.86698],[-43.91689,-19.86741],[-43.9148,-19.867]],[[-43.9153,-19.8323],[-43.91533,-19.83234],[-43.91601,-19.83457],[-43.9153,-19.8323]],[[-43.91558,-19.90292],[-43.91546,-19.90329],[-43.91556,-19.90275],[-43.91558,-19.90292]],[[-43.91788,-19.91982],[-43.91596,-19.92009],[-43.91563,-19.92006],[-43.91788,-19.91982]],[[-43.91667,-19.87506],[-43.91585,-19.87588],[-43.9166,-19.87508],[-43.91667,-19.87506]],[[-43.91708,-19.93398],[-43.91709,-19.934],[-43.91596,-19.93437],[-43.91708,-19.93398]],[[-43.91956,-19.84941],[-43.91603,-19.84672],[-43.91939,-19.8492],[-43.91956,-19.84941]],[[-43.9164,-19.86881],[-43.91624,-19.86954],[-43.91631,-19.86891],[-43.9164,-19.86881]],[[-43.91658,-19.93062],[-43.91753,-19.93055],[-43.91741,-19.93068],[-43.91658,-19.93062]],[[-43.92357,-19.93182],[-43.91764,-19.93518],[-43.91783,-19.93588],[-43.91743,-19.93456],[-43.9176,-19.93508],[-43.92357,-19.93182]],[[-43.91807,-19.93414],[-43.91777,-19.93434],[-43.91776,-19.93426],[-43.91807,-19.93414]],[[-43.91921,-19.87873],[-43.91776,-19.88058],[-43.92046,-19.87694],[-43.91921,-19.87873]],[[-43.91784,-19.93026],[-43.918,-19.93002],[-43.91801,-19.93009],[-43.91784,-19.93026]],[[-43.91804,-19.84397],[-43.91786,-19.84407],[-43.91903,-19.84281],[-43.91804,-19.84397]],[[-43.91861,-19.91981],[-43.91822,-19.91978],[-43.91831,-19.91977],[-43.91861,-19.91981]],[[-43.9184,-19.85217],[-43.9185,-19.85204],[-43.9209,-19.85681],[-43.9184,-19.85217]],[[-43.92133,-19.85628],[-43.91877,-19.85169],[-43.92132,-19.85625],[-43.92133,-19.85628]],[[-43.91924,-19.87798],[-43.91927,-19.87797],[-43.91923,-19.87801],[-43.91924,-19.87798]],[[-43.92272,-19.9195],[-43.9195,-19.91748],[-43.92283,-19.91954],[-43.92272,-19.9195]],[[-43.91993,-19.94936],[-43.91985,-19.94939],[-43.91984,-19.94936],[-43.91993,-19.94936]],[[-43.92018,-19.83192],[-43.92003,-19.83232],[-43.92,-19.83223],[-43.92018,-19.83192]],[[-43.92035,-19.83362],[-43.92037,-19.83372],[-43.92002,-19.83495],[-43.92035,-19.83362]],[[-43.92083,-19.89214],[-43.92002,-19.89051],[-43.92122,-19.8926],[-43.92083,-19.89214]],[[-43.92053,-19.85091],[-43.92006,-19.85007],[-43.92018,-19.85022],[-43.92053,-19.85091]],[[-43.92018,-19.91162],[-43.92327,-19.9118],[-43.92325,-19.9118],[-43.92018,-19.91162]],[[-43.93755,-19.94031],[-43.92901,-19.93945],[-43.9271,-19.93926],[-43.92631,-19.93897],[-43.93755,-19.94031]],[[-43.92901,-19.93945],[-43.93112,-19.94699],[-43.93145,-19.94817],[-43.92901,-19.93945]],[[-43.92631,-19.93897],[-43.92022,-19.94874],[-43.92427,-19.94222],[-43.92631,-19.93897]],[[-43.92615,-19.93879],[-43.92407,-19.93176],[-43.92024,-19.92778],[-43.92414,-19.9318],[-43.92615,-19.93879]],[[-43.92035,-19.94923],[-43.92105,-19.94959],[-43.9212,-19.94969],[-43.92035,-19.94923]],[[-43.92035,-19.94923],[-43.92025,-19.94926],[-43.92032,-19.94913],[-43.92035,-19.94923]],[[-43.92026,-19.84945],[-43.92125,-19.8494],[-43.9213,-19.84954],[-43.92026,-19.84945]],[[-43.92103,-19.92012],[-43.92034,-19.92001],[-43.9209,-19.92008],[-43.92103,-19.92012]],[[-43.92059,-19.84032],[-43.92043,-19.83936],[-43.9208,-19.83599],[-43.92045,-19.83923],[-43.92059,-19.84032]],[[-43.92047,-19.91262],[-43.92333,-19.91244],[-43.92439,-19.9124],[-43.92047,-19.91262]],[[-43.92123,-19.85944],[-43.92116,-19.85958],[-43.92109,-19.85962],[-43.92123,-19.85944]],[[-43.93107,-19.86659],[-43.92729,-19.86483],[-43.92515,-19.86376],[-43.92127,-19.86153],[-43.93107,-19.86659]],[[-43.92475,-19.84054],[-43.92677,-19.84066],[-43.92724,-19.84077],[-43.92475,-19.84054]],[[-43.92475,-19.84054],[-43.92144,-19.84159],[-43.9218,-19.84141],[-43.92475,-19.84054]],[[-43.92172,-19.8761],[-43.92184,-19.87596],[-43.92199,-19.87623],[-43.92172,-19.8761]],[[-43.92194,-19.89344],[-43.92184,-19.89331],[-43.92211,-19.89346],[-43.92194,-19.89344]],[[-43.9236,-19.87235],[-43.92192,-19.87286],[-43.92202,-19.87276],[-43.9236,-19.87235]],[[-43.92194,-19.83102],[-43.92216,-19.83088],[-43.92214,-19.83091],[-43.92194,-19.83102]],[[-43.92225,-19.95151],[-43.92203,-19.95027],[-43.92217,-19.95037],[-43.92225,-19.95151]],[[-43.92229,-19.95172],[-43.92228,-19.95166],[-43.92277,-19.95237],[-43.92229,-19.95172]],[[-43.92412,-19.82654],[-43.92428,-19.82557],[-43.92432,-19.8256],[-43.92412,-19.82654]],[[-43.92412,-19.82654],[-43.92252,-19.83008],[-43.92265,-19.82952],[-43.92412,-19.82654]],[[-43.92362,-19.87604],[-43.92377,-19.87617],[-43.92262,-19.87579],[-43.92362,-19.87604]],[[-43.92381,-19.87625],[-43.92383,-19.87629],[-43.92333,-19.8765],[-43.92381,-19.87625]],[[-43.92333,-19.8765],[-43.92279,-19.87633],[-43.92285,-19.8763],[-43.92333,-19.8765]],[[-43.92335,-19.94267],[-43.92396,-19.94204],[-43.92326,-19.94297],[-43.92335,-19.94267]],[[-43.92336,-19.82451],[-43.92365,-19.82379],[-43.92343,-19.82459],[-43.92336,-19.82451]],[[-43.92416,-19.80127],[-43.92373,-19.80073],[-43.92446,-19.80139],[-43.92416,-19.80127]],[[-43.92478,-19.92022],[-43.92407,-19.92114],[-43.92726,-19.91602],[-43.92413,-19.92105],[-43.92478,-19.92022]],[[-43.92426,-19.91906],[-43.92419,-19.91916],[-43.92417,-19.91902],[-43.92426,-19.91906]],[[-43.92418,-19.91178],[-43.92612,-19.91095],[-43.92436,-19.91178],[-43.92418,-19.91178]],[[-43.92546,-19.80239],[-43.92499,-19.80237],[-43.92533,-19.80232],[-43.92546,-19.80239]],[[-43.9261,-19.86435],[-43.92558,-19.86407],[-43.92561,-19.86399],[-43.9261,-19.86435]],[[-43.92583,-19.81816],[-43.92623,-19.81808],[-43.9258,-19.81828],[-43.92583,-19.81816]],[[-43.92586,-19.8841],[-43.9258,-19.88411],[-43.9267,-19.88346],[-43.92586,-19.8841]],[[-43.92605,-19.80374],[-43.92657,-19.80379],[-43.9262,-19.80386],[-43.92605,-19.80374]],[[-43.92742,-19.96072],[-43.92606,-19.96018],[-43.92614,-19.96012],[-43.92742,-19.96072]],[[-43.92742,-19.96072],[-43.92744,-19.96144],[-43.92734,-19.96126],[-43.92742,-19.96072]],[[-43.92614,-19.80277],[-43.92657,-19.80309],[-43.92611,-19.80275],[-43.92614,-19.80277]],[[-43.92634,-19.85074],[-43.92643,-19.85082],[-43.92674,-19.85137],[-43.92634,-19.85074]],[[-43.92721,-19.94548],[-43.92895,-19.94453],[-43.92678,-19.94583],[-43.92721,-19.94548]],[[-43.92687,-19.81857],[-43.92796,-19.82031],[-43.92759,-19.81993],[-43.92687,-19.81857]],[[-43.92792,-19.85478],[-43.92706,-19.85196],[-43.92707,-19.85196],[-43.92792,-19.85478]],[[-43.92749,-19.84758],[-43.92757,-19.84761],[-43.92739,-19.84793],[-43.92749,-19.84758]],[[-43.9283,-19.86843],[-43.9274,-19.86592],[-43.9283,-19.86829],[-43.9283,-19.86843]],[[-43.9275,-19.86193],[-43.9278,-19.86082],[-43.9275,-19.86258],[-43.9275,-19.86193]],[[-43.92789,-19.89872],[-43.92754,-19.89676],[-43.92754,-19.89628],[-43.9277,-19.89756],[-43.92789,-19.89872]],[[-43.92923,-19.88917],[-43.92754,-19.89465],[-43.92923,-19.88883],[-43.92923,-19.88917]],[[-43.92756,-19.87243],[-43.92757,-19.87229],[-43.92806,-19.87418],[-43.92756,-19.87243]],[[-43.92764,-19.96179],[-43.92757,-19.96167],[-43.92778,-19.96176],[-43.92764,-19.96179]],[[-43.93366,-19.84348],[-43.93308,-19.84476],[-43.93339,-19.84385],[-43.93366,-19.84348]],[[-43.93339,-19.84385],[-43.92758,-19.84085],[-43.92767,-19.84087],[-43.93339,-19.84385]],[[-43.92776,-19.80836],[-43.93052,-19.80901],[-43.92951,-19.80892],[-43.92776,-19.80836]],[[-43.92889,-19.86],[-43.92792,-19.86036],[-43.928,-19.86005],[-43.92889,-19.86]],[[-43.9282,-19.86964],[-43.92829,-19.86894],[-43.92829,-19.86938],[-43.9282,-19.86964]],[[-43.92831,-19.84449],[-43.93043,-19.84648],[-43.92929,-19.84545],[-43.92831,-19.84449]],[[-43.92841,-19.90168],[-43.92838,-19.90146],[-43.92857,-19.90188],[-43.92841,-19.90168]],[[-43.93338,-19.87536],[-43.93345,-19.87536],[-43.93153,-19.87654],[-43.93338,-19.87536]],[[-43.93153,-19.87654],[-43.93181,-19.87668],[-43.9284,-19.87535],[-43.93153,-19.87654]],[[-43.93017,-19.82237],[-43.93013,-19.82243],[-43.93009,-19.82139],[-43.93017,-19.82237]],[[-43.93013,-19.82243],[-43.92929,-19.82172],[-43.92865,-19.82104],[-43.93013,-19.82243]],[[-43.92947,-19.85685],[-43.92869,-19.85552],[-43.92941,-19.85663],[-43.92947,-19.85685]],[[-43.92912,-19.90256],[-43.92893,-19.90233],[-43.9293,-19.90262],[-43.92912,-19.90256]],[[-43.92931,-19.9541],[-43.92904,-19.95391],[-43.92914,-19.9539],[-43.92931,-19.9541]],[[-43.92913,-19.86466],[-43.92927,-19.86464],[-43.92924,-19.86469],[-43.92913,-19.86466]],[[-43.92941,-19.8847],[-43.92972,-19.88391],[-43.9294,-19.88507],[-43.92941,-19.8847]],[[-43.93102,-19.86391],[-43.93069,-19.86403],[-43.92956,-19.864],[-43.93102,-19.86391]],[[-43.92956,-19.864],[-43.92951,-19.86412],[-43.92945,-19.86372],[-43.92956,-19.864]],[[-43.92982,-19.85899],[-43.92952,-19.85908],[-43.92987,-19.85879],[-43.92982,-19.85899]],[[-43.92995,-19.95677],[-43.92959,-19.95442],[-43.92962,-19.95445],[-43.92995,-19.95677]],[[-43.92995,-19.95677],[-43.9298,-19.95807],[-43.92957,-19.95843],[-43.92995,-19.95677]],[[-43.9324,-19.85752],[-43.9326,-19.85751],[-43.92993,-19.85857],[-43.9324,-19.85752]],[[-43.92993,-19.85857],[-43.92989,-19.85871],[-43.92959,-19.8573],[-43.92993,-19.85857]],[[-43.93145,-19.92135],[-43.92962,-19.92081],[-43.93175,-19.92137],[-43.93145,-19.92135]],[[-43.9297,-19.90726],[-43.92967,-19.90728],[-43.93126,-19.90337],[-43.9297,-19.90726]],[[-43.92993,-19.96058],[-43.93045,-19.96284],[-43.92996,-19.96122],[-43.92993,-19.96058]],[[-43.93117,-19.83267],[-43.9302,-19.83454],[-43.9314,-19.83186],[-43.93117,-19.83267]],[[-43.93052,-19.89541],[-43.93064,-19.89534],[-43.93073,-19.89628],[-43.93052,-19.89541]],[[-43.936,-19.8895],[-43.93287,-19.88857],[-43.93066,-19.88783],[-43.936,-19.8895]],[[-43.93088,-19.81212],[-43.93127,-19.81031],[-43.9308,-19.81367],[-43.93088,-19.81212]],[[-43.93169,-19.958],[-43.93085,-19.95954],[-43.93155,-19.95808],[-43.93169,-19.958]],[[-43.93104,-19.82887],[-43.93225,-19.82899],[-43.93112,-19.82892],[-43.93104,-19.82887]],[[-43.9316,-19.86368],[-43.93137,-19.86377],[-43.93182,-19.8635],[-43.9316,-19.86368]],[[-43.93197,-19.86427],[-43.93428,-19.86314],[-43.93214,-19.86422],[-43.93197,-19.86427]],[[-43.93217,-19.8632],[-43.93206,-19.8633],[-43.93227,-19.86299],[-43.93217,-19.8632]],[[-43.93224,-19.9214],[-43.93208,-19.92139],[-43.93251,-19.92131],[-43.93224,-19.9214]],[[-43.93254,-19.90381],[-43.93393,-19.89982],[-43.93393,-19.8999],[-43.93254,-19.90381]],[[-43.93276,-19.84571],[-43.93284,-19.84546],[-43.93277,-19.8468],[-43.93276,-19.84571]],[[-43.93297,-19.92114],[-43.93286,-19.92118],[-43.93306,-19.92102],[-43.93297,-19.92114]],[[-43.94265,-19.86973],[-43.93288,-19.86708],[-43.94274,-19.86975],[-43.94265,-19.86973]],[[-43.93288,-19.92837],[-43.93355,-19.9308],[-43.93389,-19.93204],[-43.93288,-19.92837]],[[-43.93539,-19.94806],[-43.93479,-19.94615],[-43.93308,-19.93988],[-43.93539,-19.94806]],[[-43.933558558951944,-19.86012235807865],[-43.93449,-19.85788],[-43.93435,-19.85829],[-43.933558558951944,-19.86012235807865]],[[-43.93343357730437,-19.860423239822822],[-43.93343358741705,-19.860423215477486],[-43.93642,-19.8631],[-43.93502,-19.86186],[-43.93343357730437,-19.860423239822822]],[[-43.9336,-19.91314],[-43.93695,-19.91293],[-43.93833,-19.91242],[-43.93698,-19.91304],[-43.9336,-19.91314]],[[-43.93442,-19.87801],[-43.93405,-19.87771],[-43.93434,-19.87784],[-43.93442,-19.87801]],[[-43.93436,-19.87056],[-43.93505,-19.87103],[-43.93509,-19.87113],[-43.93436,-19.87056]],[[-43.93458,-19.95893],[-43.93455,-19.95888],[-43.93507,-19.95924],[-43.93458,-19.95893]],[[-43.93459,-19.81524],[-43.93473,-19.81516],[-43.93478,-19.81645],[-43.93459,-19.81524]],[[-43.93512,-19.85601],[-43.93485,-19.85683],[-43.93513,-19.8558],[-43.93512,-19.85601]],[[-43.93521,-19.85414],[-43.93519,-19.85463],[-43.93518,-19.85404],[-43.93521,-19.85414]],[[-43.93545,-19.87223],[-43.93524,-19.87148],[-43.93553,-19.8722],[-43.93545,-19.87223]],[[-43.93545,-19.87531],[-43.93711,-19.87466],[-43.93631,-19.87509],[-43.93545,-19.87531]],[[-43.94217230584467,-19.850612978382706],[-43.94199,-19.85079],[-43.93598,-19.85301],[-43.94217230584467,-19.850612978382706]],[[-43.93598,-19.85301],[-43.93787,-19.85795],[-43.93638,-19.85423],[-43.93638,-19.85703],[-43.93598,-19.85301]],[[-43.96545,-19.84397],[-43.94406,-19.84878],[-43.95047,-19.84726],[-43.94941,-19.84661],[-43.9495,-19.84662],[-43.95052,-19.84729],[-43.96545,-19.84397]],[[-43.93607,-19.95989],[-43.93602,-19.95985],[-43.93737,-19.95934],[-43.93607,-19.95989]],[[-43.9363,-19.89518],[-43.93611,-19.89096],[-43.93632,-19.89385],[-43.9363,-19.89518]],[[-43.94463,-19.89857],[-43.9421,-19.90234],[-43.94063,-19.90438],[-43.94463,-19.89857]],[[-43.94063,-19.90438],[-43.94001,-19.90452],[-43.93631,-19.90507],[-43.94063,-19.90438]],[[-43.93647,-19.88204],[-43.93699,-19.88285],[-43.93742,-19.88396],[-43.93647,-19.88204]],[[-43.937,-19.81699],[-43.93669,-19.81708],[-43.93969,-19.81618],[-43.937,-19.81699]],[[-43.93834,-19.81448],[-43.93713,-19.81389],[-43.93679,-19.81358],[-43.93834,-19.81448]],[[-43.93834,-19.81448],[-43.93928,-19.81584],[-43.9389,-19.81551],[-43.93834,-19.81448]],[[-43.93749,-19.81849],[-43.93712,-19.8184],[-43.93729,-19.81834],[-43.93749,-19.81849]],[[-43.93729,-19.81834],[-43.93687,-19.81755],[-43.93689,-19.81747],[-43.93729,-19.81834]],[[-43.93696,-19.81846],[-43.93703,-19.81843],[-43.93687,-19.81946],[-43.93696,-19.81846]],[[-43.93945,-19.83712],[-43.93687,-19.83911],[-43.93972,-19.83672],[-43.93945,-19.83712]],[[-43.93811,-19.84714],[-43.93784,-19.84719],[-43.93754,-19.8471],[-43.93811,-19.84714]],[[-43.93818,-19.81218],[-43.93758,-19.81063],[-43.93879,-19.81291],[-43.93818,-19.81218]],[[-43.93788,-19.87001],[-43.9411,-19.87052],[-43.94112,-19.87057],[-43.93788,-19.87001]],[[-43.93838,-19.8193],[-43.93797,-19.81884],[-43.93864,-19.81933],[-43.93838,-19.8193]],[[-43.93914,-19.8194],[-43.939,-19.81938],[-43.94266,-19.81812],[-43.93914,-19.8194]],[[-43.93913,-19.96418],[-43.93926,-19.96396],[-43.93915,-19.96442],[-43.93913,-19.96418]],[[-43.9392,-19.96485],[-43.93917,-19.96462],[-43.93973,-19.96551],[-43.9392,-19.96485]],[[-43.94014,-19.95005],[-43.93918,-19.94931],[-43.94016,-19.94999],[-43.94014,-19.95005]],[[-43.94127,-19.86292],[-43.94287,-19.86332],[-43.93934,-19.86273],[-43.94127,-19.86292]],[[-43.94044,-19.94848],[-43.94071,-19.9483],[-43.94051,-19.94861],[-43.9394,-19.94708],[-43.94044,-19.94848]],[[-43.93968,-19.96325],[-43.93997,-19.96313],[-43.93956,-19.96346],[-43.93968,-19.96325]],[[-43.94096,-19.84511],[-43.94021,-19.84548],[-43.9396,-19.84556],[-43.94096,-19.84511]],[[-43.93974,-19.80929],[-43.93962,-19.80872],[-43.93983,-19.80907],[-43.93974,-19.80929]],[[-43.93983,-19.90978],[-43.9398,-19.90987],[-43.93978,-19.90983],[-43.93983,-19.90978]],[[-43.94041,-19.83649],[-43.93986,-19.8365],[-43.94022,-19.83507],[-43.94004,-19.83618],[-43.94041,-19.83649]],[[-43.94271,-19.87165],[-43.94292,-19.87157],[-43.93995,-19.87315],[-43.94271,-19.87165]],[[-43.94165,-19.88418],[-43.94002,-19.88331],[-43.94157,-19.88411],[-43.94165,-19.88418]],[[-43.94011,-19.85714],[-43.94772,-19.85433],[-43.94528,-19.85524],[-43.94011,-19.85714]],[[-43.94013,-19.80957],[-43.94315,-19.81087],[-43.94142,-19.81026],[-43.94013,-19.80957]],[[-43.94354,-19.96255],[-43.94029,-19.963],[-43.94369,-19.96248],[-43.94354,-19.96255]],[[-43.94074,-19.83191],[-43.94045,-19.8337],[-43.9406,-19.8323],[-43.94074,-19.83191]],[[-43.94363,-19.91362],[-43.94047,-19.91202],[-43.94071,-19.91205],[-43.94363,-19.91362]],[[-43.9417,-19.8254],[-43.94267,-19.82579],[-43.94074,-19.8251],[-43.9417,-19.8254]],[[-43.94088,-19.9482],[-43.94141,-19.94786],[-43.94151,-19.94797],[-43.94088,-19.9482]],[[-43.94122,-19.95763],[-43.94089,-19.95783],[-43.94113,-19.95757],[-43.94122,-19.95763]],[[-43.94089,-19.83153],[-43.94234,-19.8284],[-43.94331,-19.82658],[-43.94089,-19.83153]],[[-43.94112,-19.84195],[-43.94116,-19.84184],[-43.94129,-19.84228],[-43.94112,-19.84195]],[[-43.94183,-19.95691],[-43.94187,-19.95686],[-43.94184,-19.95694],[-43.94183,-19.95691]],[[-43.94193,-19.95224],[-43.94324,-19.95288],[-43.94329,-19.953],[-43.94223,-19.9525],[-43.94193,-19.95224]],[[-43.942,-19.9567],[-43.94246,-19.95679],[-43.94196,-19.95675],[-43.942,-19.9567]],[[-43.94215,-19.95497],[-43.94282,-19.95636],[-43.94278,-19.95641],[-43.94215,-19.95497]],[[-43.9427,-19.95099],[-43.94229,-19.9508],[-43.94245,-19.95075],[-43.9427,-19.95099]],[[-43.9423,-19.84422],[-43.94253,-19.84464],[-43.9425,-19.84461],[-43.9423,-19.84422]],[[-43.94349,-19.95921],[-43.94256,-19.9582],[-43.9424,-19.958],[-43.94349,-19.95921]],[[-43.94241,-19.93912],[-43.944,-19.93868],[-43.94396,-19.93874],[-43.94241,-19.93912]],[[-43.9428,-19.84493],[-43.94736,-19.84268],[-43.94281,-19.84494],[-43.9428,-19.84493]],[[-43.94302,-19.89436],[-43.94322,-19.89596],[-43.94312,-19.89546],[-43.94302,-19.89436]],[[-43.94311,-19.84314],[-43.94303,-19.84309],[-43.94304,-19.84298],[-43.94311,-19.84314]],[[-43.9433,-19.82355],[-43.94304,-19.82437],[-43.9437,-19.82219],[-43.9433,-19.82355]],[[-43.94363,-19.81376],[-43.9431,-19.81368],[-43.94365,-19.81368],[-43.94363,-19.81376]],[[-43.9433,-19.8424],[-43.94356,-19.84236],[-43.9434,-19.84247],[-43.9433,-19.8424]],[[-43.94361,-19.84352],[-43.94331,-19.8433],[-43.94345,-19.84324],[-43.94361,-19.84352]],[[-43.94336,-19.95427],[-43.9434,-19.95324],[-43.94344,-19.95332],[-43.94336,-19.95427]],[[-43.94342,-19.81406],[-43.9436,-19.81391],[-43.94355,-19.8141],[-43.94342,-19.81406]],[[-43.94359,-19.9133],[-43.94422,-19.91289],[-43.94345,-19.91351],[-43.94359,-19.9133]],[[-43.94491,-19.9586],[-43.94444,-19.95887],[-43.94389,-19.95887],[-43.94491,-19.9586]],[[-43.94461,-19.96169],[-43.9439,-19.96237],[-43.94463,-19.96158],[-43.94461,-19.96169]],[[-43.94853,-19.87221],[-43.94394,-19.87119],[-43.94791,-19.87191],[-43.94853,-19.87221]],[[-43.94853,-19.87221],[-43.94759,-19.87094],[-43.94766,-19.87099],[-43.94853,-19.87221]],[[-43.94413,-19.91396],[-43.94425,-19.91403],[-43.94678,-19.91676],[-43.94413,-19.91396]],[[-43.94458,-19.87013],[-43.94424,-19.87006],[-43.94517,-19.87017],[-43.94458,-19.87013]],[[-43.94461,-19.9584],[-43.94506,-19.95851],[-43.94499,-19.95855],[-43.94461,-19.9584]],[[-43.94461,-19.96084],[-43.94471,-19.96099],[-43.94466,-19.96139],[-43.94461,-19.96084]],[[-43.94543,-19.82661],[-43.94541,-19.82662],[-43.94469,-19.82609],[-43.94543,-19.82661]],[[-43.94523,-19.82731],[-43.94566,-19.82684],[-43.94519,-19.8275],[-43.94523,-19.82731]],[[-43.94553,-19.95088],[-43.9463,-19.9511],[-43.94549,-19.95135],[-43.94588,-19.9511],[-43.94553,-19.95088]],[[-43.94742,-19.88177],[-43.94773,-19.88003],[-43.94677,-19.8805],[-43.94775,-19.87995],[-43.94798,-19.87935],[-43.94742,-19.88177]],[[-43.94742,-19.88177],[-43.94654,-19.88376],[-43.94603,-19.88476],[-43.94742,-19.88177]],[[-43.94679,-19.9506],[-43.94644,-19.95105],[-43.94631,-19.95109],[-43.94679,-19.9506]],[[-43.94645,-19.84456],[-43.94813,-19.84492],[-43.94814,-19.84495],[-43.94645,-19.84456]],[[-43.9465,-19.87033],[-43.94669,-19.87035],[-43.94723,-19.8707],[-43.9465,-19.87033]],[[-43.9465,-19.89694],[-43.9465,-19.89648],[-43.94655,-19.89748],[-43.9465,-19.89694]],[[-43.95136,-19.81985],[-43.95212,-19.82079],[-43.94824,-19.81606],[-43.95136,-19.81985]],[[-43.94824,-19.81606],[-43.94822,-19.81611],[-43.94699,-19.81424],[-43.94824,-19.81606]],[[-43.94824,-19.81606],[-43.95006,-19.81211],[-43.95,-19.81237],[-43.94824,-19.81606]],[[-43.94988,-19.89353],[-43.94986,-19.89365],[-43.94886,-19.89643],[-43.94988,-19.89353]],[[-43.94886,-19.89643],[-43.94731,-19.89844],[-43.94733,-19.8984],[-43.94886,-19.89643]],[[-43.94744,-19.90808],[-43.94771,-19.90832],[-43.94765,-19.90834],[-43.94744,-19.90808]],[[-43.94891,-19.83022],[-43.94894,-19.83031],[-43.94754,-19.82922],[-43.94891,-19.83022]],[[-43.94924,-19.94623],[-43.94854,-19.94737],[-43.94759,-19.94881],[-43.94924,-19.94623]],[[-43.94759,-19.94881],[-43.94774,-19.95131],[-43.94767,-19.9512],[-43.94759,-19.94881]],[[-43.94783,-19.93967],[-43.94814,-19.9407],[-43.94798,-19.94048],[-43.94783,-19.93967]],[[-43.94933,-19.97503],[-43.94783,-19.9758],[-43.95155,-19.97363],[-43.94933,-19.97503]],[[-43.94866,-19.87851],[-43.94801,-19.87926],[-43.94803,-19.87922],[-43.94866,-19.87851]],[[-43.94802,-19.90824],[-43.94825,-19.90805],[-43.9483,-19.90816],[-43.94802,-19.90824]],[[-43.948519374999464,-19.93499267045468],[-43.95366,-19.93371],[-43.95233,-19.93406],[-43.948519374999464,-19.93499267045468]],[[-43.94833,-19.901],[-43.9482,-19.90128],[-43.94823,-19.90095],[-43.94833,-19.901]],[[-43.94825,-19.91731],[-43.95382,-19.9167],[-43.94847,-19.91738],[-43.94825,-19.91731]],[[-43.94888,-19.87605],[-43.94841,-19.87576],[-43.94932,-19.87632],[-43.94888,-19.87605]],[[-43.94982,-19.90454],[-43.94992,-19.90452],[-43.94865,-19.90507],[-43.94982,-19.90454]],[[-43.94878,-19.90765],[-43.94976,-19.90769],[-43.94967,-19.90774],[-43.94878,-19.90765]],[[-43.94902,-19.83285],[-43.94897,-19.83301],[-43.94891,-19.83302],[-43.94902,-19.83285]],[[-43.94918,-19.9813],[-43.94908,-19.98119],[-43.94899,-19.98097],[-43.94918,-19.9813]],[[-43.94901,-19.87384],[-43.94916,-19.87414],[-43.94918,-19.87449],[-43.94901,-19.87384]],[[-43.94922,-19.87498],[-43.94923,-19.87513],[-43.94918,-19.87526],[-43.94922,-19.87498]],[[-43.9493,-19.81681],[-43.94923,-19.81662],[-43.94938,-19.81684],[-43.9493,-19.81681]],[[-43.94924,-19.79138],[-43.95036,-19.81084],[-43.95028,-19.81118],[-43.94924,-19.79138]],[[-43.94931,-19.83169],[-43.94936,-19.83189],[-43.94931,-19.83204],[-43.94931,-19.83169]],[[-43.94991,-19.87543],[-43.94967,-19.87471],[-43.95044,-19.87611],[-43.94991,-19.87543]],[[-43.94971,-19.88982],[-43.9497,-19.88962],[-43.94979,-19.88946],[-43.94971,-19.88982]],[[-43.95002,-19.89243],[-43.94994,-19.89304],[-43.94982,-19.8913],[-43.95002,-19.89243]],[[-43.95189,-19.95389],[-43.94999,-19.95387],[-43.9499,-19.95381],[-43.95189,-19.95389]],[[-43.95147,-19.90001],[-43.95123,-19.90024],[-43.95035,-19.90023],[-43.95147,-19.90001]],[[-43.9506,-19.88804],[-43.95118,-19.887],[-43.95117,-19.88718],[-43.9506,-19.88804]],[[-43.95125,-19.88604],[-43.95121,-19.88659],[-43.95063,-19.88308],[-43.95125,-19.88604]],[[-43.95101,-19.90538],[-43.95084,-19.90473],[-43.95097,-19.90469],[-43.95101,-19.90538]],[[-43.95091,-19.89664],[-43.95167,-19.89324],[-43.95092,-19.89677],[-43.95091,-19.89664]],[[-43.95165,-19.87596],[-43.95131,-19.87603],[-43.95149,-19.87589],[-43.95165,-19.87596]],[[-43.95265,-19.94364],[-43.95143,-19.94332],[-43.95275,-19.94346],[-43.95377,-19.94282],[-43.95265,-19.94364]],[[-43.95143,-19.94192],[-43.95197,-19.9422],[-43.95143,-19.94204],[-43.95143,-19.94192]],[[-43.95171,-19.88209],[-43.95161,-19.88234],[-43.95168,-19.88207],[-43.95171,-19.88209]],[[-43.95198,-19.87615],[-43.95187,-19.87605],[-43.95201,-19.87611],[-43.95198,-19.87615]],[[-43.95396,-19.81597],[-43.95401,-19.81593],[-43.952,-19.81922],[-43.95396,-19.81597]],[[-43.95223,-19.88069],[-43.9521,-19.88042],[-43.95257,-19.88078],[-43.95223,-19.88069]],[[-43.95582,-19.95237],[-43.95366,-19.95181],[-43.95585,-19.95234],[-43.95582,-19.95237]],[[-43.95366,-19.95181],[-43.9524,-19.95213],[-43.95363,-19.95177],[-43.95366,-19.95181]],[[-43.95412,-19.83702],[-43.95269,-19.83842],[-43.95468,-19.8363],[-43.95412,-19.83702]],[[-43.95906,-19.97145],[-43.95951,-19.97182],[-43.9583,-19.97097],[-43.95906,-19.97145]],[[-43.9583,-19.97097],[-43.95514,-19.97074],[-43.95662,-19.97082],[-43.9583,-19.97097]],[[-43.95514,-19.97074],[-43.95331,-19.97253],[-43.95284,-19.97282],[-43.95514,-19.97074]],[[-43.95304,-19.85474],[-43.95552,-19.85599],[-43.95481,-19.85567],[-43.95304,-19.85474]],[[-43.95444,-19.88064],[-43.95337,-19.87987],[-43.95465,-19.88071],[-43.95444,-19.88064]],[[-43.95395,-19.9395],[-43.95339,-19.93657],[-43.9534,-19.9366],[-43.95395,-19.9395]],[[-43.95395,-19.9395],[-43.95385,-19.94114],[-43.95382,-19.94101],[-43.95395,-19.9395]],[[-43.95349,-19.9481],[-43.95343,-19.94872],[-43.9534,-19.94796],[-43.95349,-19.9481]],[[-43.95355,-19.94154],[-43.95351,-19.94148],[-43.95359,-19.94136],[-43.95355,-19.94154]],[[-43.95405,-19.94188],[-43.95397,-19.94156],[-43.95447,-19.94221],[-43.95405,-19.94188]],[[-43.95546,-19.82363],[-43.95554,-19.82392],[-43.95415,-19.82242],[-43.95546,-19.82363]],[[-43.95459,-19.96892],[-43.95424,-19.96642],[-43.95434,-19.96597],[-43.95459,-19.96892]],[[-43.95649,-19.90966],[-43.9588,-19.90841],[-43.95885,-19.9084],[-43.95649,-19.90966]],[[-43.95649,-19.90966],[-43.9543,-19.91338],[-43.95427,-19.9134],[-43.95649,-19.90966]],[[-43.95441,-19.95289],[-43.95533,-19.95316],[-43.95439,-19.95299],[-43.95441,-19.95289]],[[-43.95442,-19.81553],[-43.95566,-19.81434],[-43.95599,-19.81416],[-43.95442,-19.81553]],[[-43.95445,-19.96553],[-43.9545,-19.96531],[-43.95548,-19.96411],[-43.95445,-19.96553]],[[-43.96018,-19.85727],[-43.95945,-19.85934],[-43.9548,-19.87163],[-43.95851,-19.86182],[-43.96018,-19.85727]],[[-43.95553,-19.80331],[-43.95641,-19.80302],[-43.9556,-19.8033],[-43.95497,-19.80428],[-43.95553,-19.80331]],[[-43.95693,-19.84426],[-43.95523,-19.84453],[-43.96758,-19.84167],[-43.95693,-19.84426]],[[-43.9555,-19.96408],[-43.95543,-19.96402],[-43.95728,-19.96162],[-43.9555,-19.96408]],[[-43.95555,-19.8888],[-43.95621,-19.88957],[-43.9575,-19.8914],[-43.95555,-19.8888]],[[-43.95801,-19.99138],[-43.95816,-19.99161],[-43.9558,-19.9889],[-43.95801,-19.99138]],[[-43.95617,-19.8527],[-43.95608,-19.85263],[-43.95739,-19.85099],[-43.95617,-19.8527]],[[-43.95733,-19.82638],[-43.95622,-19.82582],[-43.95609,-19.82565],[-43.95733,-19.82638]],[[-43.95688,-19.94487],[-43.95659,-19.94299],[-43.95691,-19.9449],[-43.95688,-19.94487]],[[-43.95945,-19.94992],[-43.95945,-19.95085],[-43.95915,-19.95132],[-43.95945,-19.94992]],[[-43.95915,-19.95132],[-43.95696,-19.95141],[-43.95698,-19.95139],[-43.95915,-19.95132]],[[-43.95784,-19.88616],[-43.95779,-19.8872],[-43.95698,-19.88878],[-43.95762,-19.8875],[-43.95784,-19.88616]],[[-43.95749,-19.95981],[-43.95704,-19.95809],[-43.95712,-19.95768],[-43.95749,-19.95981]],[[-43.96048,-19.95218],[-43.95854,-19.95528],[-43.95717,-19.95745],[-43.95721,-19.95723],[-43.96048,-19.95218]],[[-43.95854,-19.95528],[-43.95958,-19.95567],[-43.95951,-19.9557],[-43.95854,-19.95528]],[[-43.96546,-19.93109],[-43.96488,-19.93108],[-43.95719,-19.92945],[-43.96546,-19.93109]],[[-43.95779,-19.8957],[-43.95726,-19.89819],[-43.95724,-19.89825],[-43.95779,-19.8957]],[[-43.95773,-19.85673],[-43.95778,-19.8568],[-43.95838,-19.8566],[-43.95787,-19.85693],[-43.95773,-19.85673]],[[-43.95957,-19.89364],[-43.9598,-19.89406],[-43.95781,-19.89182],[-43.95957,-19.89364]],[[-43.95798,-19.86144],[-43.9581,-19.86134],[-43.95816,-19.86141],[-43.95798,-19.86144]],[[-43.95876,-19.97922],[-43.95875,-19.97944],[-43.9585,-19.97884],[-43.95876,-19.97922]],[[-43.95889,-19.98079],[-43.95903,-19.98128],[-43.9589,-19.98108],[-43.95889,-19.98079]],[[-43.95939,-19.98182],[-43.95964,-19.98197],[-43.95946,-19.98193],[-43.95939,-19.98182]],[[-43.9597,-19.95587],[-43.95977,-19.95592],[-43.95946,-19.95645],[-43.9597,-19.95587]],[[-43.96033,-19.90801],[-43.95959,-19.90817],[-43.96012,-19.908],[-43.96033,-19.90801]],[[-43.96035,-19.82812],[-43.9605,-19.82831],[-43.95966,-19.82773],[-43.96035,-19.82812]],[[-43.96069,-19.95369],[-43.9598,-19.95558],[-43.95969,-19.95563],[-43.96069,-19.95369]],[[-43.96018,-19.95056],[-43.9601,-19.95058],[-43.96017,-19.95055],[-43.96018,-19.95056]],[[-43.96046,-19.89526],[-43.96051,-19.8954],[-43.96012,-19.89464],[-43.96046,-19.89526]],[[-43.96114,-19.94645],[-43.96098,-19.94647],[-43.96013,-19.9457],[-43.96114,-19.94645]],[[-43.96041,-19.80472],[-43.96043,-19.80468],[-43.96112,-19.80395],[-43.96041,-19.80472]],[[-43.96312,-19.95525],[-43.96104,-19.95489],[-43.96056,-19.9548],[-43.96312,-19.95525]],[[-43.96126,-19.95044],[-43.96061,-19.95189],[-43.96126,-19.95034],[-43.96126,-19.95044]],[[-43.9618,-19.95008],[-43.9613,-19.94966],[-43.96128,-19.94998],[-43.96064,-19.94779],[-43.9618,-19.95008]],[[-43.9634,-19.93978],[-43.96125,-19.93188],[-43.96204,-19.93476],[-43.9634,-19.93978]],[[-43.9634,-19.93978],[-43.96125,-19.9403],[-43.96071,-19.94043],[-43.9634,-19.93978]],[[-43.96204,-19.89811],[-43.96206,-19.89826],[-43.96113,-19.89715],[-43.96204,-19.89811]],[[-43.96386,-19.79858],[-43.96141,-19.80133],[-43.96371,-19.79874],[-43.96394,-19.79783],[-43.96386,-19.79858]],[[-43.96168,-19.98158],[-43.96173,-19.98161],[-43.96147,-19.98156],[-43.96168,-19.98158]],[[-43.96189,-19.90454],[-43.96179,-19.90384],[-43.96152,-19.90168],[-43.96189,-19.90454]],[[-43.96195,-19.94703],[-43.9619,-19.94699],[-43.96297,-19.94714],[-43.96195,-19.94703]],[[-43.96314,-19.80431],[-43.96235,-19.80328],[-43.96198,-19.8024],[-43.96314,-19.80431]],[[-43.96281,-19.79305],[-43.96235,-19.79458],[-43.96228,-19.79433],[-43.96281,-19.79305]],[[-43.96645,-19.94091],[-43.96504,-19.9422],[-43.96316,-19.94332],[-43.96645,-19.94091]],[[-43.96316,-19.94332],[-43.96352,-19.94428],[-43.96316,-19.94335],[-43.96265,-19.94136],[-43.96316,-19.94332]],[[-43.96371,-19.88675],[-43.96287,-19.88631],[-43.96296,-19.88624],[-43.96371,-19.88675]],[[-43.96327,-19.91674],[-43.966,-19.91738],[-43.96615,-19.91746],[-43.96327,-19.91674]],[[-43.96345,-19.9495],[-43.96338,-19.95023],[-43.96343,-19.94944],[-43.96393,-19.95003],[-43.96345,-19.9495]],[[-43.96348,-19.80475],[-43.96379,-19.80493],[-43.96359,-19.80489],[-43.96348,-19.80475]],[[-43.9649,-19.81572],[-43.96711,-19.81672],[-43.96375,-19.81543],[-43.9649,-19.81572]],[[-43.96394,-19.944],[-43.96469,-19.94469],[-43.96463,-19.94477],[-43.96394,-19.944]],[[-43.96404,-19.95559],[-43.96521,-19.95644],[-43.96407,-19.95562],[-43.96398,-19.95608],[-43.96404,-19.95559]],[[-43.96445,-19.95059],[-43.96399,-19.9501],[-43.96475,-19.95034],[-43.96445,-19.95059]],[[-43.96808,-19.80873],[-43.96869,-19.80815],[-43.96711,-19.80969],[-43.96808,-19.80873]],[[-43.96711,-19.80969],[-43.96404,-19.81061],[-43.96413,-19.81055],[-43.96711,-19.80969]],[[-43.96659,-19.82722],[-43.96664,-19.82722],[-43.96436,-19.82878],[-43.96659,-19.82722]],[[-43.9647,-19.89256],[-43.96483,-19.89231],[-43.96468,-19.89273],[-43.9647,-19.89256]],[[-43.96487,-19.95025],[-43.96579,-19.94891],[-43.96513,-19.95003],[-43.96487,-19.95025]],[[-43.96506,-20.00183],[-43.96503,-20.00222],[-43.96487,-20.00156],[-43.96506,-20.00183]],[[-43.96664,-19.9466],[-43.96549,-19.94573],[-43.96505,-19.94523],[-43.96664,-19.9466]],[[-43.96664,-19.9466],[-43.96708,-19.94722],[-43.96662,-19.9468],[-43.96664,-19.9466]],[[-43.96649,-19.8908],[-43.96733,-19.88913],[-43.96736,-19.88909],[-43.96649,-19.8908]],[[-43.96649,-19.8908],[-43.96507,-19.89182],[-43.96511,-19.89175],[-43.96649,-19.8908]],[[-43.96525,-19.967],[-43.9652,-19.9671],[-43.96513,-19.96711],[-43.96525,-19.967]],[[-43.96548,-19.95206],[-43.96589,-19.95186],[-43.96552,-19.95208],[-43.96548,-19.95206]],[[-43.96564,-19.88892],[-43.96568,-19.8889],[-43.96597,-19.88924],[-43.96564,-19.88892]],[[-43.96608,-19.96306],[-43.966,-19.96388],[-43.96596,-19.9634],[-43.96608,-19.96306]],[[-43.96601,-19.96399],[-43.96628,-19.96431],[-43.96602,-19.96404],[-43.96601,-19.96399]],[[-43.96666,-19.96263],[-43.9661,-19.96299],[-43.96618,-19.96278],[-43.96666,-19.96263]],[[-43.96629,-19.95635],[-43.96772,-19.95185],[-43.96802,-19.95094],[-43.96692,-19.95457],[-43.96629,-19.95635]],[[-43.97194,-19.93038],[-43.97185,-19.93073],[-43.97045,-19.93092],[-43.97194,-19.93038]],[[-43.97045,-19.93092],[-43.96694,-19.93112],[-43.96689,-19.93112],[-43.97045,-19.93092]],[[-43.96725,-19.94693],[-43.96715,-19.94728],[-43.96711,-19.94724],[-43.96725,-19.94693]],[[-43.96893,-19.93775],[-43.9676,-19.93987],[-43.96724,-19.94019],[-43.96893,-19.93775]],[[-43.98063,-19.91235],[-43.98039,-19.91249],[-43.97248,-19.91267],[-43.98063,-19.91235]],[[-43.97248,-19.91267],[-43.96732,-19.91087],[-43.97151,-19.91233],[-43.97248,-19.91267]],[[-43.96756,-19.85038],[-43.96851,-19.8541],[-43.96838,-19.85389],[-43.96756,-19.85038]],[[-43.96914,-19.88711],[-43.9736,-19.8905],[-43.97339,-19.89038],[-43.96914,-19.88711]],[[-43.96914,-19.88711],[-43.96759,-19.88877],[-43.96758,-19.88877],[-43.96914,-19.88711]],[[-43.96839,-19.94868],[-43.96837,-19.94869],[-43.96845,-19.94844],[-43.96839,-19.94868]],[[-43.96893,-19.81556],[-43.97014,-19.81516],[-43.96862,-19.81576],[-43.96893,-19.81556]],[[-43.96867,-19.85434],[-43.96885,-19.85446],[-43.96871,-19.85442],[-43.96867,-19.85434]],[[-43.97103,-19.94375],[-43.97009,-19.94326],[-43.97109,-19.94363],[-43.97103,-19.94375]],[[-43.97009,-19.94326],[-43.97067,-19.94409],[-43.96972,-19.94281],[-43.97009,-19.94326]],[[-43.96972,-19.94281],[-43.96925,-19.94345],[-43.96934,-19.9431],[-43.96972,-19.94281]],[[-43.96929,-19.94895],[-43.96946,-19.94539],[-43.96952,-19.94519],[-43.96929,-19.94895]],[[-43.96992,-19.82335],[-43.97259,-19.81929],[-43.96974,-19.82363],[-43.96992,-19.82335]],[[-43.97006,-19.94642],[-43.96979,-19.94574],[-43.96997,-19.94582],[-43.97006,-19.94642]],[[-43.96999,-19.95392],[-43.97077,-19.95208],[-43.9712,-19.95132],[-43.96999,-19.95392]],[[-43.97033,-19.94519],[-43.97015,-19.94665],[-43.97011,-19.94653],[-43.97033,-19.94519]],[[-43.97243,-19.80351],[-43.97149,-19.80217],[-43.97143,-19.80188],[-43.97243,-19.80351]],[[-43.97243,-19.80351],[-43.97271,-19.80341],[-43.97087,-19.80476],[-43.97243,-19.80351]],[[-43.97087,-19.80476],[-43.97031,-19.80644],[-43.97017,-19.80659],[-43.97087,-19.80476]],[[-43.97045,-19.95673],[-43.97051,-19.95677],[-43.97024,-19.95732],[-43.97045,-19.95673]],[[-43.9734,-19.93834],[-43.9734,-19.93836],[-43.97268,-19.93802],[-43.9734,-19.93834]],[[-43.97268,-19.93802],[-43.97267,-19.93868],[-43.9718,-19.93385],[-43.97268,-19.93802]],[[-43.9718,-19.93385],[-43.97054,-19.93613],[-43.97032,-19.93635],[-43.9718,-19.93385]],[[-43.9705,-19.95624],[-43.97045,-19.9559],[-43.97056,-19.95513],[-43.97055,-19.95568],[-43.9705,-19.95624]],[[-43.97069,-19.96147],[-43.9715,-19.9612],[-43.97047,-19.96166],[-43.97069,-19.96147]],[[-43.97218,-19.98858],[-43.9709,-19.99019],[-43.97187,-19.98874],[-43.97218,-19.98858]],[[-43.97099,-19.99309],[-43.97159,-19.99298],[-43.97175,-19.99277],[-43.97156,-19.9931],[-43.97099,-19.99309]],[[-43.97115,-19.8324],[-43.97115,-19.8337],[-43.97102,-19.83291],[-43.97115,-19.8324]],[[-43.97195,-19.90404],[-43.97194,-19.90474],[-43.9711,-19.90784],[-43.97195,-19.90404]],[[-43.97128,-19.8439],[-43.9711,-19.84352],[-43.97114,-19.84355],[-43.97128,-19.8439]],[[-43.97129,-19.94493],[-43.9717,-19.94549],[-43.97124,-19.94488],[-43.97129,-19.94493]],[[-43.97153,-19.83608],[-43.97131,-19.83474],[-43.97189,-19.83689],[-43.97153,-19.83608]],[[-43.97137,-19.80156],[-43.97236,-19.79867],[-43.97141,-19.80175],[-43.97137,-19.80156]],[[-43.9716,-19.81467],[-43.97218,-19.81465],[-43.97144,-19.81472],[-43.9716,-19.81467]],[[-43.97171,-19.92865],[-43.97239,-19.92738],[-43.9724,-19.92737],[-43.97171,-19.92865]],[[-43.97171,-19.92865],[-43.97167,-19.92917],[-43.97178,-19.92702],[-43.97171,-19.92865]],[[-43.9721,-19.84532],[-43.97189,-19.8452],[-43.97184,-19.8451],[-43.9721,-19.84532]],[[-43.97217,-19.99393],[-43.97251,-19.99473],[-43.97184,-19.99349],[-43.97217,-19.99393]],[[-43.97191,-19.99213],[-43.97196,-19.99239],[-43.97189,-19.99251],[-43.97191,-19.99213]],[[-43.97217,-19.99132],[-43.97193,-19.99179],[-43.97194,-19.99156],[-43.97217,-19.99132]],[[-43.97266,-19.93893],[-43.97226,-19.94018],[-43.97266,-19.93888],[-43.97266,-19.93893]],[[-43.97292,-19.9479],[-43.97282,-19.9481],[-43.97265,-19.948],[-43.97292,-19.9479]],[[-43.97427,-19.84638],[-43.97381,-19.84632],[-43.97326,-19.84599],[-43.97427,-19.84638]],[[-43.97487,-19.92533],[-43.97439,-19.92528],[-43.97345,-19.92475],[-43.97487,-19.92533]],[[-43.97351,-19.96663],[-43.97347,-19.96654],[-43.97359,-19.96606],[-43.97351,-19.96663]],[[-43.97378,-19.96722],[-43.97353,-19.96667],[-43.97887,-19.97529],[-43.97378,-19.96722]],[[-43.97963,-19.81063],[-43.98016,-19.81128],[-43.97364,-19.80721],[-43.97963,-19.81063]],[[-43.97398,-19.92287],[-43.97465,-19.92304],[-43.97412,-19.92293],[-43.97398,-19.92287]],[[-43.97694,-19.83239],[-43.97491,-19.83131],[-43.97402,-19.83045],[-43.97694,-19.83239]],[[-43.97405,-19.99802],[-43.97412,-19.99833],[-43.97404,-19.99805],[-43.97405,-19.99802]],[[-43.97428,-19.94691],[-43.97425,-19.94706],[-43.97425,-19.94695],[-43.97428,-19.94691]],[[-43.97575,-19.96701],[-43.97591,-19.96705],[-43.97434,-19.96711],[-43.97575,-19.96701]],[[-43.97451,-19.84773],[-43.97436,-19.84778],[-43.9744,-19.84772],[-43.97451,-19.84773]],[[-43.97462,-19.81538],[-43.9751,-19.81554],[-43.97521,-19.81562],[-43.97462,-19.81538]],[[-43.97526,-19.94534],[-43.97476,-19.9461],[-43.97521,-19.94534],[-43.97526,-19.94534]],[[-43.97704,-19.84594],[-43.97549,-19.84655],[-43.97513,-19.8465],[-43.97704,-19.84594]],[[-43.97804,-19.90798],[-43.97809,-19.90521],[-43.97804,-19.90804],[-43.97525,-19.90802],[-43.97804,-19.90798]],[[-43.97591,-19.95033],[-43.97709,-19.95013],[-43.97579,-19.95077],[-43.97591,-19.95033]],[[-43.97598,-19.84881],[-43.97592,-19.84882],[-43.97585,-19.84873],[-43.97598,-19.84881]],[[-43.97609,-19.96072],[-43.97632,-19.95836],[-43.97611,-19.96086],[-43.97609,-19.96072]],[[-43.97613,-19.96098],[-43.97707,-19.96571],[-43.97663,-19.96425],[-43.97613,-19.96098]],[[-43.97723,-19.98595],[-43.98055,-19.98434],[-43.97636,-19.9864],[-43.97723,-19.98595]],[[-43.97668,-19.95816],[-43.97737,-19.95828],[-43.97716,-19.95834],[-43.97668,-19.95816]],[[-43.97848,-19.78894],[-43.9779,-19.78905],[-43.97834,-19.78888],[-43.97669,-19.78772],[-43.97848,-19.78894]],[[-43.97761,-19.84589],[-43.97709,-19.84592],[-43.97726,-19.84587],[-43.97761,-19.84589]],[[-43.97815,-19.84851],[-43.97714,-19.84865],[-43.97802,-19.84845],[-43.97815,-19.84851]],[[-43.97741,-19.79035],[-43.97796,-19.78942],[-43.97796,-19.78944],[-43.97741,-19.79035]],[[-43.97753,-19.94165],[-43.97801,-19.94388],[-43.97751,-19.94173],[-43.97753,-19.94165]],[[-43.97756,-19.95822],[-43.97814,-19.95769],[-43.97768,-19.95819],[-43.97756,-19.95822]],[[-43.97791,-19.94023],[-43.97816,-19.93962],[-43.97769,-19.94105],[-43.97791,-19.94023]],[[-43.97784,-19.92366],[-43.97824,-19.92367],[-43.97809,-19.92371],[-43.97784,-19.92366]],[[-43.97796,-19.95679],[-43.97916,-19.95578],[-43.97895,-19.95613],[-43.97796,-19.95679]],[[-43.98234,-19.84816],[-43.97804,-19.84591],[-43.97816,-19.84591],[-43.98234,-19.84816]],[[-43.97814,-19.90804],[-43.98055,-19.90772],[-43.97843,-19.90804],[-43.97814,-19.90804]],[[-43.97936,-19.92337],[-43.98165,-19.92262],[-43.98102,-19.92294],[-43.97936,-19.92337]],[[-43.9804,-19.9533],[-43.97964,-19.95502],[-43.97956,-19.95514],[-43.9804,-19.9533]],[[-43.98025,-19.78565],[-43.98026,-19.78572],[-43.97969,-19.78551],[-43.98025,-19.78565]],[[-43.97969,-19.78551],[-43.98004,-19.78632],[-43.97962,-19.78566],[-43.97969,-19.78551]],[[-43.98003,-19.78896],[-43.9798,-19.78893],[-43.97963,-19.78853],[-43.98003,-19.78896]],[[-43.97976,-19.85946],[-43.98003,-19.85945],[-43.98056,-19.85966],[-43.97976,-19.85946]],[[-43.97994,-19.85474],[-43.98003,-19.85461],[-43.97994,-19.85525],[-43.97994,-19.85474]],[[-43.98032,-19.85416],[-43.98191,-19.85318],[-43.98012,-19.85446],[-43.98032,-19.85416]],[[-43.98013,-19.8755],[-43.98139,-19.8772],[-43.98142,-19.87733],[-43.98013,-19.8755]],[[-43.98015,-19.78909],[-43.98014,-19.7891],[-43.98014,-19.78908],[-43.98015,-19.78909]],[[-43.98024,-19.96277],[-43.98024,-19.96306],[-43.9802,-19.96289],[-43.98024,-19.96277]],[[-43.98053,-19.81249],[-43.98028,-19.81143],[-43.98034,-19.81151],[-43.98053,-19.81249]],[[-43.98036,-19.9636],[-43.9806,-19.96419],[-43.98047,-19.96406],[-43.98036,-19.9636]],[[-43.98139,-19.95168],[-43.98136,-19.95182],[-43.98039,-19.95237],[-43.98139,-19.95168]],[[-43.98064,-19.85969],[-43.98115,-19.8599],[-43.98104,-19.85991],[-43.98064,-19.85969]],[[-43.98074,-19.83213],[-43.98097,-19.8319],[-43.98086,-19.83205],[-43.98074,-19.83213]],[[-43.98076,-19.91227],[-43.98149,-19.91133],[-43.98099,-19.91214],[-43.98076,-19.91227]],[[-43.98077,-19.9284],[-43.9808,-19.92841],[-43.98084,-19.92843],[-43.98077,-19.9284]],[[-43.98101,-19.89995],[-43.98143,-19.89981],[-43.98143,-19.89992],[-43.98101,-19.89995]],[[-43.9821,-19.86297],[-43.98111,-19.8608],[-43.98241,-19.86346],[-43.9821,-19.86297]],[[-43.98283,-19.82938],[-43.98279,-19.82947],[-43.98112,-19.83127],[-43.98283,-19.82938]],[[-43.98112,-19.83127],[-43.98132,-19.83144],[-43.98122,-19.83157],[-43.98112,-19.83127]],[[-43.98128,-19.85987],[-43.98165,-19.85965],[-43.98156,-19.85983],[-43.98128,-19.85987]],[[-43.98165,-19.92888],[-43.98199,-19.92907],[-43.98204,-19.92913],[-43.98165,-19.92888]],[[-43.98179,-19.85935],[-43.98165,-19.85872],[-43.98187,-19.85918],[-43.98179,-19.85935]],[[-43.982,-19.95127],[-43.98193,-19.95144],[-43.98167,-19.95149],[-43.982,-19.95127]],[[-43.98227,-19.98326],[-43.98196,-19.9836],[-43.98168,-19.98374],[-43.98227,-19.98326]],[[-43.98394,-19.89865],[-43.98336,-19.89885],[-43.98188,-19.89933],[-43.98394,-19.89865]],[[-43.98188,-19.89933],[-43.98273,-19.90102],[-43.98171,-19.89902],[-43.98188,-19.89933]],[[-43.98202,-19.93513],[-43.98207,-19.93549],[-43.9819,-19.93528],[-43.98202,-19.93513]],[[-43.98226,-19.85065],[-43.98211,-19.85076],[-43.98193,-19.85068],[-43.98226,-19.85065]],[[-43.9824,-19.93466],[-43.98237,-19.93475],[-43.9823,-19.93479],[-43.9824,-19.93466]],[[-43.98234,-19.92239],[-43.98266,-19.92228],[-43.98351,-19.92239],[-43.98234,-19.92239]],[[-43.98239,-19.81141],[-43.98249,-19.81218],[-43.98243,-19.81178],[-43.98239,-19.81141]],[[-43.98242,-19.9346],[-43.98272,-19.93304],[-43.98301,-19.93459],[-43.98271,-19.93362],[-43.98242,-19.9346]],[[-43.98249,-19.92974],[-43.98315,-19.92957],[-43.98316,-19.92961],[-43.98249,-19.92974]],[[-43.98273,-19.86396],[-43.98253,-19.86364],[-43.98468,-19.86582],[-43.98273,-19.86396]],[[-43.98278,-19.98253],[-43.98257,-19.98293],[-43.98406,-19.9797],[-43.98278,-19.98253]],[[-43.98264,-19.96103],[-43.98337,-19.96169],[-43.98554,-19.96369],[-43.98264,-19.96103]],[[-43.98272,-19.88262],[-43.98274,-19.88355],[-43.98275,-19.88441],[-43.98272,-19.88262]],[[-43.98278,-19.95093],[-43.98281,-19.95118],[-43.98275,-19.95102],[-43.98278,-19.95093]],[[-43.9829,-19.95144],[-43.98306,-19.95167],[-43.98295,-19.95159],[-43.9829,-19.95144]],[[-43.983,-19.95027],[-43.98315,-19.95014],[-43.98291,-19.95052],[-43.983,-19.95027]],[[-43.98297,-19.88821],[-43.98451,-19.88887],[-43.98423,-19.88888],[-43.98297,-19.88821]],[[-43.98314,-19.89917],[-43.98367,-19.9005],[-43.98324,-19.89951],[-43.98314,-19.89917]],[[-43.98435,-19.92525],[-43.98438,-19.92541],[-43.9841,-19.92593],[-43.98435,-19.92525]],[[-43.9841,-19.92593],[-43.98317,-19.92653],[-43.98321,-19.92644],[-43.9841,-19.92593]],[[-43.98336,-19.93573],[-43.98328,-19.93546],[-43.98516,-19.93797],[-43.98336,-19.93573]],[[-43.98412,-19.95965],[-43.98331,-19.95986],[-43.98335,-19.9598],[-43.98412,-19.95965]],[[-43.98333,-19.92956],[-43.98337,-19.92977],[-43.98333,-19.92997],[-43.98333,-19.92956]],[[-43.98343,-19.88292],[-43.98435,-19.88291],[-43.98453,-19.88306],[-43.98343,-19.88292]],[[-43.98378,-19.92242],[-43.98424,-19.92248],[-43.98515,-19.92294],[-43.98378,-19.92242]],[[-43.98393,-19.9194],[-43.98498,-19.91991],[-43.98505,-19.91997],[-43.98393,-19.9194]],[[-43.98415,-19.90263],[-43.98397,-19.90243],[-43.98718,-19.90463],[-43.98415,-19.90263]],[[-43.98412,-19.96673],[-43.98435,-19.96732],[-43.98432,-19.96758],[-43.98412,-19.96673]],[[-43.98482,-19.91677],[-43.98475,-19.91701],[-43.98445,-19.91554],[-43.98482,-19.91677]],[[-43.98445,-19.91554],[-43.98499,-19.91618],[-43.98496,-19.91628],[-43.98445,-19.91554]],[[-43.98466,-19.93596],[-43.98453,-19.93598],[-43.98445,-19.93568],[-43.98466,-19.93596]],[[-43.9866,-19.8904],[-43.98463,-19.89144],[-43.98619,-19.89059],[-43.9866,-19.8904]],[[-43.98619,-19.89059],[-43.98588,-19.88982],[-43.986,-19.88992],[-43.98619,-19.89059]],[[-43.98466,-19.8248],[-43.98549,-19.82478],[-43.98633,-19.82505],[-43.98466,-19.8248]],[[-43.98468,-19.88319],[-43.98469,-19.8832],[-43.98481,-19.88382],[-43.98468,-19.88319]],[[-43.98485,-19.95936],[-43.98478,-19.95947],[-43.98471,-19.95949],[-43.98485,-19.95936]],[[-43.98494,-19.94861],[-43.98714,-19.94787],[-43.98486,-19.94868],[-43.98494,-19.94861]],[[-43.98511,-19.97706],[-43.9858,-19.97642],[-43.98503,-19.97727],[-43.98511,-19.97706]],[[-43.98651,-19.89085],[-43.98504,-19.89155],[-43.98511,-19.8914],[-43.98651,-19.89085]],[[-43.98508,-19.95128],[-43.98514,-19.95164],[-43.98506,-19.95148],[-43.98508,-19.95128]],[[-43.98552,-19.94983],[-43.98514,-19.9507],[-43.98518,-19.95024],[-43.98552,-19.94983]],[[-43.98522,-19.92013],[-43.98535,-19.92026],[-43.98535,-19.92039],[-43.98522,-19.92013]],[[-43.98529,-19.95318],[-43.98537,-19.95323],[-43.98556,-19.9537],[-43.98529,-19.95318]],[[-43.9859,-19.89678],[-43.98625,-19.89653],[-43.98552,-19.89758],[-43.9859,-19.89678]],[[-43.98776,-19.95422],[-43.98818,-19.95458],[-43.98565,-19.95259],[-43.98776,-19.95422]],[[-43.98727,-19.94842],[-43.98567,-19.94964],[-43.98586,-19.94941],[-43.98727,-19.94842]],[[-43.98583,-19.82419],[-43.98641,-19.82444],[-43.98581,-19.82422],[-43.98583,-19.82419]],[[-43.98784,-19.97776],[-43.98733,-19.97818],[-43.986,-19.9787],[-43.98784,-19.97776]],[[-43.98628,-19.9387],[-43.98601,-19.93776],[-43.98611,-19.93789],[-43.98628,-19.9387]],[[-43.98686,-19.93997],[-43.98625,-19.93917],[-43.98811,-19.93856],[-43.9864,-19.93914],[-43.98686,-19.93997]],[[-43.98642,-19.89641],[-43.98717,-19.89628],[-43.98629,-19.8965],[-43.98642,-19.89641]],[[-43.9867,-19.9209],[-43.98664,-19.92091],[-43.98676,-19.92074],[-43.9867,-19.9209]],[[-43.98775,-19.89022],[-43.98681,-19.89029],[-43.98686,-19.89027],[-43.98775,-19.89022]],[[-43.98701,-19.84038],[-43.98898,-19.84184],[-43.98979,-19.84257],[-43.98701,-19.84038]],[[-43.98717,-19.91968],[-43.98711,-19.91982],[-43.98723,-19.91893],[-43.98717,-19.91968]],[[-43.98735,-19.99311],[-43.98727,-19.99257],[-43.98845,-19.99429],[-43.98735,-19.99311]],[[-43.98734,-19.99548],[-43.98727,-19.99432],[-43.98735,-19.99418],[-43.98734,-19.99548]],[[-43.99213,-19.82035],[-43.98982,-19.82013],[-43.98729,-19.8198],[-43.99213,-19.82035]],[[-43.98866,-19.90565],[-43.98751,-19.90486],[-43.98813,-19.90528],[-43.98866,-19.90565]],[[-43.98782,-19.93754],[-43.98774,-19.93807],[-43.98778,-19.93757],[-43.98782,-19.93754]],[[-43.98777,-19.82188],[-43.98837,-19.82183],[-43.98888,-19.82189],[-43.98845,-19.82186],[-43.98777,-19.82188]],[[-43.98787,-19.89545],[-43.98785,-19.89531],[-43.9879,-19.89533],[-43.98787,-19.89545]],[[-43.98803,-19.97749],[-43.98796,-19.97765],[-43.98789,-19.97771],[-43.98803,-19.97749]],[[-43.9879,-19.99198],[-43.98801,-19.99188],[-43.98826,-19.99201],[-43.9879,-19.99198]],[[-43.98794,-19.94217],[-43.98814,-19.94235],[-43.98814,-19.9426],[-43.98794,-19.94217]],[[-43.98815,-19.94286],[-43.98815,-19.94302],[-43.98804,-19.94316],[-43.98815,-19.94286]],[[-43.98872,-19.99394],[-43.98818,-19.99352],[-43.98816,-19.99345],[-43.98872,-19.99394]],[[-43.9883,-19.79668],[-43.98895,-19.79677],[-43.98895,-19.79688],[-43.9883,-19.79668]],[[-43.98905,-19.79595],[-43.98879,-19.79587],[-43.98877,-19.79563],[-43.98905,-19.79595]],[[-43.98905,-19.79595],[-43.98852,-19.79659],[-43.9884,-19.79658],[-43.98905,-19.79595]],[[-43.98846,-19.97655],[-43.989,-19.97431],[-43.98902,-19.97428],[-43.98846,-19.97655]],[[-43.99048,-19.9293],[-43.99075,-19.92956],[-43.98846,-19.92799],[-43.99048,-19.9293]],[[-43.98957,-19.99164],[-43.98863,-19.99162],[-43.98939,-19.99158],[-43.98957,-19.99164]],[[-43.98889,-19.93663],[-43.98864,-19.93672],[-43.98873,-19.93664],[-43.98889,-19.93663]],[[-43.98898,-19.95267],[-43.98896,-19.9527],[-43.98869,-19.9504],[-43.98898,-19.95267]],[[-43.98874,-19.79536],[-43.98886,-19.79545],[-43.98876,-19.79553],[-43.98874,-19.79536]],[[-43.98895,-19.8245],[-43.98899,-19.82387],[-43.98906,-19.82388],[-43.98895,-19.8245]],[[-43.99011,-19.93667],[-43.98983,-19.93662],[-43.99005,-19.93661],[-43.99011,-19.93667]],[[-43.99183,-19.94633],[-43.99391,-19.94774],[-43.98986,-19.94501],[-43.99183,-19.94633]],[[-43.99012,-19.80338],[-43.98991,-19.80338],[-44.00047,-19.8029],[-43.99012,-19.80338]],[[-43.98995,-19.99795],[-43.9902,-19.99711],[-43.99006,-19.99799],[-43.98995,-19.99795]],[[-43.99166,-19.96512],[-43.99001,-19.96139],[-43.99069,-19.96267],[-43.99166,-19.96512]],[[-43.9904,-19.93958],[-43.99164,-19.93854],[-43.99028,-19.93987],[-43.9904,-19.93958]],[[-43.99028,-19.93987],[-43.99149,-19.94008],[-43.99169,-19.9404],[-43.99129,-19.9401],[-43.99028,-19.93987]],[[-43.99045,-19.99221],[-43.99113,-19.99261],[-43.99117,-19.99273],[-43.99045,-19.99221]],[[-43.99046,-19.99812],[-43.9921,-19.9985],[-43.99077,-19.99822],[-43.99046,-19.99812]],[[-43.99285,-19.91692],[-43.99064,-19.91971],[-43.99342,-19.91615],[-43.99285,-19.91692]],[[-43.99293,-19.93362],[-43.99302,-19.93382],[-43.99236,-19.93313],[-43.99293,-19.93362]],[[-43.99236,-19.93313],[-43.9907,-19.93261],[-43.99092,-19.93256],[-43.99236,-19.93313]],[[-43.99081,-19.97716],[-43.99073,-19.97704],[-43.9908,-19.97698],[-43.99081,-19.97716]],[[-43.99081,-19.97539],[-43.99133,-19.97477],[-43.99084,-19.9755],[-43.99081,-19.97539]],[[-43.99099,-19.97682],[-43.99121,-19.97663],[-43.99187,-19.97653],[-43.99099,-19.97682]],[[-43.99141,-19.86672],[-43.99107,-19.86677],[-43.99262,-19.86643],[-43.99141,-19.86672]],[[-43.99302,-19.93082],[-43.99314,-19.93093],[-43.99138,-19.93018],[-43.99302,-19.93082]],[[-43.99138,-19.93018],[-43.994,-19.93381],[-43.99118,-19.92999],[-43.99138,-19.93018]],[[-43.99121,-19.99286],[-43.99123,-19.99296],[-43.99121,-19.99296],[-43.99121,-19.99286]],[[-43.9923,-19.9731],[-43.99177,-19.97271],[-43.99206,-19.97281],[-43.9923,-19.9731]],[[-43.9923,-19.9731],[-43.99212,-19.9734],[-43.99143,-19.97407],[-43.9923,-19.9731]],[[-43.99175,-19.81856],[-43.99158,-19.8186],[-43.99204,-19.81817],[-43.99175,-19.81856]],[[-43.99624,-19.83079],[-43.99174,-19.8303],[-43.99706,-19.83085],[-43.99624,-19.83079]],[[-43.99183,-19.89623],[-43.99304,-19.89392],[-43.99185,-19.89632],[-43.99183,-19.89623]],[[-43.99229,-19.87668],[-43.99234,-19.87612],[-43.99271,-19.88048],[-43.99229,-19.87668]],[[-43.99295,-19.84222],[-43.99278,-19.84252],[-43.99233,-19.84298],[-43.99295,-19.84222]],[[-43.99238,-19.8756],[-43.99309,-19.87421],[-43.99236,-19.87587],[-43.99238,-19.8756]],[[-43.99238,-19.89949],[-43.99244,-19.8994],[-43.99275,-19.89953],[-43.99238,-19.89949]],[[-43.99384,-19.93174],[-43.99351,-19.93125],[-43.99271,-19.92978],[-43.99384,-19.93174]],[[-43.99632,-19.96663],[-43.99273,-19.96935],[-43.99684,-19.96612],[-43.99632,-19.96663]],[[-43.99467,-19.85412],[-43.99467,-19.85421],[-43.99279,-19.85262],[-43.99467,-19.85412]],[[-43.99284,-19.82042],[-43.99301,-19.81973],[-43.99317,-19.81957],[-43.99284,-19.82042]],[[-43.9934,-19.90897],[-43.99362,-19.90929],[-43.99292,-19.90864],[-43.9934,-19.90897]],[[-43.99307,-19.81047],[-43.99292,-19.81007],[-43.99315,-19.81026],[-43.99307,-19.81047]],[[-43.99307,-19.95544],[-43.99627,-19.95774],[-43.99614,-19.95772],[-43.99307,-19.95544]],[[-43.99322,-19.84011],[-43.99319,-19.84182],[-43.99316,-19.84188],[-43.99322,-19.84011]],[[-43.99369,-19.86732],[-43.99347,-19.86696],[-43.99335,-19.86655],[-43.99369,-19.86732]],[[-43.99413,-19.82157],[-43.99339,-19.82146],[-43.99407,-19.82154],[-43.99413,-19.82157]],[[-43.99373,-19.81811],[-43.99352,-19.81823],[-43.99408,-19.81743],[-43.99373,-19.81811]],[[-43.99357,-19.99633],[-43.99516,-19.99537],[-43.99523,-19.99549],[-43.99357,-19.99633]],[[-43.99435,-19.91127],[-43.99412,-19.91004],[-43.99423,-19.9102],[-43.99435,-19.91127]],[[-43.99435,-19.91127],[-43.99364,-19.91373],[-43.99415,-19.91196],[-43.99435,-19.91127]],[[-43.99364,-19.91373],[-43.99414,-19.91496],[-43.9939,-19.91468],[-43.99364,-19.91373]],[[-44.00006,-19.8995],[-43.99978,-19.9016],[-43.99971,-19.90167],[-44.00006,-19.8995]],[[-44.00006,-19.8995],[-43.99372,-19.90106],[-44.00178,-19.89899],[-44.00006,-19.8995]],[[-43.99433,-19.83825],[-43.99447,-19.83825],[-43.99393,-19.83854],[-43.99433,-19.83825]],[[-43.99437,-19.80888],[-43.99445,-19.80894],[-43.99409,-19.80873],[-43.99437,-19.80888]],[[-43.99425,-19.93451],[-43.99409,-19.93396],[-43.9941,-19.93398],[-43.99425,-19.93451]],[[-43.99432,-19.84078],[-43.9949,-19.83856],[-43.99493,-19.83862],[-43.99432,-19.84078]],[[-43.99441,-19.92034],[-43.99443,-19.92039],[-43.99439,-19.92055],[-43.99441,-19.92034]],[[-43.99442,-19.82173],[-43.99462,-19.82183],[-43.99461,-19.82193],[-43.99442,-19.82173]],[[-43.99464,-19.81964],[-43.99455,-19.81973],[-43.99457,-19.81967],[-43.99464,-19.81964]],[[-43.99458,-19.83826],[-43.99474,-19.83826],[-43.99482,-19.8384],[-43.99458,-19.83826]],[[-43.99464,-19.93586],[-43.99461,-19.93573],[-43.99465,-19.93587],[-43.99464,-19.93586]],[[-43.99489,-19.84611],[-43.99486,-19.84602],[-43.99535,-19.84643],[-43.99489,-19.84611]],[[-43.99488,-19.97334],[-43.99513,-19.97305],[-43.99516,-19.97312],[-43.99488,-19.97334]],[[-43.99553,-19.92801],[-43.99512,-19.92826],[-43.99596,-19.92751],[-43.99553,-19.92801]],[[-43.99524,-19.98176],[-43.99546,-19.98157],[-43.99514,-19.98216],[-43.99524,-19.98176]],[[-43.99559,-19.81462],[-43.99529,-19.81379],[-43.99552,-19.81424],[-43.99559,-19.81462]],[[-43.99541,-19.99524],[-43.99691,-19.99463],[-43.99548,-19.99536],[-43.99541,-19.99524]],[[-43.99566,-19.81516],[-43.99573,-19.81512],[-43.99543,-19.8157],[-43.99566,-19.81516]],[[-43.99696,-19.93754],[-43.9957,-19.93711],[-43.99567,-19.93707],[-43.99696,-19.93754]],[[-43.99584,-19.92426],[-43.99602,-19.92378],[-43.99604,-19.92386],[-43.99584,-19.92426]],[[-43.99588,-19.95341],[-43.99857,-19.95195],[-43.9992,-19.95096],[-43.9987,-19.95195],[-43.99588,-19.95341]],[[-43.99589,-19.94379],[-43.99693,-19.94357],[-43.99667,-19.94377],[-43.99589,-19.94379]],[[-43.99898,-19.86697],[-43.99903,-19.86723],[-43.99836,-19.86595],[-43.99898,-19.86697]],[[-43.99836,-19.86595],[-43.99602,-19.86745],[-43.99631,-19.86708],[-43.99836,-19.86595]],[[-43.99639,-19.8147],[-43.99651,-19.81462],[-43.9984,-19.81397],[-43.99639,-19.8147]],[[-43.99767,-19.94182],[-43.99848,-19.94215],[-43.9964,-19.94143],[-43.99767,-19.94182]],[[-43.9964,-19.94143],[-43.99654,-19.94041],[-43.99661,-19.94043],[-43.9964,-19.94143]],[[-43.9997,-19.92002],[-43.99988,-19.92016],[-43.99653,-19.91756],[-43.9997,-19.92002]],[[-43.99668,-19.95783],[-43.99729,-19.95791],[-43.99714,-19.95793],[-43.99668,-19.95783]],[[-43.99699,-19.94352],[-43.99674,-19.94302],[-43.99703,-19.9435],[-43.99699,-19.94352]],[[-43.99729,-19.96567],[-43.99892,-19.96312],[-43.99765,-19.96531],[-43.99729,-19.96567]],[[-43.99756,-19.9415],[-43.99756,-19.94088],[-43.9978,-19.94157],[-43.99756,-19.9415]],[[-43.99763,-19.95787],[-43.99836,-19.95757],[-43.99814,-19.95779],[-43.99763,-19.95787]],[[-43.99782,-19.9389],[-43.99811,-19.93897],[-43.99777,-19.93902],[-43.99782,-19.9389]],[[-43.99987,-19.89099],[-43.99874,-19.89152],[-43.99809,-19.89175],[-43.99987,-19.89099]],[[-43.99812,-19.85404],[-43.9982,-19.85379],[-43.99857,-19.85699],[-43.99812,-19.85404]],[[-43.99828,-19.97486],[-43.99834,-19.97482],[-43.99855,-19.97494],[-43.99828,-19.97486]],[[-43.99862,-19.85252],[-43.99875,-19.85239],[-43.99834,-19.85336],[-43.99862,-19.85252]],[[-43.99842,-19.90906],[-43.99842,-19.90893],[-43.99862,-19.90849],[-43.99842,-19.90906]],[[-43.9989,-19.99669],[-43.99862,-19.99667],[-43.99873,-19.99662],[-43.9989,-19.99669]],[[-44.00231,-19.85238],[-44.00235,-19.85243],[-43.9998,-19.85199],[-44.00231,-19.85238]],[[-43.9998,-19.85199],[-43.99888,-19.85226],[-43.99905,-19.85208],[-43.9998,-19.85199]],[[-44.0019,-19.84008],[-44.00218,-19.83988],[-44.00164,-19.84085],[-44.00238,-19.84207],[-44.00163,-19.84101],[-44.00061,-19.84387],[-44.0019,-19.84008]],[[-44.00061,-19.84387],[-43.99945,-19.84592],[-43.99963,-19.84553],[-44.00061,-19.84387]],[[-43.99963,-19.84553],[-43.99912,-19.84533],[-43.9992,-19.84529],[-43.99963,-19.84553]],[[-43.99957,-19.90642],[-43.99918,-19.90724],[-43.99952,-19.90649],[-43.99957,-19.90642]],[[-43.9992,-19.86889],[-43.9992,-19.86811],[-43.99924,-19.86832],[-43.9992,-19.86889]],[[-44.005,-19.97754],[-44.0051,-19.97772],[-43.99976,-19.97135],[-44.005,-19.97754]],[[-44.00072137018295,-19.813816664071624],[-44.00077,-19.81387],[-44.00094,-19.81488],[-44.00072137018295,-19.813816664071624]],[[-44.00283,-19.90418],[-44.00039,-19.9053],[-44.00298,-19.90404],[-44.00283,-19.90418]],[[-44.00042,-19.83177],[-44.00043,-19.8308],[-44.00056,-19.83189],[-44.00042,-19.83177]],[[-44.00047,-19.93885],[-44.00064,-19.93863],[-44.00048,-19.93888],[-44.00047,-19.93885]],[[-44.00069,-19.94018],[-44.00089,-19.9403],[-44.00102,-19.94076],[-44.00069,-19.94018]],[[-44.00118,-19.93932],[-44.0012,-19.93935],[-44.00087,-19.93944],[-44.00118,-19.93932]],[[-44.00199,-19.94211],[-44.00202,-19.94253],[-44.00105,-19.94081],[-44.00199,-19.94211]],[[-44.00695,-19.99632],[-44.00127,-19.99402],[-44.00614,-19.99585],[-44.00695,-19.99632]],[[-44.00695,-19.99632],[-44.01313,-19.99825],[-44.00657,-19.99636],[-44.00695,-19.99632]],[[-44.00153,-19.92094],[-44.00149,-19.91871],[-44.00165,-19.92205],[-44.00153,-19.92094]],[[-44.00185,-19.91103],[-44.00188,-19.91092],[-44.0019,-19.91112],[-44.00185,-19.91103]],[[-44.00206,-19.94295],[-44.00195,-19.94307],[-44.00205,-19.94287],[-44.00206,-19.94295]],[[-44.0032,-19.94925],[-44.00224,-19.94995],[-44.00223,-19.94991],[-44.0032,-19.94925]],[[-44.00237,-19.83973],[-44.0025,-19.83964],[-44.00347,-19.83982],[-44.00237,-19.83973]],[[-44.00269,-19.99946],[-44.00275,-19.99944],[-44.00253,-19.99988],[-44.00269,-19.99946]],[[-44.00301,-20.00606],[-44.00329,-20.0059],[-44.00303,-20.00693],[-44.00301,-20.00606]],[[-44.00303,-19.84256],[-44.00972,-19.84149],[-44.00309,-19.84261],[-44.00303,-19.84256]],[[-44.00372,-19.94399],[-44.00305,-19.94391],[-44.00416,-19.9437],[-44.00372,-19.94399]],[[-44.00378,-20.00976],[-44.00313,-20.00929],[-44.00374,-20.00961],[-44.00378,-20.00976]],[[-44.00314,-19.90388],[-44.00595,-19.89822],[-44.00324,-19.90378],[-44.00314,-19.90388]],[[-44.00349,-19.95332],[-44.00329,-19.95329],[-44.00328,-19.95325],[-44.00349,-19.95332]],[[-44.00357,-19.95257],[-44.0038,-19.95202],[-44.00363,-19.95271],[-44.00357,-19.95257]],[[-44.00367,-19.85413],[-44.00401,-19.85433],[-44.00374,-19.85422],[-44.00367,-19.85413]],[[-44.00381,-19.99912],[-44.00385,-19.99911],[-44.00535,-19.99933],[-44.00381,-19.99912]],[[-44.00539,-19.87847],[-44.00386,-19.87632],[-44.00533,-19.87833],[-44.00539,-19.87847]],[[-44.0056,-19.91723],[-44.00519,-19.91682],[-44.00397,-19.91554],[-44.0056,-19.91723]],[[-44.00421,-19.92467],[-44.00406,-19.92458],[-44.00415,-19.92459],[-44.00421,-19.92467]],[[-44.00471,-19.92378],[-44.00406,-19.92324],[-44.00457,-19.92362],[-44.00471,-19.92378]],[[-44.00474,-19.94973],[-44.00503,-19.95051],[-44.00536,-19.95199],[-44.00474,-19.94973]],[[-44.00474,-19.94973],[-44.00419,-19.95047],[-44.00418,-19.95044],[-44.00474,-19.94973]],[[-44.0044,-20.01021],[-44.00424,-20.01009],[-44.00808,-20.01205],[-44.0044,-20.01021]],[[-44.00494,-19.92569],[-44.00487,-19.92573],[-44.00462,-19.92525],[-44.00494,-19.92569]],[[-44.00465,-19.85458],[-44.00506,-19.85466],[-44.00493,-19.85469],[-44.00465,-19.85458]],[[-44.0049,-19.8377],[-44.00478,-19.83287],[-44.00479,-19.83283],[-44.0049,-19.8377]],[[-44.00528,-19.92444],[-44.00546,-19.92487],[-44.00491,-19.92401],[-44.00528,-19.92444]],[[-44.00496,-19.97767],[-44.0051,-19.97773],[-44.00543,-19.97837],[-44.00496,-19.97767]],[[-44.00502,-19.99793],[-44.00519,-19.9981],[-44.00498,-19.99796],[-44.00502,-19.99793]],[[-44.00514,-19.954],[-44.00518,-19.95398],[-44.00513,-19.95449],[-44.00514,-19.954]],[[-44.00754,-19.86593],[-44.00528,-19.86507],[-44.00726,-19.86573],[-44.00754,-19.86593]],[[-44.00705,-19.95295],[-44.0054,-19.95383],[-44.00556,-19.95373],[-44.00705,-19.95295]],[[-44.00548,-19.9983],[-44.0064,-19.99763],[-44.00551,-19.99832],[-44.00548,-19.9983]],[[-44.00551,-19.85451],[-44.00575,-19.85436],[-44.0057,-19.85446],[-44.00551,-19.85451]],[[-44.0072,-19.91897],[-44.00722,-19.91903],[-44.00675,-19.91902],[-44.0072,-19.91897]],[[-44.00675,-19.91902],[-44.00578,-19.92077],[-44.00614,-19.92011],[-44.00675,-19.91902]],[[-44.00612,-19.99641],[-44.00624,-19.9964],[-44.00582,-19.99724],[-44.00612,-19.99641]],[[-44.006,-19.88329],[-44.00592,-19.88292],[-44.00587,-19.87956],[-44.006,-19.88329]],[[-44.0059,-19.9793],[-44.00604,-19.97958],[-44.0061,-19.97988],[-44.0059,-19.9793]],[[-44.006,-19.98196],[-44.00661,-19.98228],[-44.00857,-19.98338],[-44.006,-19.98196]],[[-44.00606,-19.91283],[-44.00618,-19.91235],[-44.00629,-19.91221],[-44.00606,-19.91283]],[[-44.00643,-19.88544],[-44.00783,-19.89244],[-44.00613,-19.88395],[-44.00643,-19.88544]],[[-44.00649,-19.91794],[-44.00644,-19.91785],[-44.00685,-19.91757],[-44.00649,-19.91794]],[[-44.00997,-19.91737],[-44.00964,-19.91722],[-44.00906,-19.91627],[-44.00997,-19.91737]],[[-44.00906,-19.91627],[-44.00746,-19.91237],[-44.00719,-19.91162],[-44.00906,-19.91627]],[[-44.00719,-19.91162],[-44.00703,-19.91131],[-44.00769,-19.91159],[-44.00719,-19.91162]],[[-44.01106,-19.93319],[-44.01052,-19.93323],[-44.00743,-19.93277],[-44.01106,-19.93319]],[[-44.00743,-19.93277],[-44.00785,-19.94305],[-44.00784,-19.94289],[-44.00743,-19.93277]],[[-44.00867,-19.8571],[-44.00794,-19.85681],[-44.00786,-19.85676],[-44.00867,-19.8571]],[[-44.00871,-19.98704],[-44.00967,-19.9836],[-44.01031,-19.98179],[-44.00871,-19.98704]],[[-44.0095,-19.92078],[-44.00895,-19.91995],[-44.00954,-19.92078],[-44.0095,-19.92078]],[[-44.00987,-19.92206],[-44.00988,-19.92225],[-44.00934,-19.92141],[-44.00987,-19.92206]],[[-44.00993,-19.85746],[-44.00966,-19.8575],[-44.00957,-19.85746],[-44.00993,-19.85746]],[[-44.01343,-19.91906],[-44.01311,-19.9204],[-44.01335,-19.91886],[-44.01343,-19.91906]],[[-44.01335,-19.91886],[-44.01028,-19.91795],[-44.00994,-19.91768],[-44.01335,-19.91886]],[[-44.01042,-19.92386],[-44.01,-19.92243],[-44.00996,-19.922],[-44.01042,-19.92386]],[[-44.01145,-19.86669],[-44.01132,-19.86668],[-44.00997,-19.86563],[-44.01145,-19.86669]],[[-44.0103,-19.92433],[-44.01025,-19.92453],[-44.01007,-19.92464],[-44.0103,-19.92433]],[[-44.01064,-19.88257],[-44.0103,-19.88251],[-44.01047,-19.88247],[-44.01064,-19.88257]],[[-44.01512,-20.01419],[-44.0106,-20.01376],[-44.01471,-20.0141],[-44.01512,-20.01419]],[[-44.01184,-19.88551],[-44.01123,-19.88288],[-44.01149,-19.88393],[-44.01184,-19.88551]],[[-44.01297,-19.97444],[-44.01135,-19.97886],[-44.01287,-19.97458],[-44.01297,-19.97444]],[[-44.01213,-19.93296],[-44.01182,-19.93313],[-44.01153,-19.93315],[-44.01213,-19.93296]],[[-44.01178,-20.00829],[-44.01209,-20.00779],[-44.01158,-20.00863],[-44.01178,-20.00829]],[[-44.01175,-19.86964],[-44.01179,-19.86986],[-44.01167,-19.86951],[-44.01175,-19.86964]],[[-44.01238,-19.87462],[-44.01356,-19.87292],[-44.01252,-19.87194],[-44.0139,-19.87303],[-44.01362,-19.87286],[-44.01238,-19.87462]],[[-44.01392,-19.86685],[-44.01373,-19.86688],[-44.01289,-19.86681],[-44.01392,-19.86685]],[[-44.01317,-19.99237],[-44.01658,-19.9945],[-44.01639,-19.99443],[-44.01317,-19.99237]],[[-44.01417,-19.97296],[-44.01339,-19.97384],[-44.01372,-19.97337],[-44.01417,-19.97296]],[[-44.01419,-20.00484],[-44.01364,-20.0053],[-44.0137,-20.00519],[-44.01419,-20.00484]],[[-44.01384,-20.00798],[-44.01412,-20.00796],[-44.01367,-20.00819],[-44.01384,-20.00798]],[[-44.01475,-20.00761],[-44.01444,-20.00778],[-44.01585,-20.00669],[-44.01475,-20.00761]],[[-44.01589,-19.93129],[-44.01471,-19.93156],[-44.01553,-19.93129],[-44.01589,-19.93129]],[[-44.01541,-19.97135],[-44.01542,-19.97156],[-44.01521,-19.97181],[-44.01541,-19.97135]],[[-44.01529,-19.98229],[-44.01737,-19.98271],[-44.01586,-19.98242],[-44.01529,-19.98229]],[[-44.01536,-19.86818],[-44.01537,-19.86717],[-44.01542,-19.86799],[-44.01536,-19.86818]],[[-44.01537,-20.00399],[-44.01573,-20.00374],[-44.01897,-20.00206],[-44.01761,-20.00277],[-44.01537,-20.00399]],[[-44.01784,-20.01502],[-44.01615,-20.01441],[-44.01638,-20.01446],[-44.01784,-20.01502]],[[-44.0173,-19.93144],[-44.01663,-19.9313],[-44.01702,-19.9313],[-44.0173,-19.93144]],[[-44.0167,-19.99455],[-44.01834,-19.98831],[-44.01829,-19.98922],[-44.0167,-19.99455]],[[-44.01673,-19.99456],[-44.01715,-19.99438],[-44.01681,-19.99459],[-44.01673,-19.99456]],[[-44.01685,-19.93609],[-44.01712,-19.93575],[-44.01695,-19.93615],[-44.01685,-19.93609]],[[-44.01877,-19.86324],[-44.01867,-19.86354],[-44.01706,-19.86489],[-44.01877,-19.86324]],[[-44.01714,-19.93539],[-44.01725,-19.93545],[-44.0172,-19.93558],[-44.01714,-19.93539]],[[-44.01795,-19.99724],[-44.01759,-19.99419],[-44.01763,-19.99417],[-44.01795,-19.99724]],[[-44.0179,-19.8994],[-44.01846,-19.90091],[-44.01836,-19.90078],[-44.0179,-19.8994]],[[-44.02074,-20.00718],[-44.01834,-20.00728],[-44.0209,-20.007],[-44.02067,-20.00762],[-44.02074,-20.00718]],[[-44.02126,-20.00423],[-44.0225,-20.00346],[-44.01975,-20.00536],[-44.02126,-20.00423]],[[-44.01975,-20.00536],[-44.01975,-20.00564],[-44.01933,-20.00609],[-44.01975,-20.00536]],[[-44.01933,-20.00609],[-44.01881,-20.00613],[-44.01873,-20.00612],[-44.01933,-20.00609]],[[-44.01887,-19.94523],[-44.01885,-19.94523],[-44.02301,-19.94363],[-44.01887,-19.94523]],[[-44.02113,-20.01628],[-44.02156,-20.0165],[-44.01964,-20.01571],[-44.02113,-20.01628]],[[-44.01972,-20.00675],[-44.01976,-20.00592],[-44.01979,-20.00683],[-44.01972,-20.00675]],[[-44.02157,-20.0157],[-44.02094,-20.01477],[-44.02125,-20.0156],[-44.02029,-20.01359],[-44.02157,-20.0157]],[[-44.0208,-20.01041],[-44.0208,-20.0105],[-44.02042,-20.01013],[-44.0208,-20.01041]],[[-44.0222,-20.01009],[-44.02102,-20.01072],[-44.02069,-20.01133],[-44.02081,-20.01066],[-44.0222,-20.01009]],[[-44.02143,-20.00709],[-44.02094,-20.00699],[-44.02113,-20.00695],[-44.02143,-20.00709]],[[-44.02736,-19.99388],[-44.03319,-19.99389],[-44.02768,-19.99396],[-44.02097,-19.99258],[-44.02736,-19.99388]],[[-44.02167,-20.00707],[-44.02159,-20.00712],[-44.02156,-20.00711],[-44.02167,-20.00707]],[[-44.02201,-19.98337],[-44.02211,-19.98316],[-44.02222,-19.98413],[-44.02201,-19.98337]],[[-44.02851,-19.99814],[-44.02278,-20.0064],[-44.02257,-20.00653],[-44.02851,-19.99814]],[[-44.02354,-19.91488],[-44.02387,-19.91606],[-44.0238,-19.91599],[-44.02354,-19.91488]],[[-44.02432,-19.98386],[-44.02401,-19.98368],[-44.02609,-19.98423],[-44.02432,-19.98386]],[[-44.02446,-19.91659],[-44.02464,-19.91723],[-44.02446,-19.91696],[-44.02446,-19.91659]],[[-44.02632,-20.01373],[-44.02453,-20.01327],[-44.02471,-20.01326],[-44.02632,-20.01373]],[[-44.02485,-19.91754],[-44.02543,-19.91764],[-44.02495,-19.91769],[-44.02485,-19.91754]],[[-44.0261,-19.99709],[-44.02627,-19.99581],[-44.02639,-19.99571],[-44.0261,-19.99709]],[[-44.02613,-20.01344],[-44.02632,-20.01323],[-44.0261,-20.01364],[-44.02613,-20.01344]],[[-44.0262,-20.01207],[-44.02748,-20.01203],[-44.02741,-20.01209],[-44.0262,-20.01207]],[[-44.03019,-19.97872],[-44.03021,-19.97873],[-44.02874,-19.98026],[-44.03019,-19.97872]],[[-44.02874,-19.98026],[-44.03222,-19.98333],[-44.02774,-19.97939],[-44.02638,-19.97816],[-44.02874,-19.98026]],[[-44.02762,-20.01187],[-44.02763,-20.01191],[-44.0276,-20.01193],[-44.02762,-20.01187]],[[-44.02846,-19.97608],[-44.02843,-19.97608],[-44.02844,-19.97603],[-44.02846,-19.97608]],[[-44.03057,-20.01799],[-44.03133,-20.01761],[-44.02891,-20.01956],[-44.03057,-20.01799]],[[-44.02951,-19.99806],[-44.02948,-19.99803],[-44.02951,-19.99797],[-44.02951,-19.99806]],[[-44.03325,-20.01123],[-44.0297,-20.01085],[-44.03002,-20.01088],[-44.03325,-20.01123]],[[-44.03024,-19.97656],[-44.02974,-19.97635],[-44.03008,-19.97642],[-44.03024,-19.97656]],[[-44.03017,-20.00606],[-44.03054,-20.00617],[-44.03053,-20.00621],[-44.03017,-20.00606]],[[-44.03017,-20.00606],[-44.02993,-20.00658],[-44.03017,-20.00603],[-44.03017,-20.00606]],[[-44.03094,-19.97739],[-44.0305,-19.97681],[-44.0308,-19.97708],[-44.03094,-19.97739]],[[-44.03061,-19.97826],[-44.0311,-19.97774],[-44.03111,-19.97776],[-44.03061,-19.97826]],[[-44.03219,-20.00029],[-44.0315,-20.00035],[-44.03082,-20.0003],[-44.03219,-20.00029]],[[-44.03102,-20.00591],[-44.03193,-20.00611],[-44.03202,-20.00624],[-44.03102,-20.00591]],[[-44.03463,-19.98325],[-44.03508,-19.9836],[-44.03503,-19.98391],[-44.03463,-19.98325]],[[-44.03602,-20.01494],[-44.03603,-20.01497],[-44.03559,-20.01512],[-44.03602,-20.01494]],[[-44.03788,-20.00302],[-44.03567,-20.00273],[-44.03936,-20.00315],[-44.03788,-20.00302]],[[-44.03579,-20.00104],[-44.0359,-19.99835],[-44.03598,-19.99857],[-44.03579,-20.00104]],[[-44.04149,-20.00367],[-44.04104,-20.00377],[-44.04078,-20.00367],[-44.04149,-20.00367]],[[-44.04139,-20.00456],[-44.0414,-20.00456],[-44.0438,-20.00483],[-44.04139,-20.00456]],[[-44.04193,-19.98152],[-44.04149,-19.98157],[-44.04179,-19.9815],[-44.04193,-19.98152]],[[-44.04316,-20.00144],[-44.04302,-20.00123],[-44.04313,-20.00135],[-44.04316,-20.00144]],[[-44.04509,-19.98301],[-44.04497,-19.98299],[-44.04488,-19.98293],[-44.04509,-19.98301]],[[-44.04588,-19.99261],[-44.04584,-19.99204],[-44.04586,-19.99201],[-44.04588,-19.99261]],[[-44.04594,-19.99354],[-44.04663,-19.99488],[-44.04595,-19.99367],[-44.04594,-19.99354]],[[-44.04649,-19.98319],[-44.04646,-19.98318],[-44.04811,-19.98267],[-44.04649,-19.98319]],[[-44.04685,-19.98985],[-44.0468,-19.98968],[-44.04685,-19.98974],[-44.04685,-19.98985]],[[-44.04682,-19.99075],[-44.04686,-19.99053],[-44.04686,-19.9907],[-44.04682,-19.99075]],[[-44.05116,-19.99724],[-44.0506,-19.99699],[-44.05139,-19.99718],[-44.05116,-19.99724]],[[-44.05091,-19.98391],[-44.05104,-19.984],[-44.05107,-19.98405],[-44.05091,-19.98391]],[[-44.05332,-19.98867],[-44.05315,-19.98786],[-44.05322,-19.98782],[-44.05332,-19.98867]],[[-44.05322,-19.98782],[-44.05135,-19.98453],[-44.05279,-19.98699],[-44.05322,-19.98782]],[[-44.05208,-19.99637],[-44.05192,-19.99703],[-44.05191,-19.99703],[-44.05166,-19.9966],[-44.05208,-19.99637]],[[-44.05166,-19.9966],[-44.05157,-19.99612],[-44.05173,-19.99527],[-44.05166,-19.9966]],[[-44.05183,-19.99346],[-44.05179,-19.99412],[-44.05176,-19.99411],[-44.05183,-19.99346]]]}}]}