{"type":"FeatureCollection","features":[{"type":"Feature","properties":{"municipio":"BETIM"},"geometry":{"type":"Polygon","coordinates":[[[-44.24286,-20.04945],[-44.24542,-20.04692],[-44.24765,-20.04153],[-44.24969,-20.04212],[-44.25109,-20.04474],[-44.25295,-20.04591],[-44.25461,-20.04563],[-44.25515,-20.04508],[-44.25577,-20.04156],[-44.25693,-20.03803],[-44.25966,-20.03549],[-44.26288,-20.03453],[-44.26379,-20.03386],[-44.26361,-20.03214],[-44.26202,-20.02846],[-44.25876,-20.02646],[-44.25611,-20.02655],[-44.25475,-20.02593],[-44.25443,-20.02498],[-44.25468,-20.02405],[-44.25798,-20.0209],[-44.25845,-20.0199],[-44.25803,-20.01891],[-44.25323,-20.01732],[-44.25287,-20.0167],[-44.25315,-20.01412],[-44.25407,-20.01178],[-44.25634,-20.00914],[-44.25766,-20.00822],[-44.25885,-20.00615],[-44.25863,-20.00514],[-44.25741,-20.00381],[-44.25858,-20.00279],[-44.26528,-19.99999],[-44.26648,-20.00089],[-44.26731,-20.00398],[-44.26797,-20.00423],[-44.27032,-20.00392],[-44.27119,-20.00124],[-44.27155,-19.99841],[-44.27127,-19.99731],[-44.27015,-19.99575],[-44.27184,-19.98923],[-44.27323,-19.98684],[-44.27506,-19.98233],[-44.27497,-19.98163],[-44.27414,-19.9807],[-44.27218,-19.98042],[-44.27203,-19.97981],[-44.27339,-19.97791],[-44.27655,-19.97483],[-44.27698,-19.97385],[-44.27689,-19.9729],[-44.27464,-19.97345],[-44.27607,-19.97304],[-44.27631,-19.97067],[-44.27929,-19.96727],[-44.28113,-19.96188],[-44.28308,-19.96043],[-44.28716,-19.95972],[-44.29073,-19.96255],[-44.29181,-19.96262],[-44.293,-19.96216],[-44.29516,-19.95921],[-44.2958,-19.95939],[-44.29669,-19.95526],[-44.29749,-19.95398],[-44.29996,-19.95242],[-44.3007,-19.95008],[-44.30491,-19.94874],[-44.30813,-19.94662],[-44.31048,-19.94447],[-44.31342,-19.94466],[-44.314,-19.94367],[-44.31531,-19.93897],[-44.31579,-19.93838],[-44.31649,-19.93833],[-44.31485,-19.93755],[-44.31502,-19.93676],[-44.31144,-19.9339],[-44.31036,-19.93364],[-44.30787,-19.93424],[-44.30579,-19.93358],[-44.30486,-19.93203],[-44.3045,-19.93049],[-44.3067,-19.92817],[-44.30662,-19.926],[-44.30692,-19.92552],[-44.31015,-19.92644],[-44.31239,-19.92559],[-44.31491,-19.9224],[-44.31554,-19.91975],[-44.31734,-19.91798],[-44.31734,-19.91738],[-44.31621,-19.9166],[-44.31599,-19.9159],[-44.31614,-19.91153],[-44.31561,-19.90695],[-44.31514,-19.90651],[-44.31258,-19.90638],[-44.30934,-19.90743],[-44.30288,-19.91044],[-44.30015,-19.91059],[-44.29929,-19.91022],[-44.29857,-19.90678],[-44.29909,-19.90573],[-44.29765,-19.90538],[-44.29589,-19.90363],[-44.29362,-19.89891],[-44.29363,-19.8976],[-44.29517,-19.89415],[-44.29409,-19.89457],[-44.29178,-19.89433],[-44.28757,-19.89227],[-44.28428,-19.89279],[-44.28207,-19.89057],[-44.28183,-19.88942],[-44.28047,-19.8877],[-44.27972,-19.88557],[-44.27906,-19.88501],[-44.27516,-19.88451],[-44.27123,-19.88646],[-44.26994,-19.88436],[-44.26769,-19.88381],[-44.26717,-19.88101],[-44.26728,-19.87947],[-44.26673,-19.87939],[-44.26444,-19.88059],[-44.26134,-19.88037],[-44.26008,-19.88184],[-44.25866,-19.88228],[-44.25792,-19.88364],[-44.25688,-19.8841],[-44.25496,-19.88422],[-44.25383,-19.88385],[-44.25086,-19.88399],[-44.24894,-19.88368],[-44.24846,-19.88316],[-44.24858,-19.88188],[-44.24814,-19.88124],[-44.24705,-19.88123],[-44.24565,-19.88202],[-44.24477,-19.88208],[-44.24371,-19.88155],[-44.24232,-19.87995],[-44.24076,-19.87932],[-44.23755,-19.87983],[-44.23671,-19.87953],[-44.2363,-19.87903],[-44.23609,-19.87498],[-44.23523,-19.87297],[-44.23352,-19.87146],[-44.23188,-19.86923],[-44.23086,-19.86532],[-44.23115,-19.86005],[-44.23178,-19.85829],[-44.23305,-19.85726],[-44.23281,-19.8568],[-44.23178,-19.85625],[-44.23057,-19.85639],[-44.22891,-19.85594],[-44.22693,-19.85363],[-44.22605,-19.85474],[-44.22434,-19.85405],[-44.22436,-19.85375],[-44.22321,-19.85373],[-44.22187,-19.85258],[-44.22203,-19.85014],[-44.22332,-19.84757],[-44.22383,-19.84534],[-44.22478,-19.84398],[-44.22653,-19.84264],[-44.22655,-19.84108],[-44.2249,-19.83789],[-44.22483,-19.83652],[-44.2243,-19.83605],[-44.21983,-19.83382],[-44.21688,-19.83305],[-44.21444,-19.83188],[-44.21091,-19.83236],[-44.2089,-19.83303],[-44.20787,-19.83441],[-44.20358,-19.83457],[-44.20224,-19.83516],[-44.19347,-19.84159],[-44.19085,-19.83957],[-44.19016,-19.83946],[-44.18621,-19.83466],[-44.18604,-19.83384],[-44.18655,-19.83351],[-44.18612,-19.83332],[-44.18529,-19.83417],[-44.18432,-19.83447],[-44.18228,-19.83192],[-44.18171,-19.83175],[-44.17873,-19.83411],[-44.17511,-19.83498],[-44.17135,-19.83721],[-44.1709,-19.83836],[-44.171,-19.83979],[-44.1701,-19.84202],[-44.17012,-19.84314],[-44.16961,-19.843],[-44.16987,-19.84542],[-44.16966,-19.84638],[-44.16912,-19.84692],[-44.16713,-19.84669],[-44.16623,-19.84516],[-44.16435,-19.84442],[-44.16295,-19.84243],[-44.16149,-19.84243],[-44.16048,-19.84336],[-44.15865,-19.8439],[-44.15813,-19.84593],[-44.15663,-19.84809],[-44.15375,-19.84932],[-44.15288,-19.85031],[-44.15315,-19.85127],[-44.15251,-19.85283],[-44.15174,-19.85279],[-44.15156,-19.85389],[-44.15091,-19.85397],[-44.15015,-19.85512],[-44.14937,-19.85518],[-44.14985,-19.85581],[-44.14968,-19.85716],[-44.15005,-19.85737],[-44.1497,-19.85744],[-44.14971,-19.85784],[-44.15083,-19.86037],[-44.15032,-19.86156],[-44.15057,-19.86275],[-44.1516,-19.86367],[-44.15124,-19.86572],[-44.15152,-19.86638],[-44.1532,-19.86725],[-44.15281,-19.86918],[-44.15363,-19.87107],[-44.15434,-19.87454],[-44.15376,-19.87988],[-44.15475,-19.8815],[-44.1556,-19.88143],[-44.15555,-19.88299],[-44.15486,-19.88369],[-44.15537,-19.88633],[-44.1567,-19.88791],[-44.15687,-19.88788],[-44.15742,-19.88771],[-44.1584,-19.88848],[-44.15834,-19.88992],[-44.15698,-19.89326],[-44.15657,-19.89767],[-44.15511,-19.90082],[-44.1549,-19.90547],[-44.1562,-19.90881],[-44.15609,-19.91054],[-44.15289,-19.91422],[-44.15175,-19.9174],[-44.15076,-19.91876],[-44.15094,-19.92087],[-44.14766,-19.92132],[-44.14435,-19.92424],[-44.14315,-19.92484],[-44.14134,-19.92457],[-44.13994,-19.92357],[-44.13748,-19.92648],[-44.14205,-19.92642],[-44.13167,-19.92661],[-44.13268,-19.9271],[-44.13138,-19.92657],[-44.12935,-19.92671],[-44.12948,-19.92746],[-44.12733,-19.92678],[-44.12734,-19.92755],[-44.12505,-19.9329],[-44.12436,-19.93266],[-44.12384,-19.93406],[-44.12182,-19.93555],[-44.12052,-19.93482],[-44.11421,-19.93591],[-44.11267,-19.93561],[-44.10976,-19.93154],[-44.10922,-19.93139],[-44.10867,-19.92839],[-44.10746,-19.92732],[-44.10628,-19.92735],[-44.10289,-19.92898],[-44.0962,-19.92994],[-44.09454,-19.93186],[-44.09353,-19.93234],[-44.09175,-19.9324],[-44.08991,-19.93431],[-44.08635,-19.93449],[-44.08311,-19.93532],[-44.07756,-19.93991],[-44.07702,-19.94112],[-44.07647,-19.94126],[-44.07668,-19.94333],[-44.07492,-19.94574],[-44.07298,-19.9476],[-44.07206,-19.94798],[-44.06988,-19.94799],[-44.06913,-19.94847],[-44.06737,-19.95234],[-44.06782,-19.95393],[-44.06756,-19.95632],[-44.06945,-19.95896],[-44.06976,-19.96024],[-44.07097,-19.96119],[-44.0714,-19.96266],[-44.0728,-19.9634],[-44.07568,-19.96734],[-44.07883,-19.9684],[-44.07965,-19.96802],[-44.08078,-19.96515],[-44.08302,-19.96928],[-44.08328,-19.97227],[-44.08279,-19.97411],[-44.0844,-19.97695],[-44.08555,-19.97741],[-44.08541,-19.97866],[-44.08613,-19.97954],[-44.08737,-19.98017],[-44.08829,-19.98016],[-44.09028,-19.97946],[-44.09219,-19.98022],[-44.09543,-19.98257],[-44.09814,-19.98722],[-44.10497,-19.98661],[-44.10725,-19.98579],[-44.10891,-19.98639],[-44.10873,-19.98682],[-44.10905,-19.98708],[-44.10944,-19.98654],[-44.11094,-19.9879],[-44.11077,-19.9882],[-44.11154,-19.98824],[-44.11161,-19.99071],[-44.11072,-19.99093],[-44.11038,-19.99162],[-44.11092,-19.99265],[-44.11132,-19.99261],[-44.11248,-19.99415],[-44.11195,-19.99565],[-44.11139,-19.9955],[-44.11091,-19.99647],[-44.11207,-19.99903],[-44.11099,-19.99989],[-44.1112,-20.00126],[-44.11224,-20.00167],[-44.11491,-20.00155],[-44.11611,-20.00199],[-44.11804,-20.00428],[-44.11915,-20.00475],[-44.11941,-20.00453],[-44.12526,-20.00864],[-44.12641,-20.00862],[-44.12762,-20.00952],[-44.12994,-20.00905],[-44.13045,-20.0093],[-44.13071,-20.01081],[-44.13028,-20.01472],[-44.12906,-20.01495],[-44.12858,-20.0159],[-44.12668,-20.01515],[-44.12503,-20.01514],[-44.1241,-20.01602],[-44.12241,-20.01578],[-44.12227,-20.01738],[-44.12141,-20.01726],[-44.12144,-20.01876],[-44.11313,-20.02038],[-44.11219,-20.02073],[-44.11159,-20.02226],[-44.11229,-20.02249],[-44.11447,-20.02146],[-44.11551,-20.02261],[-44.11592,-20.02257],[-44.1161,-20.02206],[-44.11689,-20.02209],[-44.11719,-20.02241],[-44.11606,-20.02363],[-44.1166,-20.0237],[-44.11973,-20.0232],[-44.12282,-20.02187],[-44.12391,-20.0219],[-44.12428,-20.02342],[-44.12374,-20.024],[-44.12347,-20.02516],[-44.12402,-20.02566],[-44.12391,-20.02703],[-44.12436,-20.02721],[-44.12416,-20.02841],[-44.12571,-20.02907],[-44.12601,-20.02979],[-44.13183,-20.0282],[-44.1324,-20.02865],[-44.1344,-20.02894],[-44.13617,-20.03063],[-44.13722,-20.03075],[-44.13773,-20.02819],[-44.13824,-20.02761],[-44.13892,-20.02537],[-44.14059,-20.02343],[-44.1406,-20.02246],[-44.14118,-20.0222],[-44.14165,-20.02111],[-44.14102,-20.02045],[-44.14181,-20.01986],[-44.14194,-20.01895],[-44.14409,-20.0181],[-44.14484,-20.01887],[-44.14567,-20.01796],[-44.14667,-20.01776],[-44.14905,-20.01848],[-44.14954,-20.01778],[-44.15075,-20.01743],[-44.15155,-20.01805],[-44.15163,-20.0197],[-44.15249,-20.02028],[-44.15352,-20.02219],[-44.15334,-20.02497],[-44.15202,-20.02554],[-44.15155,-20.02629],[-44.15262,-20.02998],[-44.15738,-20.03006],[-44.15827,-20.02923],[-44.15735,-20.02839],[-44.15741,-20.02769],[-44.15957,-20.02722],[-44.16142,-20.02752],[-44.16138,-20.02533],[-44.16231,-20.02455],[-44.16342,-20.02501],[-44.16398,-20.02696],[-44.16463,-20.02731],[-44.1651,-20.02824],[-44.16571,-20.02858],[-44.16583,-20.02929],[-44.16664,-20.02982],[-44.16851,-20.02907],[-44.17016,-20.02921],[-44.17125,-20.03014],[-44.17268,-20.02926],[-44.17567,-20.02926],[-44.17835,-20.03122],[-44.17869,-20.0304],[-44.17973,-20.03037],[-44.18002,-20.03152],[-44.1798,-20.03385],[-44.18061,-20.03545],[-44.17972,-20.0359],[-44.17741,-20.03596],[-44.1765,-20.03562],[-44.17615,-20.03629],[-44.17491,-20.03714],[-44.17477,-20.03804],[-44.17516,-20.03924],[-44.17712,-20.03976],[-44.17975,-20.04197],[-44.18115,-20.04588],[-44.18265,-20.04616],[-44.1826,-20.04744],[-44.18305,-20.04764],[-44.18494,-20.04759],[-44.18974,-20.04502],[-44.19045,-20.04617],[-44.18987,-20.04696],[-44.19045,-20.04738],[-44.19078,-20.04855],[-44.19313,-20.04956],[-44.19526,-20.05178],[-44.19574,-20.05174],[-44.1975,-20.04938],[-44.20016,-20.04815],[-44.20052,-20.04539],[-44.20195,-20.043],[-44.2049,-20.0425],[-44.20669,-20.04363],[-44.20848,-20.0465],[-44.21055,-20.04792],[-44.21223,-20.04837],[-44.2151,-20.04813],[-44.21855,-20.04873],[-44.21906,-20.04819],[-44.21901,-20.04768],[-44.21549,-20.04426],[-44.21521,-20.04219],[-44.21577,-20.04178],[-44.21768,-20.04251],[-44.21875,-20.04242],[-44.22273,-20.04071],[-44.22441,-20.03856],[-44.22608,-20.03713],[-44.22724,-20.03676],[-44.23011,-20.03741],[-44.23233,-20.03694],[-44.23449,-20.03767],[-44.2337,-20.03679],[-44.23454,-20.03751],[-44.23674,-20.0383],[-44.23626,-20.04193],[-44.23756,-20.04887],[-44.24043,-20.0497],[-44.24286,-20.04945]],[[-44.15687,-19.88788],[-44.15704,-19.88745],[-44.15715,-19.88743],[-44.15687,-19.88788]],[[-44.0784,-19.9576],[-44.07429,-19.95889],[-44.07813,-19.95758],[-44.0784,-19.9576]],[[-44.07944,-19.95776],[-44.07899,-19.95763],[-44.0793,-19.95764],[-44.07944,-19.95776]],[[-44.08012,-19.94346],[-44.08015,-19.94349],[-44.07914,-19.94504],[-44.08012,-19.94346]],[[-44.0812,-19.95924],[-44.08114,-19.95921],[-44.08075,-19.95886],[-44.0812,-19.95924]],[[-44.08112,-19.94323],[-44.0812,-19.94324],[-44.08151,-19.94339],[-44.08112,-19.94323]],[[-44.08257,-19.94392],[-44.08267,-19.94396],[-44.08293,-19.9443],[-44.08257,-19.94392]],[[-44.08304,-19.94445],[-44.08305,-19.94447],[-44.08342,-19.94552],[-44.08304,-19.94445]],[[-44.09359,-19.95707],[-44.09115,-19.95871],[-44.09035,-19.95914],[-44.09359,-19.95707]],[[-44.09035,-19.95914],[-44.08959,-19.95927],[-44.0862,-19.9596],[-44.09035,-19.95914]],[[-44.09184,-19.93859],[-44.09255,-19.93815],[-44.09264,-19.93814],[-44.09184,-19.93859]],[[-44.09424,-19.93958],[-44.09273,-19.93814],[-44.09288,-19.93813],[-44.09424,-19.93958]],[[-44.09567,-19.95592],[-44.09467,-19.95638],[-44.09517,-19.95605],[-44.09567,-19.95592]],[[-44.09518,-19.93739],[-44.09515,-19.93748],[-44.09508,-19.93752],[-44.09518,-19.93739]],[[-44.09541,-19.93686],[-44.09534,-19.93559],[-44.09537,-19.93545],[-44.09541,-19.93686]],[[-44.09562,-19.93477],[-44.09547,-19.93507],[-44.09552,-19.93488],[-44.09562,-19.93477]],[[-44.09617,-19.93429],[-44.09586,-19.9345],[-44.09599,-19.93435],[-44.09617,-19.93429]],[[-44.0968,-19.95562],[-44.09702,-19.95563],[-44.09659,-19.95567],[-44.0968,-19.95562]],[[-44.0973,-19.93414],[-44.09663,-19.93415],[-44.09693,-19.93406],[-44.0973,-19.93414]],[[-44.09783,-19.93433],[-44.09763,-19.93421],[-44.09772,-19.93423],[-44.09783,-19.93433]],[[-44.09846,-19.935],[-44.09828,-19.93475],[-44.09842,-19.93488],[-44.09846,-19.935]],[[-44.10223,-19.93946],[-44.09934,-19.93752],[-44.10214,-19.93938],[-44.10223,-19.93946]],[[-44.10225,-19.93949],[-44.10135,-19.94079],[-44.10177,-19.94003],[-44.10225,-19.93949]],[[-44.10151,-19.93567],[-44.10332,-19.93613],[-44.10243,-19.93596],[-44.10151,-19.93567]],[[-44.10237,-19.9396],[-44.10283,-19.94004],[-44.10285,-19.9401],[-44.10237,-19.9396]],[[-44.1036,-19.94222],[-44.10356,-19.94211],[-44.10382,-19.94247],[-44.1036,-19.94222]],[[-44.10448,-19.94236],[-44.10465,-19.9422],[-44.10546,-19.94178],[-44.10448,-19.94236]],[[-44.10608,-19.94618],[-44.10587,-19.94607],[-44.10536,-19.94525],[-44.10608,-19.94618]],[[-44.1059,-19.94227],[-44.10707,-19.94286],[-44.10711,-19.94291],[-44.1059,-19.94227]],[[-44.10819,-19.94651],[-44.10652,-19.94642],[-44.10629,-19.9463],[-44.10819,-19.94651]],[[-44.10684,-19.94079],[-44.1071,-19.94068],[-44.1113,-19.93897],[-44.10684,-19.94079]],[[-44.11044,-19.94701],[-44.11938,-19.9456],[-44.11995,-19.94559],[-44.11099,-19.94705],[-44.11044,-19.94701]],[[-44.11076,-19.95575],[-44.11092,-19.95374],[-44.11088,-19.95575],[-44.11076,-19.95575]],[[-44.11344,-19.9383],[-44.11402,-19.93837],[-44.11458,-19.93858],[-44.11344,-19.9383]],[[-44.12136,-19.94219],[-44.11677,-19.94187],[-44.11824,-19.94013],[-44.1169,-19.94181],[-44.12136,-19.94219]],[[-44.12136,-19.94219],[-44.12153,-19.94155],[-44.1206,-19.94558],[-44.12136,-19.94219]],[[-44.1206,-19.94558],[-44.12082,-19.9457],[-44.12039,-19.94558],[-44.1206,-19.94558]],[[-44.11713,-19.9553],[-44.11779,-19.95565],[-44.11791,-19.95575],[-44.11713,-19.9553]],[[-44.11984,-19.95746],[-44.11805,-19.95587],[-44.12001,-19.95751],[-44.11984,-19.95746]],[[-44.12944,-19.95596],[-44.12108,-19.95785],[-44.12862,-19.95606],[-44.12944,-19.95596]],[[-44.12316,-19.93801],[-44.12281,-19.93737],[-44.12371,-19.93853],[-44.12316,-19.93801]],[[-44.12725,-19.94819],[-44.12552,-19.94819],[-44.12528,-19.94808],[-44.12725,-19.94819]],[[-44.12774,-19.939],[-44.12613,-19.93973],[-44.12598,-19.93972],[-44.12774,-19.939]],[[-44.12767,-19.94248],[-44.12755,-19.94239],[-44.126,-19.9405],[-44.12767,-19.94248]],[[-44.12775,-19.93482],[-44.12638,-19.93588],[-44.12757,-19.93491],[-44.12775,-19.93482]],[[-44.12765,-19.9832],[-44.12811,-19.98706],[-44.1276,-19.98316],[-44.12765,-19.9832]],[[-44.12922,-19.94881],[-44.129,-19.94881],[-44.12765,-19.94832],[-44.12922,-19.94881]],[[-44.12898,-19.94331],[-44.12863,-19.94324],[-44.12812,-19.94284],[-44.12898,-19.94331]],[[-44.13043,-19.9337],[-44.12937,-19.93398],[-44.12976,-19.93377],[-44.13043,-19.9337]],[[-44.13007,-19.9988],[-44.13091,-19.99862],[-44.13108,-19.9987],[-44.13007,-19.9988]],[[-44.1305,-19.95584],[-44.13085,-19.9558],[-44.1311,-19.95583],[-44.1305,-19.95584]],[[-44.1314,-19.9965],[-44.13331,-19.99523],[-44.13078,-19.99694],[-44.1314,-19.9965]],[[-44.13129,-19.9988],[-44.13143,-19.99886],[-44.13158,-19.99907],[-44.13129,-19.9988]],[[-44.1315,-19.94384],[-44.13334,-19.94385],[-44.13344,-19.94387],[-44.1315,-19.94384]],[[-44.13188,-20.00144],[-44.13207,-20.00155],[-44.13193,-20.00157],[-44.13188,-20.00144]],[[-44.13276,-19.965],[-44.13299,-19.96499],[-44.13302,-19.965],[-44.13276,-19.965]],[[-44.13323,-19.96509],[-44.1334,-19.96517],[-44.13341,-19.9652],[-44.13323,-19.96509]],[[-44.13618,-19.95053],[-44.13739,-19.95222],[-44.13515,-19.94927],[-44.13618,-19.95053]],[[-44.13515,-19.94927],[-44.1337,-19.94878],[-44.13383,-19.94878],[-44.13515,-19.94927]],[[-44.13412,-19.94126],[-44.13577,-19.94111],[-44.13394,-19.94129],[-44.13412,-19.94126]],[[-44.13455,-19.94419],[-44.13405,-19.944],[-44.13432,-19.94406],[-44.13455,-19.94419]],[[-44.1399,-19.96562],[-44.13856,-19.96579],[-44.13428,-19.96633],[-44.1399,-19.96562]],[[-44.13428,-19.96633],[-44.13411,-19.96662],[-44.13508,-19.96491],[-44.13428,-19.96633]],[[-44.1351,-19.99213],[-44.13543,-19.99138],[-44.13512,-19.9921],[-44.1351,-19.99213]],[[-44.142,-19.98142],[-44.13904,-19.98588],[-44.13543,-19.9909],[-44.142,-19.98142]],[[-44.13805,-19.94234],[-44.13807,-19.9424],[-44.13608,-19.9415],[-44.13805,-19.94234]],[[-44.13609,-19.96281],[-44.13694,-19.95877],[-44.1361,-19.96281],[-44.13609,-19.96281]],[[-44.13884,-19.94938],[-44.13837,-19.94887],[-44.13628,-19.94517],[-44.13884,-19.94938]],[[-44.1374,-19.95665],[-44.13801,-19.95545],[-44.13802,-19.95552],[-44.1374,-19.95665]],[[-44.13741,-19.95666],[-44.13982,-19.95663],[-44.13743,-19.95666],[-44.13741,-19.95666]],[[-44.13828,-20.0028],[-44.13815,-20.00251],[-44.13802,-19.99976],[-44.13828,-20.0028]],[[-44.13902,-19.97872],[-44.13859,-19.97689],[-44.13864,-19.97682],[-44.13902,-19.97872]],[[-44.13928,-19.97597],[-44.13973,-19.97568],[-44.13886,-19.97653],[-44.13928,-19.97597]],[[-44.1407,-19.97583],[-44.13993,-19.9757],[-44.1406,-19.97578],[-44.1407,-19.97583]],[[-44.14199,-19.95131],[-44.14061,-19.95057],[-44.14178,-19.95112],[-44.14199,-19.95131]],[[-44.1409,-19.9644],[-44.14243,-19.96384],[-44.1423,-19.96394],[-44.1409,-19.9644]],[[-44.14273,-19.92668],[-44.14217,-19.92646],[-44.14259,-19.92659],[-44.14273,-19.92668]],[[-44.14266,-19.95196],[-44.14347,-19.95272],[-44.14359,-19.95288],[-44.14266,-19.95196]],[[-44.14656,-19.93036],[-44.1465,-19.93035],[-44.14565,-19.92993],[-44.14656,-19.93036]],[[-44.14565,-19.92993],[-44.14382,-19.92743],[-44.14389,-19.92748],[-44.14565,-19.92993]],[[-44.14799,-19.97956],[-44.14743,-19.97839],[-44.148,-19.97951],[-44.14799,-19.97956]],[[-44.14743,-19.97839],[-44.1448,-19.9747],[-44.14513,-19.97507],[-44.14743,-19.97839]],[[-44.14814,-19.94834],[-44.14816,-19.94834],[-44.14591,-19.95023],[-44.14814,-19.94834]],[[-44.14742,-19.93045],[-44.14706,-19.93041],[-44.14748,-19.93044],[-44.14742,-19.93045]],[[-44.14793,-19.9809],[-44.14788,-19.98085],[-44.14789,-19.98078],[-44.14793,-19.9809]],[[-44.14874,-19.98133],[-44.14877,-19.98134],[-44.14858,-19.98152],[-44.14874,-19.98133]],[[-44.15025,-19.95649],[-44.15238,-19.95799],[-44.15416,-19.95949],[-44.15126,-19.95721],[-44.14881,-19.95627],[-44.15081,-19.95699],[-44.15025,-19.95649]],[[-44.14964,-19.99265],[-44.14885,-19.99262],[-44.14884,-19.99255],[-44.14964,-19.99265]],[[-44.14897,-19.98018],[-44.14897,-19.98139],[-44.14888,-19.97971],[-44.14897,-19.98018]],[[-44.14902,-19.94802],[-44.14958,-19.94781],[-44.15012,-19.94765],[-44.14995,-19.94776],[-44.14902,-19.94802]],[[-44.15012,-19.95638],[-44.14978,-19.95572],[-44.14979,-19.95567],[-44.15012,-19.95638]],[[-44.1499,-19.95492],[-44.1498,-19.95543],[-44.14983,-19.95501],[-44.1499,-19.95492]],[[-44.15369,-19.952],[-44.15009,-19.95467],[-44.1503,-19.95439],[-44.15369,-19.952]],[[-44.15037,-19.94748],[-44.15045,-19.9474],[-44.15043,-19.94744],[-44.15037,-19.94748]],[[-44.1517,-19.99466],[-44.1514,-19.99452],[-44.15161,-19.99451],[-44.1517,-19.99466]],[[-44.15279,-19.98259],[-44.1515,-19.98216],[-44.15292,-19.98257],[-44.15279,-19.98259]],[[-44.1518,-19.94505],[-44.15549,-19.94397],[-44.15476,-19.94424],[-44.1518,-19.94505]],[[-44.15278,-19.99451],[-44.15191,-19.99476],[-44.15185,-19.99473],[-44.15278,-19.99451]],[[-44.15494,-19.98662],[-44.15506,-19.9868],[-44.15198,-19.99191],[-44.15494,-19.98662]],[[-44.15274,-19.99403],[-44.15264,-19.994],[-44.15342,-19.99371],[-44.15274,-19.99403]],[[-44.15764,-19.93986],[-44.15413,-19.9345],[-44.1576,-19.93976],[-44.15764,-19.93986]],[[-44.15812,-19.99072],[-44.15818,-19.9912],[-44.15811,-19.99198],[-44.15812,-19.99072]],[[-44.15811,-19.99198],[-44.15527,-19.99417],[-44.15581,-19.99442],[-44.15519,-19.9942],[-44.15811,-19.99198]],[[-44.15584,-19.93301],[-44.15861,-19.93589],[-44.1585,-19.93585],[-44.15584,-19.93301]],[[-44.15641,-19.9069],[-44.15655,-19.9059],[-44.15672,-19.90558],[-44.15641,-19.9069]],[[-44.15649,-19.90228],[-44.15698,-19.90234],[-44.15657,-19.90238],[-44.15649,-19.90228]],[[-44.15689,-19.90164],[-44.15687,-19.90167],[-44.15662,-19.90103],[-44.15689,-19.90164]],[[-44.1576,-19.90465],[-44.15679,-19.90544],[-44.15694,-19.90515],[-44.1576,-19.90465]],[[-44.15695,-19.90049],[-44.15699,-19.90042],[-44.15748,-19.90016],[-44.15695,-19.90049]],[[-44.16213,-19.94334],[-44.15696,-19.94341],[-44.15924,-19.94331],[-44.16213,-19.94334]],[[-44.15744,-19.88738],[-44.15725,-19.88741],[-44.15743,-19.88737],[-44.15744,-19.88738]],[[-44.15823,-19.88782],[-44.15816,-19.88786],[-44.15768,-19.88768],[-44.15823,-19.88782]],[[-44.15771,-19.90005],[-44.15774,-19.90003],[-44.15889,-19.90008],[-44.15771,-19.90005]],[[-44.15799,-19.92619],[-44.15782,-19.92627],[-44.16129,-19.92396],[-44.15799,-19.92619]],[[-44.16088,-19.9044],[-44.15787,-19.90445],[-44.15796,-19.90438],[-44.16088,-19.9044]],[[-44.15812,-19.90249],[-44.15818,-19.9025],[-44.15818,-19.90251],[-44.15812,-19.90249]],[[-44.15956,-19.90282],[-44.16098,-19.9031],[-44.1609,-19.90311],[-44.15956,-19.90282]],[[-44.16054,-20.0103],[-44.15969,-20.00971],[-44.1603,-20.01002],[-44.16054,-20.0103]],[[-44.16045,-19.97835],[-44.1605,-19.97638],[-44.16057,-19.97882],[-44.16045,-19.97835]],[[-44.16064,-19.88786],[-44.16067,-19.88783],[-44.16078,-19.88779],[-44.16064,-19.88786]],[[-44.16104206541349,-19.961562532735844],[-44.17087,-19.9642],[-44.16104,-19.96157],[-44.16104206541349,-19.961562532735844]],[[-44.16101174734448,-19.961554396447],[-44.16101,-19.96156],[-44.16066,-19.96146],[-44.16101174734448,-19.961554396447]],[[-44.16084,-19.97985],[-44.1608,-19.97969],[-44.16093,-19.97993],[-44.16084,-19.97985]],[[-44.16202,-20.00988],[-44.16096,-20.00969],[-44.16232,-20.00983],[-44.16202,-20.00988]],[[-44.1611,-19.89264],[-44.16111,-19.89264],[-44.16133,-19.89271],[-44.1611,-19.89264]],[[-44.16125,-19.90439],[-44.16123,-19.90439],[-44.16182,-19.90426],[-44.16125,-19.90439]],[[-44.16169,-20.01174],[-44.16147,-20.01141],[-44.16164,-20.01161],[-44.16169,-20.01174]],[[-44.16248,-19.90217],[-44.16263,-19.90213],[-44.16148,-19.903],[-44.16248,-19.90217]],[[-44.16171,-19.89284],[-44.1619,-19.89291],[-44.1625,-19.89358],[-44.16171,-19.89284]],[[-44.16178,-19.88743],[-44.16201,-19.88735],[-44.16199,-19.8874],[-44.16178,-19.88743]],[[-44.16204,-19.88719],[-44.16191,-19.88664],[-44.16208,-19.88705],[-44.16204,-19.88719]],[[-44.16191,-20.01257],[-44.16194,-20.01236],[-44.16218,-20.01298],[-44.16191,-20.01257]],[[-44.1625,-19.98126],[-44.16219,-19.981],[-44.16272,-19.98143],[-44.1625,-19.98126]],[[-44.16262,-20.00977],[-44.16253,-20.00979],[-44.1627,-20.00968],[-44.16262,-20.00977]],[[-44.16339,-19.89454],[-44.16297,-19.89382],[-44.16346,-19.89449],[-44.16339,-19.89454]],[[-44.16345,-19.94406],[-44.16305,-19.94372],[-44.16325,-19.94381],[-44.16345,-19.94406]],[[-44.16397,-19.89475],[-44.16349,-19.89471],[-44.16343,-19.89462],[-44.16397,-19.89475]],[[-44.16515,-19.94759],[-44.16361,-19.94427],[-44.16363,-19.9443],[-44.16515,-19.94759]],[[-44.16375,-19.90185],[-44.16381,-19.90192],[-44.16365,-19.90187],[-44.16375,-19.90185]],[[-44.16422,-20.00188],[-44.16417,-20.00166],[-44.16489,-19.99921],[-44.16422,-20.00188]],[[-44.16427,-20.00211],[-44.16424,-20.00199],[-44.16528,-20.00311],[-44.16427,-20.00211]],[[-44.16485,-19.89462],[-44.16465,-19.89479],[-44.16455,-19.89478],[-44.16485,-19.89462]],[[-44.16485,-19.95582],[-44.16478,-19.95575],[-44.16475,-19.95564],[-44.16485,-19.95582]],[[-44.16558,-19.9793],[-44.16509,-19.97858],[-44.16527,-19.97876],[-44.16558,-19.9793]],[[-44.16516,-19.89397],[-44.16523,-19.8943],[-44.16518,-19.89434],[-44.16516,-19.89397]],[[-44.16615,-19.91154],[-44.16664,-19.9121],[-44.16611,-19.91156],[-44.16615,-19.91154]],[[-44.16613,-19.9236],[-44.16915,-19.92338],[-44.16634,-19.9236],[-44.16613,-19.9236]],[[-44.16683,-19.99738],[-44.16616,-19.99761],[-44.16692,-19.9973],[-44.16683,-19.99738]],[[-44.16667,-19.91141],[-44.16627,-19.91148],[-44.1665,-19.91135],[-44.16667,-19.91141]],[[-44.16631,-19.95284],[-44.16667,-19.95383],[-44.16702,-19.95466],[-44.16692,-19.95454],[-44.16631,-19.95284]],[[-44.16742,-19.91201],[-44.16684,-19.91145],[-44.16697,-19.91149],[-44.16742,-19.91201]],[[-44.17164,-19.93073],[-44.17075,-19.93063],[-44.17077,-19.93062],[-44.17164,-19.93073]],[[-44.17164,-19.93073],[-44.16848,-19.92732],[-44.16697,-19.92556],[-44.17164,-19.93073]],[[-44.16756,-19.9553],[-44.16735,-19.95509],[-44.16733,-19.95506],[-44.16756,-19.9553]],[[-44.16744,-19.84857],[-44.16743,-19.84821],[-44.16799,-19.8469],[-44.16744,-19.84857]],[[-44.16777,-19.87211],[-44.16773,-19.87203],[-44.16784,-19.87167],[-44.16777,-19.87211]],[[-44.16854,-19.87276],[-44.16793,-19.87237],[-44.16786,-19.87226],[-44.16854,-19.87276]],[[-44.17027,-19.94936],[-44.16826,-19.95258],[-44.16992,-19.9497],[-44.17027,-19.94936]],[[-44.16855,-19.86972],[-44.16827,-19.87027],[-44.16855,-19.86936],[-44.16855,-19.86972]],[[-44.16855,-19.87276],[-44.16975,-19.87408],[-44.16978,-19.87416],[-44.16855,-19.87276]],[[-44.16865,-19.91005],[-44.16863,-19.91006],[-44.16862,-19.91002],[-44.16865,-19.91005]],[[-44.169,-19.93884],[-44.17037,-19.94283],[-44.16895,-19.93895],[-44.169,-19.93884]],[[-44.16918,-19.91732],[-44.1692,-19.91736],[-44.16907,-19.91958],[-44.16918,-19.91732]],[[-44.16907,-19.91958],[-44.16931,-19.91961],[-44.1693,-19.9197],[-44.16907,-19.91958]],[[-44.17484,-19.95877],[-44.17192,-19.95763],[-44.17482,-19.95875],[-44.17484,-19.95877]],[[-44.17192,-19.95763],[-44.16927,-19.95706],[-44.1692,-19.95699],[-44.17192,-19.95763]],[[-44.17021,-19.99092],[-44.16975,-19.99067],[-44.16979,-19.99067],[-44.17021,-19.99092]],[[-44.17024,-19.99543],[-44.17028,-19.99537],[-44.17053,-19.99548],[-44.17024,-19.99543]],[[-44.17064,-19.93164],[-44.17121,-19.93226],[-44.17092,-19.93204],[-44.17064,-19.93164]],[[-44.17123,-19.99201],[-44.17093,-19.99136],[-44.17103,-19.99141],[-44.17123,-19.99201]],[[-44.17111,-19.96427],[-44.17216,-19.96455],[-44.17149,-19.96438],[-44.17111,-19.96427]],[[-44.17158,-19.99832],[-44.17151,-19.99837],[-44.17149,-19.99832],[-44.17158,-19.99832]],[[-44.17285,-19.95062],[-44.17243,-19.95052],[-44.17229,-19.95045],[-44.17285,-19.95062]],[[-44.17335,-19.93394],[-44.17286,-19.93356],[-44.17333,-19.93391],[-44.17335,-19.93394]],[[-44.17839,-19.91962],[-44.17871,-19.919],[-44.17869,-19.9191],[-44.17839,-19.91962]],[[-44.17839,-19.91962],[-44.17784,-19.91998],[-44.17949,-19.92053],[-44.17297,-19.91843],[-44.17783,-19.91998],[-44.17839,-19.91962]],[[-44.17503,-19.9423],[-44.17515,-19.94212],[-44.17337,-19.94587],[-44.17503,-19.9423]],[[-44.17376,-19.97242],[-44.17364,-19.97241],[-44.17378,-19.97238],[-44.17376,-19.97242]],[[-44.17437,-19.88876],[-44.17866,-19.8853],[-44.17911,-19.88522],[-44.17437,-19.88876]],[[-44.17563,-19.95124],[-44.17457,-19.951],[-44.1754,-19.95112],[-44.17563,-19.95124]],[[-44.17621,-19.96561],[-44.17468,-19.96521],[-44.17818,-19.9659],[-44.17621,-19.96561]],[[-44.17764,-19.96152],[-44.17742,-19.96145],[-44.17543,-19.95935],[-44.17764,-19.96152]],[[-44.17643,-19.94024],[-44.17644,-19.94024],[-44.17634,-19.94037],[-44.17643,-19.94024]],[[-44.1773,-19.97152],[-44.17733,-19.97153],[-44.17843,-19.97285],[-44.1773,-19.97152]],[[-44.17753,-19.93812],[-44.17765,-19.93805],[-44.1777,-19.93807],[-44.17753,-19.93812]],[[-44.17867,-19.95285],[-44.1786,-19.95285],[-44.17766,-19.95254],[-44.17867,-19.95285]],[[-44.18345,-19.93733],[-44.18355,-19.93743],[-44.18291,-19.93709],[-44.18345,-19.93733]],[[-44.18291,-19.93709],[-44.17928,-19.93717],[-44.1813,-19.93705],[-44.18291,-19.93709]],[[-44.17928,-19.93717],[-44.17776,-19.93797],[-44.17801,-19.9378],[-44.17928,-19.93717]],[[-44.178,-19.93729],[-44.17854,-19.93694],[-44.178,-19.93734],[-44.178,-19.93729]],[[-44.1783,-19.96172],[-44.1784,-19.96173],[-44.17837,-19.96174],[-44.1783,-19.96172]],[[-44.17873,-19.9189],[-44.17843,-19.91897],[-44.17873,-19.91885],[-44.17873,-19.9189]],[[-44.18194,-19.94748],[-44.18094,-19.94553],[-44.18095,-19.94549],[-44.18194,-19.94748]],[[-44.18194,-19.94748],[-44.18183,-19.94774],[-44.17901,-19.95104],[-44.18194,-19.94748]],[[-44.17918,-19.91822],[-44.17943,-19.91744],[-44.17923,-19.91818],[-44.17918,-19.91822]],[[-44.18467,-19.95194],[-44.1804,-19.95287],[-44.17942,-19.95286],[-44.18467,-19.95194]],[[-44.17961,-19.92595],[-44.18148,-19.92636],[-44.18147,-19.92645],[-44.17961,-19.92595]],[[-44.17961,-19.92595],[-44.17959,-19.926],[-44.17952,-19.92577],[-44.17961,-19.92595]],[[-44.18064,-19.92408],[-44.18051,-19.92391],[-44.18029,-19.92319],[-44.18064,-19.92408]],[[-44.18605,-19.95872],[-44.18304,-19.95949],[-44.18594,-19.95873],[-44.18605,-19.95872]],[[-44.18304,-19.95949],[-44.18057,-19.96116],[-44.18049,-19.96118],[-44.18304,-19.95949]],[[-44.18097,-19.96632],[-44.18077,-19.96629],[-44.18194,-19.96613],[-44.18097,-19.96632]],[[-44.18145,-19.89459],[-44.18168,-19.89514],[-44.18087,-19.89369],[-44.18145,-19.89459]],[[-44.18104,-19.88822],[-44.18089,-19.88871],[-44.18093,-19.888],[-44.18104,-19.88822]],[[-44.18101,-20.00009],[-44.18135,-19.99924],[-44.18142,-19.99917],[-44.18101,-20.00009]],[[-44.18295,-19.97642],[-44.18111,-19.97615],[-44.18326,-19.97642],[-44.18295,-19.97642]],[[-44.18157,-19.9254],[-44.18163,-19.92549],[-44.18162,-19.92558],[-44.18157,-19.9254]],[[-44.18171,-19.99889],[-44.18187,-19.99873],[-44.18263,-19.9985],[-44.18171,-19.99889]],[[-44.18495,-19.94528],[-44.18214,-19.94746],[-44.1849,-19.94529],[-44.18495,-19.94528]],[[-44.18275,-19.9017],[-44.18215,-19.90314],[-44.18278,-19.90138],[-44.18275,-19.9017]],[[-44.18242,-20.01436],[-44.18238,-20.01437],[-44.18259,-20.01386],[-44.18242,-20.01436]],[[-44.18283,-19.96597],[-44.18274,-19.96598],[-44.18434,-19.96543],[-44.18283,-19.96597]],[[-44.18295,-19.98963],[-44.18307,-19.98945],[-44.18557,-19.98763],[-44.18295,-19.98963]],[[-44.18335,-19.90011],[-44.18302,-19.90073],[-44.18337,-19.89975],[-44.18335,-19.90011]],[[-44.18328,-19.99762],[-44.18314,-19.99781],[-44.1836,-19.99666],[-44.18328,-19.99762]],[[-44.1832,-19.88452],[-44.18345,-19.88442],[-44.18349,-19.88442],[-44.1832,-19.88452]],[[-44.18384,-19.92312],[-44.18357,-19.92335],[-44.18325,-19.9234],[-44.18384,-19.92312]],[[-44.18439,-19.88442],[-44.1837,-19.88439],[-44.18516,-19.88421],[-44.18439,-19.88442]],[[-44.18407,-19.92282],[-44.18404,-19.92295],[-44.184,-19.92299],[-44.18407,-19.92282]],[[-44.18485,-20.02199],[-44.18414,-20.02254],[-44.1841,-20.02255],[-44.18485,-20.02199]],[[-44.18478,-19.95785],[-44.18475,-19.95783],[-44.18475,-19.9577],[-44.18478,-19.95785]],[[-44.18752,-19.93208],[-44.18527,-19.93115],[-44.18688,-19.93179],[-44.18752,-19.93208]],[[-44.18676,-19.97465],[-44.18613,-19.97454],[-44.18803,-19.97477],[-44.18676,-19.97465]],[[-44.18618,-19.92681],[-44.18679,-19.92622],[-44.18683,-19.92621],[-44.18618,-19.92681]],[[-44.1864,-19.97746],[-44.1868,-19.97634],[-44.18709,-19.97609],[-44.1864,-19.97746]],[[-44.18654,-19.98698],[-44.18643,-19.98705],[-44.18666,-19.98681],[-44.18654,-19.98698]],[[-44.18793,-19.94509],[-44.18772,-19.94449],[-44.18677,-19.94084],[-44.18793,-19.94509]],[[-44.18784,-20.00257],[-44.18685,-20.00406],[-44.1878,-20.00251],[-44.18784,-20.00257]],[[-44.18724,-19.92613],[-44.18788,-19.92627],[-44.18692,-19.92619],[-44.18724,-19.92613]],[[-44.18897,-19.97994],[-44.18711,-19.98615],[-44.18697,-19.98636],[-44.18735,-19.9853],[-44.18897,-19.97994]],[[-44.18746,-19.95729],[-44.18741,-19.95741],[-44.18738,-19.95736],[-44.18746,-19.95729]],[[-44.18832,-19.94594],[-44.18816,-19.94577],[-44.18814,-19.94569],[-44.18832,-19.94594]],[[-44.18849,-19.93253],[-44.18922,-19.93335],[-44.18836,-19.93247],[-44.18849,-19.93253]],[[-44.18858,-20.01918],[-44.18852,-20.02036],[-44.1885,-20.02036],[-44.18858,-20.01918]],[[-44.18882,-19.95861],[-44.18917,-19.95876],[-44.18854,-19.95861],[-44.18882,-19.95861]],[[-44.18897,-19.96384],[-44.18906,-19.96381],[-44.18995,-19.96382],[-44.18897,-19.96384]],[[-44.18976,-19.94725],[-44.1893,-19.94702],[-44.18899,-19.94668],[-44.18976,-19.94725]],[[-44.18945,-19.93359],[-44.18982,-19.93376],[-44.18949,-19.93363],[-44.18945,-19.93359]],[[-44.1899,-19.95909],[-44.19353,-19.96281],[-44.18966,-19.95898],[-44.1899,-19.95909]],[[-44.18991,-19.93484],[-44.18993,-19.93475],[-44.19038,-19.93427],[-44.18991,-19.93484]],[[-44.19087,-19.93423],[-44.19101,-19.93429],[-44.19112,-19.93449],[-44.19087,-19.93423]],[[-44.19123,-19.98985],[-44.19297,-19.98972],[-44.19261,-19.98983],[-44.19123,-19.98985]],[[-44.19457,-19.96364],[-44.1939,-19.96318],[-44.19369,-19.96297],[-44.19457,-19.96364]],[[-44.1939,-19.96318],[-44.1921,-19.96595],[-44.19302,-19.9645],[-44.1939,-19.96318]],[[-44.19359,-19.94922],[-44.19362,-19.9493],[-44.19354,-19.94919],[-44.19359,-19.94922]],[[-44.19384,-19.98946],[-44.19665,-19.98824],[-44.19468,-19.98921],[-44.19384,-19.98946]],[[-44.19392,-19.96099],[-44.19397,-19.96273],[-44.19388,-19.96105],[-44.19392,-19.96099]],[[-44.19693,-19.92169],[-44.19419,-19.92384],[-44.19552,-19.92268],[-44.19693,-19.92169]],[[-44.19564,-19.95821],[-44.19556,-19.95849],[-44.19462,-19.95986],[-44.19564,-19.95821]],[[-44.19533,-19.9373],[-44.19789,-19.94177],[-44.19789,-19.94178],[-44.19533,-19.9373]],[[-44.19639,-19.95363],[-44.19662,-19.9537],[-44.19546,-19.95383],[-44.19639,-19.95363]],[[-44.19727,-19.94441],[-44.19634,-19.9464],[-44.19624,-19.94638],[-44.19727,-19.94441]],[[-44.19678,-19.97562],[-44.19669,-19.97561],[-44.19633,-19.97557],[-44.19678,-19.97562]],[[-44.19788,-19.96005],[-44.19748,-19.95904],[-44.19798,-19.96015],[-44.19788,-19.96005]],[[-44.19782,-19.94216],[-44.19788,-19.94193],[-44.19785,-19.94219],[-44.19782,-19.94216]],[[-44.19803,-19.94233],[-44.19791,-19.94223],[-44.19821,-19.94218],[-44.19803,-19.94233]],[[-44.19866,-19.94266],[-44.19827,-19.94217],[-44.19837,-19.94216],[-44.19866,-19.94266]],[[-44.19919,-19.97634],[-44.1985,-19.97595],[-44.19884,-19.97601],[-44.19919,-19.97634]],[[-44.19862,-19.94578],[-44.19863,-19.94531],[-44.19865,-19.94588],[-44.19862,-19.94578]],[[-44.19961,-19.94236],[-44.19864,-19.94483],[-44.19956,-19.94239],[-44.19961,-19.94236]],[[-44.19966,-19.95002],[-44.19956,-19.94967],[-44.19882,-19.9466],[-44.19927,-19.94835],[-44.19966,-19.95002]],[[-44.19986,-19.95472],[-44.19987,-19.95474],[-44.19925,-19.95453],[-44.19986,-19.95472]],[[-44.19957,-19.97681],[-44.19941,-19.97654],[-44.19949,-19.97662],[-44.19957,-19.97681]],[[-44.19958,-19.96182],[-44.19999,-19.96345],[-44.19949,-19.96172],[-44.19958,-19.96182]],[[-44.2005,-19.95111],[-44.2005,-19.95117],[-44.19975,-19.95035],[-44.2005,-19.95111]],[[-44.20015,-19.97885],[-44.19984,-19.97751],[-44.19988,-19.97763],[-44.20015,-19.97885]],[[-44.20014,-19.96364],[-44.20306,-19.9656],[-44.20025,-19.96378],[-44.20014,-19.96364]],[[-44.20042,-19.95197],[-44.20026,-19.95347],[-44.20047,-19.95148],[-44.20042,-19.95197]],[[-44.2011,-19.94147],[-44.2004,-19.94185],[-44.20115,-19.94136],[-44.2011,-19.94147]],[[-44.20148,-19.94066],[-44.20133,-19.94098],[-44.20148,-19.94059],[-44.20148,-19.94066]],[[-44.20275,-19.93991],[-44.20139,-19.93962],[-44.20251,-19.93983],[-44.20275,-19.93991]],[[-44.20335,-19.98646],[-44.20306,-19.98586],[-44.20462,-19.98829],[-44.20335,-19.98646]],[[-44.20343,-19.95796],[-44.20343,-19.95781],[-44.20409,-19.95671],[-44.20343,-19.95796]],[[-44.20395,-19.95391],[-44.2036,-19.95367],[-44.20391,-19.95382],[-44.20395,-19.95391]],[[-44.20413,-19.93507],[-44.20431,-19.93444],[-44.20438,-19.93432],[-44.20413,-19.93507]],[[-44.20465,-19.95566],[-44.20431,-19.95473],[-44.20469,-19.95559],[-44.20465,-19.95566]],[[-44.20763,-19.9682],[-44.20708,-19.96814],[-44.20778,-19.96814],[-44.20763,-19.9682]],[[-44.20708,-19.96814],[-44.20639,-19.96775],[-44.20441,-19.96647],[-44.20708,-19.96814]],[[-44.20493,-19.95253],[-44.20594,-19.95195],[-44.20593,-19.95197],[-44.20493,-19.95253]],[[-44.20503,-19.98164],[-44.20501,-19.98168],[-44.20495,-19.9817],[-44.20503,-19.98164]],[[-44.20521,-19.96363],[-44.20542,-19.96328],[-44.20522,-19.96369],[-44.20521,-19.96363]],[[-44.20642,-20.03566],[-44.20564,-20.03557],[-44.20527,-20.03489],[-44.20559,-20.03543],[-44.20642,-20.03566]],[[-44.20602,-20.03612],[-44.20629,-20.03677],[-44.20585,-20.03596],[-44.20602,-20.03612]],[[-44.20623,-19.93207],[-44.20603,-19.93221],[-44.20646,-19.93172],[-44.20623,-19.93207]],[[-44.20607,-20.03369],[-44.20636,-20.03309],[-44.20609,-20.03374],[-44.20607,-20.03369]],[[-44.20864,-19.93266],[-44.20866,-19.93266],[-44.20634,-19.93372],[-44.20864,-19.93266]],[[-44.20662,-19.92882],[-44.20678,-19.93022],[-44.20666,-19.92988],[-44.20662,-19.92882]],[[-44.20688,-19.9311],[-44.20682,-19.9312],[-44.20686,-19.9309],[-44.20688,-19.9311]],[[-44.2076,-19.95624],[-44.20733,-19.9549],[-44.20762,-19.9563],[-44.2076,-19.95624]],[[-44.20865,-19.96644],[-44.20767,-19.96592],[-44.20779,-19.96592],[-44.20865,-19.96644]],[[-44.20785,-19.95695],[-44.20781,-19.95683],[-44.2079,-19.95699],[-44.20785,-19.95695]],[[-44.20817,-19.95715],[-44.20805,-19.95708],[-44.20926,-19.95713],[-44.20817,-19.95715]],[[-44.20807,-19.96804],[-44.20884,-19.96768],[-44.209,-19.9677],[-44.20807,-19.96804]],[[-44.21292,-20.00395],[-44.21274,-20.00372],[-44.21057,-19.99851],[-44.21292,-20.00395]],[[-44.21057,-19.99851],[-44.2087,-19.99513],[-44.20953,-19.99662],[-44.21057,-19.99851]],[[-44.20926,-19.96773],[-44.20943,-19.96775],[-44.20954,-19.96783],[-44.20926,-19.96773]],[[-44.21393,-19.96636],[-44.21383,-19.96637],[-44.20982,-19.96627],[-44.21393,-19.96636]],[[-44.21026,-19.88424],[-44.21034,-19.88403],[-44.21027,-19.88517],[-44.21026,-19.88424]],[[-44.21028,-19.88649],[-44.21027,-19.8862],[-44.21087,-19.88756],[-44.21028,-19.88649]],[[-44.21078,-19.95738],[-44.21041,-19.9572],[-44.21094,-19.95735],[-44.21078,-19.95738]],[[-44.2139,-20.02228],[-44.21087,-20.02178],[-44.21121,-20.02179],[-44.2139,-20.02228]],[[-44.21117,-19.95731],[-44.21104,-19.95734],[-44.21126,-19.95726],[-44.21117,-19.95731]],[[-44.21129,-19.9377],[-44.21134,-19.93763],[-44.21125,-19.93916],[-44.21129,-19.9377]],[[-44.21131,-19.96921],[-44.21232,-19.96999],[-44.21237,-19.97007],[-44.21131,-19.96921]],[[-44.21477,-19.96023],[-44.21292,-19.95976],[-44.21202,-19.95946],[-44.21477,-19.96023]],[[-44.21202,-19.95946],[-44.21202,-19.95833],[-44.21164,-19.9591],[-44.21204,-19.95815],[-44.21202,-19.95946]],[[-44.21177,-19.89137],[-44.21175,-19.89123],[-44.21234,-19.89165],[-44.21177,-19.89137]],[[-44.21323,-19.91063],[-44.2123,-19.90942],[-44.21259,-19.90963],[-44.21323,-19.91063]],[[-44.21271,-19.93574],[-44.2135,-19.93561],[-44.21262,-19.93585],[-44.21271,-19.93574]],[[-44.21303,-19.97206],[-44.21266,-19.97063],[-44.21277,-19.97085],[-44.21303,-19.97206]],[[-44.21271,-19.87667],[-44.21309,-19.87662],[-44.21306,-19.87672],[-44.21271,-19.87667]],[[-44.21308,-19.87631],[-44.21347,-19.87526],[-44.21313,-19.87648],[-44.21308,-19.87631]],[[-44.22032,-20.01249],[-44.21405,-20.00543],[-44.21327,-20.0044],[-44.22032,-20.01249]],[[-44.21328,-19.87507],[-44.21395,-19.87411],[-44.21394,-19.87419],[-44.21328,-19.87507]],[[-44.21475,-19.96618],[-44.21458,-19.96627],[-44.21429,-19.96631],[-44.21475,-19.96618]],[[-44.21435,-19.91243],[-44.21498,-19.9129],[-44.2151,-19.91312],[-44.21435,-19.91243]],[[-44.21501,-20.02491],[-44.21503,-20.025],[-44.215,-20.02496],[-44.21501,-20.02491]],[[-44.21675,-19.96019],[-44.21665,-19.96019],[-44.21653,-19.95991],[-44.21675,-19.96019]],[[-44.21653,-19.95991],[-44.215,-19.95993],[-44.21585,-19.95991],[-44.21653,-19.95991]],[[-44.21675,-19.9143],[-44.21559,-19.913],[-44.21586,-19.91316],[-44.21675,-19.9143]],[[-44.21594,-19.97239],[-44.21565,-19.97235],[-44.2166,-19.97225],[-44.21594,-19.97239]],[[-44.2165,-19.95447],[-44.21566,-19.95491],[-44.21568,-19.95483],[-44.2165,-19.95447]],[[-44.21632,-19.96531],[-44.21869,-19.96392],[-44.21831,-19.96421],[-44.21632,-19.96531]],[[-44.21693,-19.91319],[-44.21816,-19.91476],[-44.21683,-19.91313],[-44.21693,-19.91319]],[[-44.21796,-19.95138],[-44.21757,-19.95158],[-44.21761,-19.95148],[-44.21796,-19.95138]],[[-44.21879,-19.96294],[-44.21819,-19.96215],[-44.21775,-19.96154],[-44.21879,-19.96294]],[[-44.21775,-19.96154],[-44.21858,-19.96053],[-44.21858,-19.96055],[-44.21775,-19.96154]],[[-44.22168,-20.02328],[-44.21813,-20.02386],[-44.224,-20.02249],[-44.22168,-20.02328]],[[-44.21946,-19.89964],[-44.21814,-19.89818],[-44.21967,-19.89972],[-44.21946,-19.89964]],[[-44.21909,-19.96361],[-44.21951,-19.96284],[-44.2192,-19.96353],[-44.21909,-19.96361]],[[-44.22018,-19.94942],[-44.21977,-19.94977],[-44.21942,-19.94981],[-44.22018,-19.94942]],[[-44.22105,-19.97829],[-44.22132,-19.97834],[-44.21972,-19.97849],[-44.22105,-19.97829]],[[-44.21989,-20.03584],[-44.21974,-20.03601],[-44.21975,-20.03595],[-44.21989,-20.03584]],[[-44.22019,-19.92009],[-44.21986,-19.91996],[-44.22014,-19.92001],[-44.22019,-19.92009]],[[-44.22004,-19.96187],[-44.2202,-19.96175],[-44.21995,-19.96202],[-44.22004,-19.96187]],[[-44.22062,-19.96145],[-44.22155,-19.96079],[-44.22139,-19.961],[-44.22062,-19.96145]],[[-44.22161,-19.92293],[-44.2213,-19.92165],[-44.22135,-19.92175],[-44.22161,-19.92293]],[[-44.22171,-19.96057],[-44.22181,-19.96031],[-44.2218,-19.96045],[-44.22171,-19.96057]],[[-44.22197,-19.85684],[-44.22194,-19.85681],[-44.22198,-19.85668],[-44.22197,-19.85684]],[[-44.2221,-19.85625],[-44.22211,-19.85621],[-44.22216,-19.85621],[-44.2221,-19.85625]],[[-44.22243,-20.0349],[-44.22224,-20.03477],[-44.22229,-20.03472],[-44.22243,-20.0349]],[[-44.22237,-19.91208],[-44.22321,-19.91149],[-44.2231,-19.91161],[-44.22237,-19.91208]],[[-44.22653,-19.98022],[-44.22242,-19.97853],[-44.22636,-19.98012],[-44.22614,-19.97976],[-44.22653,-19.98022]],[[-44.22614,-19.97976],[-44.22652,-19.97853],[-44.22652,-19.97872],[-44.22614,-19.97976]],[[-44.22282,-20.03712],[-44.22272,-20.03562],[-44.22284,-20.03715],[-44.22282,-20.03712]],[[-44.22332,-19.95034],[-44.22304,-19.95025],[-44.22279,-19.95],[-44.22332,-19.95034]],[[-44.22362,-19.95358],[-44.22378,-19.95342],[-44.22311,-19.95537],[-44.22362,-19.95358]],[[-44.22584,-20.01792],[-44.22355,-20.01699],[-44.22475,-20.01747],[-44.22584,-20.01792]],[[-44.22584,-20.01792],[-44.22568,-20.01823],[-44.2232,-20.02088],[-44.22584,-20.01792]],[[-44.22321,-19.92886],[-44.22323,-19.92875],[-44.22373,-19.92912],[-44.22321,-19.92886]],[[-44.22349,-20.03808],[-44.22324,-20.03772],[-44.22351,-20.03809],[-44.22349,-20.03808]],[[-44.22379,-19.95063],[-44.22367,-19.95065],[-44.22366,-19.95055],[-44.22379,-19.95063]],[[-44.22408,-19.95028],[-44.22395,-19.95061],[-44.2238,-19.95063],[-44.22408,-19.95028]],[[-44.22404,-19.95313],[-44.22578,-19.95205],[-44.22394,-19.95324],[-44.22404,-19.95313]],[[-44.22551,-19.97498],[-44.22529,-19.9743],[-44.22532,-19.97432],[-44.22551,-19.97498]],[[-44.22568,-19.97425],[-44.22565,-19.97426],[-44.22676,-19.97156],[-44.22568,-19.97425]],[[-44.226,-19.90828],[-44.22597,-19.90748],[-44.22611,-19.90855],[-44.226,-19.90828]],[[-44.22652,-19.9781],[-44.22602,-19.97703],[-44.22652,-19.97788],[-44.22652,-19.9781]],[[-44.22607,-20.0209],[-44.22676,-20.02277],[-44.22607,-20.02092],[-44.22607,-20.0209]],[[-44.22647,-20.0099],[-44.22643,-20.00998],[-44.22629,-20.00875],[-44.22647,-20.0099]],[[-44.22878,-19.94948],[-44.22901,-19.94952],[-44.22787,-19.9497],[-44.22878,-19.94948]],[[-44.22787,-19.9497],[-44.22707,-19.95028],[-44.22712,-19.95021],[-44.22787,-19.9497]],[[-44.22731,-19.89327],[-44.22857,-19.89596],[-44.22726,-19.8932],[-44.22731,-19.89327]],[[-44.22799,-19.94886],[-44.22746,-19.94954],[-44.22763,-19.94916],[-44.22799,-19.94886]],[[-44.22753,-19.94473],[-44.2283,-19.94467],[-44.22843,-19.94473],[-44.22753,-19.94473]],[[-44.22874,-19.94844],[-44.22827,-19.94863],[-44.2285,-19.94844],[-44.22874,-19.94844]],[[-44.22982,-19.97071],[-44.22834,-19.97115],[-44.23006,-19.97056],[-44.22982,-19.97071]],[[-44.2286,-19.94482],[-44.22883,-19.94493],[-44.22885,-19.945],[-44.2286,-19.94482]],[[-44.22899,-19.94549],[-44.22911,-19.94592],[-44.22905,-19.94673],[-44.22899,-19.94549]],[[-44.22975,-19.93468],[-44.22911,-19.9344],[-44.22972,-19.93455],[-44.22975,-19.93468]],[[-44.22939,-19.94752],[-44.23008,-19.94806],[-44.23007,-19.94812],[-44.22939,-19.94752]],[[-44.22948,-19.93684],[-44.22946,-19.93697],[-44.22944,-19.93686],[-44.22948,-19.93684]],[[-44.22988,-19.93526],[-44.23,-19.9358],[-44.22979,-19.93488],[-44.22988,-19.93526]],[[-44.22997,-20.00167],[-44.23094,-19.99873],[-44.23029,-20.00105],[-44.22997,-20.00167]],[[-44.23006,-19.94971],[-44.23122,-19.94991],[-44.23112,-19.94996],[-44.23006,-19.94971]],[[-44.23037,-19.97037],[-44.23027,-19.97044],[-44.23026,-19.97013],[-44.23037,-19.97037]],[[-44.23289,-19.93688],[-44.23306,-19.9369],[-44.23064,-19.93792],[-44.23289,-19.93688]],[[-44.23152,-19.93576],[-44.23159,-19.93605],[-44.23156,-19.9361],[-44.23152,-19.93576]],[[-44.23647,-20.03059],[-44.23605,-20.03023],[-44.23464,-20.02861],[-44.23647,-20.03059]],[[-44.23464,-20.02861],[-44.23253,-20.02689],[-44.23167,-20.02593],[-44.23464,-20.02861]],[[-44.2317,-19.9681],[-44.23227,-19.96757],[-44.23264,-19.96742],[-44.2317,-19.9681]],[[-44.23247,-19.98261],[-44.23217,-19.98254],[-44.23186,-19.98241],[-44.23247,-19.98261]],[[-44.23212,-19.94969],[-44.23211,-19.94971],[-44.23201,-19.94952],[-44.23212,-19.94969]],[[-44.23345,-19.93239],[-44.23482,-19.93098],[-44.23654,-19.92949],[-44.23345,-19.93239]],[[-44.23817,-20.0249],[-44.237,-20.02425],[-44.23436,-20.02216],[-44.23817,-20.0249]],[[-44.23559,-20.01978],[-44.23494,-20.02214],[-44.23531,-20.02068],[-44.23559,-20.01978]],[[-44.23672,-19.96889],[-44.2361,-19.9684],[-44.23708,-19.96896],[-44.23672,-19.96889]],[[-44.23695,-19.9612],[-44.23685,-19.96114],[-44.23659,-19.96051],[-44.23695,-19.9612]],[[-44.23892,-20.03216],[-44.23703,-20.03107],[-44.23683,-20.0309],[-44.23892,-20.03216]],[[-44.23788,-19.92832],[-44.23798,-19.92824],[-44.23802,-19.92822],[-44.23788,-19.92832]],[[-44.23999,-19.96761],[-44.2393,-19.96767],[-44.24084,-19.96727],[-44.23999,-19.96761]],[[-44.24008,-19.89479],[-44.24058,-19.89418],[-44.23998,-19.89504],[-44.24008,-19.89479]],[[-44.24077,-19.96261],[-44.24073,-19.96265],[-44.24055,-19.96266],[-44.24077,-19.96261]],[[-44.24074,-19.96696],[-44.24226,-19.96672],[-44.2411,-19.96697],[-44.24074,-19.96696]],[[-44.24075,-19.96265],[-44.24114,-19.96253],[-44.24136,-19.9626],[-44.24075,-19.96265]],[[-44.2418,-19.95617],[-44.24126,-19.95712],[-44.24136,-19.95677],[-44.2418,-19.95617]],[[-44.24654,-19.94205],[-44.24589,-19.94181],[-44.24208,-19.94028],[-44.24654,-19.94205]],[[-44.24244,-19.96577],[-44.24261,-19.9658],[-44.24234,-19.96585],[-44.24244,-19.96577]],[[-44.24543,-19.91733],[-44.2452,-19.91762],[-44.24326,-19.91919],[-44.24543,-19.91733]],[[-44.24326,-19.91919],[-44.24244,-19.92051],[-44.24246,-19.92041],[-44.24326,-19.91919]],[[-44.24431,-20.0303],[-44.24423,-20.03029],[-44.24436,-20.02991],[-44.24431,-20.0303]],[[-44.24499,-19.93525],[-44.24579,-19.93523],[-44.2479,-19.93958],[-44.24569,-19.93524],[-44.24499,-19.93525]],[[-44.2457,-19.93505],[-44.24558,-19.93484],[-44.24562,-19.93489],[-44.2457,-19.93505]],[[-44.24633,-19.91618],[-44.24718,-19.91497],[-44.24717,-19.9151],[-44.24633,-19.91618]],[[-44.24654,-20.03655],[-44.24742,-20.03693],[-44.24689,-20.03676],[-44.24654,-20.03655]],[[-44.24719,-19.91482],[-44.24702,-19.91446],[-44.2472,-19.91477],[-44.24719,-19.91482]],[[-44.24721,-19.94225],[-44.24709,-19.94225],[-44.24702,-19.94223],[-44.24721,-19.94225]],[[-44.24802,-19.94217],[-44.24788,-19.94225],[-44.24775,-19.94225],[-44.24802,-19.94217]],[[-44.24929,-19.94096],[-44.24936,-19.94093],[-44.24825,-19.94205],[-44.24929,-19.94096]],[[-44.24986,-19.96675],[-44.25004,-19.96685],[-44.24853,-19.96676],[-44.24986,-19.96675]],[[-44.24996,-19.94079],[-44.24948,-19.94087],[-44.2497,-19.94077],[-44.24996,-19.94079]],[[-44.2496,-19.91538],[-44.24972,-19.91536],[-44.24968,-19.9154],[-44.2496,-19.91538]],[[-44.24981,-19.89183],[-44.25007,-19.89126],[-44.24987,-19.89201],[-44.24981,-19.89183]],[[-44.25015,-19.89278],[-44.25012,-19.89272],[-44.25031,-19.8929],[-44.25015,-19.89278]],[[-44.25071,-19.94096],[-44.25035,-19.94081],[-44.25052,-19.94083],[-44.25071,-19.94096]],[[-44.25152,-19.90401],[-44.25157,-19.90352],[-44.25158,-19.90564],[-44.25152,-19.90401]],[[-44.2556,-19.94135],[-44.2531,-19.94225],[-44.2555,-19.94136],[-44.2556,-19.94135]],[[-44.2531,-19.94225],[-44.25233,-19.94209],[-44.25224,-19.94202],[-44.2531,-19.94225]],[[-44.25352,-19.88486],[-44.25322,-19.88444],[-44.2533,-19.88449],[-44.25352,-19.88486]],[[-44.25631,-19.94083],[-44.25777,-19.94115],[-44.25616,-19.94127],[-44.25722,-19.94112],[-44.25631,-19.94083]],[[-44.25967,-19.94095],[-44.2599,-19.94108],[-44.25954,-19.94093],[-44.25967,-19.94095]],[[-44.26064,-19.9415],[-44.26242,-19.94252],[-44.26192,-19.94236],[-44.26064,-19.9415]],[[-44.26258,-19.94257],[-44.26402,-19.94228],[-44.26266,-19.94259],[-44.26258,-19.94257]],[[-44.26302,-19.9185],[-44.26299,-19.91839],[-44.26308,-19.9185],[-44.26302,-19.9185]],[[-44.26766,-19.90819],[-44.2687,-19.90826],[-44.26302,-19.90815],[-44.26766,-19.90819]],[[-44.26426,-19.93453],[-44.26341,-19.935],[-44.26431,-19.9345],[-44.26426,-19.93453]],[[-44.26396,-19.91862],[-44.26373,-19.91859],[-44.26425,-19.91856],[-44.26396,-19.91862]],[[-44.26454,-19.94217],[-44.26649,-19.94228],[-44.26449,-19.94218],[-44.26454,-19.94217]],[[-44.26874,-19.92893],[-44.26874,-19.92888],[-44.26985,-19.93162],[-44.26874,-19.92893]],[[-44.2691,-19.89462],[-44.26939,-19.89465],[-44.26952,-19.89476],[-44.2691,-19.89462]],[[-44.26929,-19.97048],[-44.2694,-19.97087],[-44.26936,-19.97084],[-44.26929,-19.97048]],[[-44.26944,-19.95181],[-44.26938,-19.95171],[-44.26938,-19.95166],[-44.26944,-19.95181]],[[-44.27052,-19.95354],[-44.26982,-19.95241],[-44.27007,-19.95267],[-44.27052,-19.95354]],[[-44.27074,-19.89586],[-44.27029,-19.8954],[-44.27107,-19.89604],[-44.27074,-19.89586]],[[-44.27074,-19.9727],[-44.27155,-19.97278],[-44.27137,-19.97285],[-44.27074,-19.9727]],[[-44.27118,-19.93482],[-44.27114,-19.93473],[-44.27127,-19.93484],[-44.27118,-19.93482]],[[-44.27126,-19.91572],[-44.27172,-19.91037],[-44.27128,-19.91583],[-44.27126,-19.91572]],[[-44.27139,-19.90815],[-44.27137,-19.9084],[-44.27134,-19.90825],[-44.27139,-19.90815]],[[-44.27137,-19.9163],[-44.2715,-19.91656],[-44.27139,-19.91644],[-44.27137,-19.9163]],[[-44.27192,-19.9073],[-44.27168,-19.90753],[-44.27171,-19.90747],[-44.27192,-19.9073]],[[-44.27172,-19.97273],[-44.27207,-19.97204],[-44.27187,-19.97267],[-44.27172,-19.97273]],[[-44.27281,-19.9408],[-44.27337,-19.94012],[-44.27319,-19.94042],[-44.27281,-19.9408]],[[-44.27337,-19.93647],[-44.27324,-19.93592],[-44.27328,-19.93597],[-44.27337,-19.93647]],[[-44.27496,-19.93969],[-44.27504,-19.93965],[-44.27418,-19.94066],[-44.27496,-19.93969]],[[-44.27426,-19.89835],[-44.27483,-19.89893],[-44.27555,-19.90006],[-44.27426,-19.89835]],[[-44.27571,-19.93933],[-44.27579,-19.93934],[-44.27547,-19.93944],[-44.27571,-19.93933]],[[-44.27611,-19.9039],[-44.27605,-19.9041],[-44.27601,-19.90413],[-44.27611,-19.9039]],[[-44.28003,-19.89408],[-44.27994,-19.89427],[-44.27651,-19.89806],[-44.28003,-19.89408]],[[-44.27651,-19.89806],[-44.27625,-19.89906],[-44.27625,-19.89889],[-44.27651,-19.89806]],[[-44.27632,-19.9032],[-44.27629,-19.90189],[-44.27629,-19.90161],[-44.27632,-19.9032]],[[-44.27783,-19.94031],[-44.27786,-19.94039],[-44.27673,-19.93949],[-44.27783,-19.94031]],[[-44.28343,-19.91055],[-44.28352,-19.91058],[-44.28254,-19.91062],[-44.28343,-19.91055]],[[-44.29805,-19.94503],[-44.29595,-19.94553],[-44.29567,-19.94553],[-44.29805,-19.94503]]]}}]}