{"type":"FeatureCollection","features":[{"type":"Feature","properties":{"municipio":"PARA DE MINAS"},"geometry":{"type":"Polygon","coordinates":[[[-44.6129,-19.94287],[-44.61494,-19.94049],[-44.61672,-19.93714],[-44.61879,-19.93572],[-44.62037,-19.936],[-44.62086,-19.93683],[-44.6215,-19.94027],[-44.62242,-19.94207],[-44.62337,-19.94313],[-44.62449,-19.94345],[-44.62548,-19.94295],[-44.6257,-19.94191],[-44.62756,-19.94006],[-44.6348,-19.93918],[-44.63903,-19.93654],[-44.64108,-19.93377],[-44.64177,-19.93195],[-44.64107,-19.92837],[-44.63826,-19.92576],[-44.63826,-19.92482],[-44.63984,-19.92358],[-44.64368,-19.92318],[-44.645,-19.92242],[-44.6458,-19.92075],[-44.64515,-19.91902],[-44.64527,-19.91764],[-44.6491,-19.91255],[-44.65015,-19.91225],[-44.65301,-19.9126],[-44.65403,-19.91217],[-44.65414,-19.90714],[-44.6548,-19.90581],[-44.65741,-19.90319],[-44.65819,-19.90188],[-44.65902,-19.89807],[-44.66005,-19.89555],[-44.65998,-19.89463],[-44.65838,-19.89276],[-44.65872,-19.89145],[-44.65977,-19.89152],[-44.66304,-19.8936],[-44.66635,-19.89269],[-44.67084,-19.8935],[-44.67337,-19.89263],[-44.67424,-19.89128],[-44.67437,-19.88925],[-44.67508,-19.88755],[-44.6826,-19.88123],[-44.68255,-19.88022],[-44.68076,-19.87856],[-44.68093,-19.87764],[-44.68173,-19.87707],[-44.68589,-19.87714],[-44.68662,-19.87657],[-44.68684,-19.87565],[-44.68575,-19.87284],[-44.68587,-19.87078],[-44.68646,-19.86995],[-44.68748,-19.86995],[-44.68915,-19.87152],[-44.69204,-19.87327],[-44.69296,-19.87444],[-44.69497,-19.87527],[-44.69611,-19.87677],[-44.70038,-19.87944],[-44.70611,-19.88495],[-44.70933,-19.88638],[-44.71118,-19.88558],[-44.71611,-19.88453],[-44.719,-19.88506],[-44.72092,-19.88637],[-44.72168,-19.88559],[-44.72318,-19.88518],[-44.72775,-19.88544],[-44.73059,-19.88469],[-44.73117,-19.88489],[-44.73087,-19.88398],[-44.73144,-19.88515],[-44.73199,-19.88874],[-44.73196,-19.8922],[-44.73262,-19.89441],[-44.73371,-19.89549],[-44.73562,-19.89637],[-44.73815,-19.89656],[-44.73992,-19.89743],[-44.74257,-19.89776],[-44.74515,-19.89634],[-44.7461,-19.89409],[-44.74839,-19.89223],[-44.75091,-19.89203],[-44.75327,-19.89109],[-44.75534,-19.89107],[-44.75743,-19.89001],[-44.75862,-19.88799],[-44.75846,-19.88181],[-44.75927,-19.87947],[-44.76315,-19.8784],[-44.76714,-19.87629],[-44.76819,-19.87532],[-44.7696,-19.87254],[-44.77116,-19.87078],[-44.7757,-19.86885],[-44.77774,-19.86932],[-44.77932,-19.86764],[-44.78027,-19.8675],[-44.78078,-19.86672],[-44.7803,-19.86587],[-44.78127,-19.86438],[-44.78249,-19.86381],[-44.78237,-19.86291],[-44.78271,-19.86259],[-44.78392,-19.86335],[-44.78499,-19.86255],[-44.78455,-19.8613],[-44.78599,-19.85876],[-44.78577,-19.85791],[-44.78522,-19.858],[-44.78495,-19.85761],[-44.78629,-19.85276],[-44.78556,-19.85209],[-44.78588,-19.85062],[-44.78487,-19.84805],[-44.78399,-19.84692],[-44.78465,-19.84623],[-44.78601,-19.84602],[-44.7864,-19.84368],[-44.78784,-19.84116],[-44.78616,-19.84044],[-44.78551,-19.83924],[-44.78218,-19.8388],[-44.78299,-19.8352],[-44.78374,-19.83393],[-44.78362,-19.83345],[-44.78239,-19.83258],[-44.78246,-19.83212],[-44.78385,-19.8315],[-44.78426,-19.83021],[-44.78344,-19.82897],[-44.78244,-19.82837],[-44.78181,-19.82711],[-44.7824,-19.82561],[-44.78403,-19.82394],[-44.78498,-19.8218],[-44.78481,-19.81978],[-44.78336,-19.81562],[-44.78394,-19.81436],[-44.78625,-19.8125],[-44.78635,-19.81206],[-44.78509,-19.80898],[-44.78539,-19.80659],[-44.78437,-19.80404],[-44.7833,-19.803],[-44.78056,-19.80231],[-44.77853,-19.80042],[-44.77665,-19.80102],[-44.77627,-19.80067],[-44.77697,-19.7989],[-44.77659,-19.79812],[-44.77693,-19.79684],[-44.77666,-19.79647],[-44.77518,-19.79614],[-44.77312,-19.79265],[-44.77368,-19.79063],[-44.7767,-19.78992],[-44.77822,-19.79026],[-44.77864,-19.79001],[-44.7793,-19.78772],[-44.78085,-19.78641],[-44.78331,-19.78542],[-44.7837,-19.78457],[-44.78355,-19.78345],[-44.78392,-19.78313],[-44.78491,-19.78336],[-44.78525,-19.78299],[-44.78571,-19.78175],[-44.78487,-19.78129],[-44.78436,-19.78046],[-44.78399,-19.7791],[-44.78412,-19.77669],[-44.7833,-19.77595],[-44.78048,-19.77657],[-44.77997,-19.77476],[-44.78047,-19.77156],[-44.77869,-19.77131],[-44.7758,-19.77227],[-44.77128,-19.7755],[-44.77121,-19.77598],[-44.77203,-19.77716],[-44.77181,-19.77755],[-44.76992,-19.77697],[-44.76754,-19.77745],[-44.76732,-19.77832],[-44.76683,-19.77821],[-44.76671,-19.77867],[-44.76722,-19.77945],[-44.76821,-19.77945],[-44.76848,-19.77984],[-44.76739,-19.78124],[-44.76651,-19.78083],[-44.7651,-19.78126],[-44.76506,-19.78036],[-44.76428,-19.77972],[-44.76409,-19.77836],[-44.76319,-19.7779],[-44.76172,-19.77551],[-44.76026,-19.77719],[-44.75844,-19.77638],[-44.7578,-19.77702],[-44.75688,-19.77688],[-44.75652,-19.77817],[-44.75739,-19.77856],[-44.75787,-19.77985],[-44.75765,-19.78029],[-44.75671,-19.7804],[-44.75513,-19.78129],[-44.75328,-19.78078],[-44.75343,-19.78216],[-44.75175,-19.78161],[-44.75204,-19.78251],[-44.75078,-19.78347],[-44.74978,-19.78322],[-44.74971,-19.78413],[-44.7491,-19.78485],[-44.74636,-19.78438],[-44.74507,-19.78498],[-44.74463,-19.78629],[-44.74368,-19.78638],[-44.74162,-19.78483],[-44.73961,-19.78444],[-44.73908,-19.78373],[-44.73728,-19.78444],[-44.73565,-19.78453],[-44.73526,-19.7854],[-44.73351,-19.78599],[-44.73259,-19.78585],[-44.72826,-19.78858],[-44.72564,-19.78899],[-44.7243,-19.78961],[-44.7238,-19.78956],[-44.7203,-19.78687],[-44.71632,-19.78684],[-44.71557,-19.78734],[-44.71523,-19.78927],[-44.71467,-19.79015],[-44.71306,-19.79138],[-44.71063,-19.79253],[-44.70968,-19.79246],[-44.7092,-19.79073],[-44.70799,-19.78977],[-44.70724,-19.78809],[-44.70785,-19.78636],[-44.70077,-19.78279],[-44.69982,-19.78297],[-44.69924,-19.78368],[-44.69834,-19.78338],[-44.69483,-19.77963],[-44.69359,-19.77747],[-44.69462,-19.77584],[-44.69329,-19.77368],[-44.6911,-19.77278],[-44.68882,-19.77378],[-44.68795,-19.77353],[-44.68691,-19.77118],[-44.68781,-19.76907],[-44.68754,-19.76815],[-44.68623,-19.76785],[-44.68563,-19.76854],[-44.68519,-19.76838],[-44.68388,-19.76527],[-44.68255,-19.76449],[-44.68151,-19.76283],[-44.67881,-19.75497],[-44.67809,-19.74911],[-44.67657,-19.74646],[-44.67012,-19.74142],[-44.66653,-19.7404],[-44.66027,-19.74073],[-44.65712,-19.74024],[-44.65435,-19.7392],[-44.65278,-19.73911],[-44.64641,-19.74045],[-44.64309,-19.74017],[-44.6396,-19.738],[-44.63949,-19.73559],[-44.63748,-19.73112],[-44.63729,-19.7289],[-44.63515,-19.73052],[-44.63248,-19.73157],[-44.631,-19.73178],[-44.62586,-19.73103],[-44.62331,-19.73171],[-44.62085,-19.73281],[-44.61922,-19.73471],[-44.61815,-19.7374],[-44.61841,-19.73885],[-44.62126,-19.74315],[-44.62172,-19.74495],[-44.6215,-19.74711],[-44.61921,-19.74977],[-44.61808,-19.75328],[-44.61643,-19.75649],[-44.61666,-19.75785],[-44.61887,-19.76091],[-44.61923,-19.76284],[-44.6181,-19.76571],[-44.6164,-19.76817],[-44.61238,-19.77172],[-44.61138,-19.77438],[-44.61072,-19.77519],[-44.60717,-19.77798],[-44.60625,-19.77917],[-44.6059,-19.78009],[-44.60607,-19.78101],[-44.60808,-19.78451],[-44.60817,-19.78809],[-44.60629,-19.78981],[-44.60039,-19.79164],[-44.59975,-19.7923],[-44.5989,-19.79471],[-44.59776,-19.79545],[-44.59288,-19.79298],[-44.58936,-19.79295],[-44.58813,-19.79216],[-44.58713,-19.79089],[-44.58549,-19.78997],[-44.58299,-19.78962],[-44.58143,-19.78987],[-44.58005,-19.7895],[-44.57716,-19.78843],[-44.57258,-19.78599],[-44.5673,-19.78136],[-44.56503,-19.77776],[-44.56669,-19.77487],[-44.5665,-19.77345],[-44.56691,-19.77214],[-44.56619,-19.77074],[-44.5642,-19.77105],[-44.56322,-19.77206],[-44.56133,-19.77275],[-44.56031,-19.77173],[-44.5576,-19.77021],[-44.55712,-19.7694],[-44.55448,-19.7674],[-44.55166,-19.7664],[-44.55018,-19.76658],[-44.54737,-19.76611],[-44.54715,-19.76386],[-44.54605,-19.76043],[-44.54515,-19.76013],[-44.54377,-19.76059],[-44.54297,-19.75951],[-44.54161,-19.75914],[-44.54013,-19.75975],[-44.53879,-19.76117],[-44.53763,-19.76032],[-44.53739,-19.75701],[-44.53857,-19.75341],[-44.53845,-19.75189],[-44.53758,-19.75163],[-44.53624,-19.75253],[-44.53534,-19.75225],[-44.53454,-19.75289],[-44.53316,-19.75282],[-44.53197,-19.75359],[-44.53051,-19.75391],[-44.52976,-19.75329],[-44.52913,-19.75106],[-44.5288,-19.75071],[-44.5278,-19.7508],[-44.52773,-19.74991],[-44.52881,-19.74768],[-44.52864,-19.74678],[-44.52745,-19.74749],[-44.52706,-19.74724],[-44.52721,-19.74591],[-44.52646,-19.7454],[-44.52459,-19.74567],[-44.52374,-19.74509],[-44.5227,-19.74511],[-44.52175,-19.74465],[-44.51908,-19.74552],[-44.51821,-19.74515],[-44.51698,-19.7425],[-44.51596,-19.74241],[-44.51494,-19.74146],[-44.51274,-19.74072],[-44.51218,-19.7384],[-44.51338,-19.73571],[-44.51591,-19.73409],[-44.51706,-19.73248],[-44.5136,-19.72847],[-44.51363,-19.72778],[-44.51514,-19.726],[-44.51385,-19.72448],[-44.5135,-19.72215],[-44.51316,-19.72183],[-44.51219,-19.72197],[-44.51134,-19.72153],[-44.50884,-19.72131],[-44.50799,-19.72083],[-44.50637,-19.72096],[-44.50613,-19.72006],[-44.50679,-19.71784],[-44.50553,-19.71648],[-44.50277,-19.71553],[-44.50255,-19.71504],[-44.50312,-19.71238],[-44.50208,-19.71123],[-44.50206,-19.71072],[-44.50311,-19.70751],[-44.503,-19.70514],[-44.50239,-19.70443],[-44.50191,-19.7042],[-44.50111,-19.70456],[-44.50154,-19.70624],[-44.50107,-19.70654],[-44.49986,-19.70548],[-44.49857,-19.70503],[-44.49841,-19.70706],[-44.49738,-19.70981],[-44.49477,-19.71239],[-44.49227,-19.71302],[-44.48765,-19.71077],[-44.48029,-19.70987],[-44.47492,-19.70696],[-44.47391,-19.70689],[-44.47209,-19.70755],[-44.47089,-19.70881],[-44.47072,-19.71001],[-44.47371,-19.71158],[-44.4739,-19.71247],[-44.47132,-19.71377],[-44.46909,-19.71627],[-44.46844,-19.71827],[-44.4678,-19.72303],[-44.46705,-19.7245],[-44.46599,-19.72534],[-44.46438,-19.72535],[-44.45959,-19.72637],[-44.45834,-19.72725],[-44.45656,-19.7304],[-44.45447,-19.73272],[-44.45098,-19.7343],[-44.44539,-19.73479],[-44.44148,-19.73313],[-44.44036,-19.73324],[-44.43993,-19.73385],[-44.43968,-19.73623],[-44.43466,-19.73963],[-44.43359,-19.74131],[-44.43323,-19.74366],[-44.43357,-19.74568],[-44.43561,-19.74795],[-44.44306,-19.7522],[-44.44357,-19.75295],[-44.44289,-19.75891],[-44.44489,-19.76399],[-44.44502,-19.76518],[-44.44058,-19.76673],[-44.43922,-19.76758],[-44.43911,-19.76806],[-44.44067,-19.77133],[-44.44221,-19.7718],[-44.44257,-19.77274],[-44.44356,-19.77352],[-44.44418,-19.77522],[-44.44393,-19.77783],[-44.44266,-19.77985],[-44.44223,-19.78178],[-44.44492,-19.7829],[-44.44605,-19.78246],[-44.44641,-19.78336],[-44.44789,-19.78369],[-44.44802,-19.78617],[-44.44754,-19.78705],[-44.44645,-19.78785],[-44.44668,-19.78911],[-44.44848,-19.7887],[-44.44956,-19.78903],[-44.45154,-19.79076],[-44.45206,-19.7917],[-44.45335,-19.79163],[-44.45359,-19.79315],[-44.45631,-19.79289],[-44.46011,-19.79603],[-44.45979,-19.79799],[-44.46148,-19.79954],[-44.46108,-19.8013],[-44.46301,-19.80508],[-44.46364,-19.80841],[-44.46349,-19.80994],[-44.46441,-19.81143],[-44.46734,-19.81137],[-44.46844,-19.8103],[-44.47103,-19.81046],[-44.4739,-19.80953],[-44.47463,-19.80885],[-44.47912,-19.80688],[-44.48141,-19.80757],[-44.48261,-19.80927],[-44.48451,-19.81651],[-44.4829,-19.81881],[-44.48303,-19.82451],[-44.48211,-19.8271],[-44.48192,-19.83014],[-44.48135,-19.83176],[-44.48195,-19.83388],[-44.48169,-19.83563],[-44.48305,-19.83664],[-44.48491,-19.83673],[-44.48513,-19.83783],[-44.48632,-19.83843],[-44.4868,-19.8395],[-44.48678,-19.84133],[-44.48873,-19.84132],[-44.49323,-19.84459],[-44.49558,-19.84489],[-44.49692,-19.84429],[-44.4979,-19.8446],[-44.49873,-19.84571],[-44.49934,-19.84755],[-44.50034,-19.8474],[-44.50127,-19.84809],[-44.50465,-19.84849],[-44.50761,-19.8494],[-44.50765,-19.85117],[-44.50852,-19.85156],[-44.50927,-19.8528],[-44.50951,-19.85519],[-44.50916,-19.8566],[-44.50955,-19.85745],[-44.51156,-19.85959],[-44.51207,-19.85977],[-44.51355,-19.85937],[-44.51481,-19.86015],[-44.51527,-19.86243],[-44.51599,-19.86367],[-44.51549,-19.86893],[-44.51638,-19.87167],[-44.51646,-19.87507],[-44.51729,-19.87558],[-44.51945,-19.876],[-44.52049,-19.87687],[-44.51878,-19.87979],[-44.51773,-19.88066],[-44.518,-19.88279],[-44.5175,-19.88739],[-44.51798,-19.88923],[-44.51726,-19.89258],[-44.51653,-19.89322],[-44.51829,-19.89718],[-44.51962,-19.89787],[-44.52307,-19.89848],[-44.5266,-19.89704],[-44.5281,-19.89741],[-44.52905,-19.897],[-44.53775,-19.89746],[-44.5411,-19.89706],[-44.54005,-19.90073],[-44.53754,-19.90358],[-44.53481,-19.90513],[-44.53366,-19.90724],[-44.53121,-19.90753],[-44.53043,-19.90827],[-44.52949,-19.91199],[-44.52604,-19.91251],[-44.52328,-19.91659],[-44.52287,-19.9182],[-44.52269,-19.92137],[-44.52348,-19.9242],[-44.52123,-19.92947],[-44.52086,-19.93131],[-44.52143,-19.93304],[-44.52347,-19.93534],[-44.52412,-19.93667],[-44.52445,-19.94015],[-44.52706,-19.94406],[-44.52658,-19.94921],[-44.52672,-19.95258],[-44.52747,-19.95332],[-44.53235,-19.9537],[-44.53325,-19.95421],[-44.53618,-19.95785],[-44.54188,-19.96742],[-44.54997,-19.96956],[-44.55,-19.97059],[-44.5506,-19.97191],[-44.5497,-19.97298],[-44.54984,-19.97507],[-44.54896,-19.97684],[-44.54912,-19.97983],[-44.54834,-19.98109],[-44.54673,-19.98182],[-44.54631,-19.98256],[-44.54728,-19.98355],[-44.54915,-19.98397],[-44.55162,-19.98744],[-44.55251,-19.98638],[-44.55177,-19.9874],[-44.55257,-19.98696],[-44.55285,-19.98441],[-44.55419,-19.98336],[-44.55458,-19.98108],[-44.5566,-19.97976],[-44.55704,-19.97888],[-44.55712,-19.97785],[-44.55649,-19.97615],[-44.55674,-19.97397],[-44.55777,-19.97349],[-44.56034,-19.97361],[-44.5629,-19.9721],[-44.56402,-19.97203],[-44.56562,-19.97254],[-44.56736,-19.97386],[-44.56853,-19.97544],[-44.56943,-19.97515],[-44.57225,-19.97221],[-44.57248,-19.96971],[-44.57304,-19.96833],[-44.57293,-19.96688],[-44.57422,-19.96491],[-44.57644,-19.96283],[-44.58317,-19.9608],[-44.58598,-19.95766],[-44.58994,-19.95636],[-44.59546,-19.95527],[-44.59709,-19.95545],[-44.59876,-19.95663],[-44.59971,-19.95647],[-44.60154,-19.9548],[-44.60249,-19.95195],[-44.60608,-19.94775],[-44.60676,-19.94578],[-44.60939,-19.94491],[-44.6129,-19.94287]],[[-44.48451,-19.81651],[-44.48474,-19.81697],[-44.4847,-19.81714],[-44.48451,-19.81651]],[[-44.46295,-19.72677],[-44.46297,-19.72679],[-44.4625,-19.72854],[-44.46295,-19.72677]],[[-44.46887,-19.72767],[-44.46889,-19.72778],[-44.46877,-19.72756],[-44.46887,-19.72767]],[[-44.46909,-19.7285],[-44.46892,-19.72948],[-44.469,-19.72816],[-44.46909,-19.7285]],[[-44.48455,-19.71866],[-44.48432,-19.71985],[-44.48448,-19.71873],[-44.48455,-19.71866]],[[-44.48688,-19.72202],[-44.4869,-19.72208],[-44.48553,-19.7227],[-44.48688,-19.72202]],[[-44.4977,-19.82017],[-44.49644,-19.81935],[-44.49791,-19.82019],[-44.4977,-19.82017]],[[-44.49805,-19.82021],[-44.49896,-19.81991],[-44.49824,-19.82024],[-44.49805,-19.82021]],[[-44.50327,-19.8091],[-44.50338,-19.80899],[-44.50321,-19.80927],[-44.50327,-19.8091]],[[-44.5121,-19.79587],[-44.51264,-19.79564],[-44.51182,-19.7961],[-44.5121,-19.79587]],[[-44.51353,-19.79594],[-44.5137,-19.7961],[-44.51336,-19.79589],[-44.51353,-19.79594]],[[-44.51423,-19.79663],[-44.51498,-19.79785],[-44.5141,-19.7965],[-44.51423,-19.79663]],[[-44.51694,-19.85163],[-44.51735,-19.85102],[-44.51728,-19.85122],[-44.51694,-19.85163]],[[-44.51756,-19.85033],[-44.51781,-19.8494],[-44.51782,-19.8495],[-44.51756,-19.85033]],[[-44.54912,-19.77168],[-44.55041,-19.76728],[-44.55004,-19.76883],[-44.54912,-19.77168]],[[-44.55433,-19.86832],[-44.55469,-19.86773],[-44.55486,-19.86762],[-44.55433,-19.86832]],[[-44.55499,-19.89953],[-44.55916,-19.89836],[-44.55469,-19.89963],[-44.55499,-19.89953]],[[-44.55538,-19.8673],[-44.55546,-19.86729],[-44.55521,-19.86741],[-44.55538,-19.8673]],[[-44.56162,-19.79294],[-44.56159,-19.79285],[-44.56163,-19.79217],[-44.56162,-19.79294]],[[-44.56199,-19.79645],[-44.56222,-19.79453],[-44.56224,-19.79496],[-44.56199,-19.79645]],[[-44.56326,-19.79236],[-44.56329,-19.79263],[-44.56324,-19.79288],[-44.56326,-19.79236]],[[-44.56324,-19.79288],[-44.56251,-19.79273],[-44.56243,-19.79268],[-44.56324,-19.79288]],[[-44.56447,-19.8815],[-44.56455,-19.88162],[-44.56255,-19.88032],[-44.56447,-19.8815]],[[-44.56316,-19.79165],[-44.56261,-19.78984],[-44.56312,-19.79139],[-44.56316,-19.79165]],[[-44.57506,-19.86081],[-44.57458,-19.86119],[-44.56693,-19.86692],[-44.57506,-19.86081]],[[-44.56693,-19.86692],[-44.56486,-19.86789],[-44.56272,-19.86888],[-44.56693,-19.86692]],[[-44.56678,-19.88471],[-44.56683,-19.88488],[-44.56612,-19.88351],[-44.56678,-19.88471]],[[-44.56694,-19.88651],[-44.5666,-19.88691],[-44.56706,-19.88605],[-44.56694,-19.88651]],[[-44.56694,-19.87379],[-44.56961,-19.87246],[-44.56695,-19.8738],[-44.56694,-19.87379]],[[-44.56712,-19.88581],[-44.56711,-19.88586],[-44.56702,-19.88549],[-44.56712,-19.88581]],[[-44.57125,-19.86962],[-44.5714,-19.86958],[-44.5712,-19.86978],[-44.57125,-19.86962]],[[-44.57284,-19.8453],[-44.57276,-19.84515],[-44.57321,-19.84567],[-44.57284,-19.8453]],[[-44.57431,-19.85773],[-44.57636,-19.85253],[-44.57636,-19.85263],[-44.57431,-19.85773]],[[-44.57649,-19.87634],[-44.57636,-19.87674],[-44.5755,-19.87766],[-44.57649,-19.87634]],[[-44.57636,-19.85241],[-44.57576,-19.85065],[-44.57636,-19.85211],[-44.57636,-19.85241]],[[-44.57691,-19.89129],[-44.5761,-19.89068],[-44.57597,-19.89044],[-44.57691,-19.89129]],[[-44.57739,-19.85883],[-44.57695,-19.85932],[-44.57602,-19.86005],[-44.57739,-19.85883]],[[-44.57697,-19.88974],[-44.57708,-19.88972],[-44.57747,-19.88989],[-44.57697,-19.88974]],[[-44.57757,-19.8031],[-44.57708,-19.80399],[-44.57703,-19.80399],[-44.57757,-19.8031]],[[-44.57726,-19.85848],[-44.57724,-19.8584],[-44.57734,-19.8583],[-44.57726,-19.85848]],[[-44.57784,-19.85814],[-44.57746,-19.85819],[-44.57751,-19.85814],[-44.57784,-19.85814]],[[-44.57879,-19.87407],[-44.58088,-19.87565],[-44.58082,-19.87568],[-44.57879,-19.87407]],[[-44.57879,-19.87407],[-44.57875,-19.87408],[-44.5791,-19.87372],[-44.57879,-19.87407]],[[-44.57932,-19.87242],[-44.57902,-19.87129],[-44.5791,-19.87103],[-44.57932,-19.87242]],[[-44.57922,-19.88313],[-44.57911,-19.88306],[-44.57913,-19.88296],[-44.57922,-19.88313]],[[-44.57913,-19.87092],[-44.57916,-19.8708],[-44.57952,-19.87143],[-44.57913,-19.87092]],[[-44.57945,-19.8764],[-44.57949,-19.87633],[-44.57956,-19.87637],[-44.57945,-19.8764]],[[-44.57952,-19.87628],[-44.57985,-19.87615],[-44.5795,-19.87631],[-44.57952,-19.87628]],[[-44.58127,-19.88024],[-44.57967,-19.87643],[-44.57968,-19.87644],[-44.58127,-19.88024]],[[-44.57986,-19.88354],[-44.57983,-19.88354],[-44.57979,-19.88351],[-44.57986,-19.88354]],[[-44.58086,-19.85959],[-44.58021,-19.85927],[-44.58027,-19.85929],[-44.58086,-19.85959]],[[-44.58091,-19.87563],[-44.58306,-19.87374],[-44.58128,-19.87545],[-44.58091,-19.87563]],[[-44.58233,-19.88569],[-44.58218,-19.88556],[-44.58225,-19.88551],[-44.58233,-19.88569]],[[-44.58309,-19.88564],[-44.5834,-19.88618],[-44.58293,-19.88555],[-44.58309,-19.88564]],[[-44.58293,-19.88555],[-44.58258,-19.8859],[-44.58251,-19.88585],[-44.58293,-19.88555]],[[-44.58655,-19.90217],[-44.58551,-19.9019],[-44.58541,-19.90181],[-44.58655,-19.90217]],[[-44.58828,-19.86254],[-44.5866,-19.8624],[-44.58639,-19.8623],[-44.58801,-19.86248],[-44.58828,-19.86254]],[[-44.58688,-19.82124],[-44.59554,-19.81736],[-44.59181,-19.81921],[-44.58688,-19.82124]],[[-44.58759,-19.87063],[-44.59031,-19.86772],[-44.59028,-19.86786],[-44.58759,-19.87063]],[[-44.58769,-19.84549],[-44.58777,-19.84542],[-44.58912,-19.8517],[-44.58769,-19.84549]],[[-44.59014,-19.86668],[-44.59019,-19.86676],[-44.5897,-19.86641],[-44.59014,-19.86668]],[[-44.59239,-19.85571],[-44.59026,-19.85512],[-44.59238,-19.85559],[-44.59239,-19.85571]],[[-44.59027,-19.8669],[-44.59041,-19.86716],[-44.59036,-19.86746],[-44.59027,-19.8669]],[[-44.59241,-19.85593],[-44.60372,-19.85121],[-44.59239,-19.85605],[-44.59058,-19.86306],[-44.59241,-19.85593]],[[-44.59303,-19.86857],[-44.59203,-19.87005],[-44.59183,-19.87019],[-44.59277,-19.86879],[-44.59303,-19.86857]],[[-44.59324,-19.87812],[-44.59227,-19.87894],[-44.5937,-19.87763],[-44.59324,-19.87812]],[[-44.59342,-19.86825],[-44.59346,-19.86821],[-44.59385,-19.86817],[-44.59342,-19.86825]],[[-44.59392,-19.84421],[-44.59447,-19.84762],[-44.59365,-19.84255],[-44.59392,-19.84421]],[[-44.59596,-19.87798],[-44.59567,-19.87816],[-44.59397,-19.8791],[-44.59596,-19.87798]],[[-44.59611,-19.86937],[-44.59403,-19.87011],[-44.59498,-19.86977],[-44.59611,-19.86937]],[[-44.59592,-19.86536],[-44.59442,-19.86416],[-44.59578,-19.86515],[-44.59592,-19.86536]],[[-44.59676,-19.8773],[-44.59649,-19.87764],[-44.59631,-19.87775],[-44.59676,-19.8773]],[[-44.59715,-19.87682],[-44.59704,-19.87696],[-44.59806,-19.87533],[-44.59715,-19.87682]],[[-44.59727,-19.87472],[-44.59719,-19.87478],[-44.59759,-19.87414],[-44.59727,-19.87472]],[[-44.5988,-19.86773],[-44.59793,-19.86677],[-44.59887,-19.86777],[-44.5988,-19.86773]],[[-44.60389,-19.88454],[-44.60276,-19.88075],[-44.60301,-19.88112],[-44.60389,-19.88454]],[[-44.60389,-19.88454],[-44.60076,-19.88589],[-44.59948,-19.88629],[-44.60389,-19.88454]],[[-44.60233,-19.88013],[-44.60113,-19.87838],[-44.60219,-19.87981],[-44.60233,-19.88013]],[[-44.60221,-19.87598],[-44.6013,-19.87534],[-44.60168,-19.87553],[-44.60221,-19.87598]],[[-44.60141,-19.87052],[-44.60145,-19.87037],[-44.60148,-19.87069],[-44.60141,-19.87052]],[[-44.6017,-19.86633],[-44.60168,-19.86668],[-44.60166,-19.86656],[-44.6017,-19.86633]],[[-44.60195,-19.86833],[-44.60197,-19.86847],[-44.6019,-19.8687],[-44.60195,-19.86833]],[[-44.60234,-19.84507],[-44.60237,-19.84506],[-44.6027,-19.84557],[-44.60234,-19.84507]],[[-44.60469,-19.87523],[-44.60317,-19.87589],[-44.6039,-19.87557],[-44.60469,-19.87523]],[[-44.60524,-19.84608],[-44.6035,-19.84557],[-44.6055,-19.84609],[-44.60524,-19.84608]],[[-44.60596,-19.8289],[-44.60596,-19.82891],[-44.60432,-19.82794],[-44.60596,-19.8289]],[[-44.60531,-19.87132],[-44.60534,-19.87129],[-44.60495,-19.87339],[-44.60531,-19.87132]],[[-44.60536,-19.84529],[-44.60529,-19.84528],[-44.60634,-19.84503],[-44.60536,-19.84529]],[[-44.6069,-19.83823],[-44.60643,-19.83799],[-44.60551,-19.83743],[-44.6069,-19.83823]],[[-44.60576,-19.81692],[-44.60759,-19.81781],[-44.60555,-19.81691],[-44.60576,-19.81692]],[[-44.6073,-19.86021],[-44.60567,-19.85984],[-44.60728,-19.8602],[-44.60813,-19.85857],[-44.6073,-19.86021]],[[-44.60735,-19.87441],[-44.61033,-19.87108],[-44.61055,-19.87085],[-44.60735,-19.87441]],[[-44.60735,-19.87441],[-44.60681,-19.87459],[-44.60681,-19.87458],[-44.60735,-19.87441]],[[-44.60705,-19.90165],[-44.60706,-19.90111],[-44.60712,-19.90172],[-44.60705,-19.90165]],[[-44.60787,-19.90267],[-44.60788,-19.90294],[-44.60763,-19.90237],[-44.60787,-19.90267]],[[-44.60907,-19.83904],[-44.60827,-19.83845],[-44.6084,-19.83847],[-44.60907,-19.83904]],[[-44.60953,-19.9077],[-44.60849,-19.9077],[-44.60849,-19.90769],[-44.60953,-19.9077]],[[-44.60852,-19.9005],[-44.60876,-19.89932],[-44.60879,-19.89929],[-44.60852,-19.9005]],[[-44.61261,-19.83651],[-44.60874,-19.83505],[-44.61269,-19.83646],[-44.61261,-19.83651]],[[-44.6089,-19.86983],[-44.60893,-19.86864],[-44.6089,-19.87103],[-44.6089,-19.86983]],[[-44.61638,-19.8576],[-44.61645,-19.85767],[-44.61511,-19.85707],[-44.61638,-19.8576]],[[-44.61511,-19.85707],[-44.61061,-19.85747],[-44.61437,-19.85713],[-44.61511,-19.85707]],[[-44.61437,-19.85713],[-44.61489,-19.85595],[-44.61588,-19.85388],[-44.61437,-19.85713]],[[-44.61124,-19.86561],[-44.61123,-19.86543],[-44.61188,-19.86671],[-44.61124,-19.86561]],[[-44.61294,-19.83742],[-44.61138,-19.83821],[-44.61212,-19.83778],[-44.61294,-19.83742]],[[-44.61203,-19.867],[-44.6123,-19.8696],[-44.61201,-19.86696],[-44.61203,-19.867]],[[-44.61243,-19.90995],[-44.61252,-19.91038],[-44.61241,-19.90994],[-44.61243,-19.90995]],[[-44.61291,-19.83569],[-44.61293,-19.83579],[-44.61247,-19.83524],[-44.61291,-19.83569]],[[-44.61414,-19.8376],[-44.61413,-19.83763],[-44.61308,-19.84009],[-44.61414,-19.8376]],[[-44.61308,-19.84009],[-44.61306,-19.84224],[-44.61289,-19.84459],[-44.61308,-19.84009]],[[-44.61301,-19.83628],[-44.61299,-19.83629],[-44.61297,-19.83606],[-44.61301,-19.83628]],[[-44.61414,-19.83759],[-44.61435,-19.83716],[-44.61415,-19.83762],[-44.61414,-19.83759]],[[-44.61499,-19.88376],[-44.61434,-19.88346],[-44.615,-19.88376],[-44.61499,-19.88376]],[[-44.61536,-19.83506],[-44.61547,-19.83493],[-44.61494,-19.83594],[-44.61536,-19.83506]],[[-44.61496,-19.87114],[-44.61657,-19.87208],[-44.61573,-19.87172],[-44.61496,-19.87114]],[[-44.61667,-19.83345],[-44.61674,-19.8334],[-44.61636,-19.83383],[-44.61667,-19.83345]],[[-44.61662,-19.8721],[-44.61749,-19.87202],[-44.61675,-19.87215],[-44.61662,-19.8721]],[[-44.61751,-19.82532],[-44.61752,-19.82528],[-44.61787,-19.82496],[-44.61751,-19.82532]],[[-44.62034,-19.84171],[-44.62327,-19.84457],[-44.62035,-19.84177],[-44.61856,-19.84332],[-44.62034,-19.84171]],[[-44.61994,-19.85155],[-44.61909,-19.85042],[-44.6198,-19.85128],[-44.61994,-19.85155]],[[-44.62074,-19.82323],[-44.62028,-19.8232],[-44.61913,-19.82274],[-44.62074,-19.82323]],[[-44.61987,-19.86499],[-44.61992,-19.86408],[-44.61992,-19.86496],[-44.61987,-19.86499]],[[-44.62135,-19.85363],[-44.62087,-19.85346],[-44.62132,-19.85353],[-44.62135,-19.85363]],[[-44.62241,-19.82374],[-44.62161,-19.82361],[-44.62124,-19.82338],[-44.62241,-19.82374]],[[-44.62251,-19.8293],[-44.62408,-19.82848],[-44.62183,-19.82979],[-44.62251,-19.8293]],[[-44.62296,-19.87483],[-44.62286,-19.87467],[-44.62298,-19.87484],[-44.62296,-19.87483]],[[-44.62354,-19.87514],[-44.62312,-19.87492],[-44.6242,-19.87533],[-44.62354,-19.87514]],[[-44.62762,-19.87541],[-44.62523,-19.87509],[-44.62772,-19.87539],[-44.62762,-19.87541]],[[-44.62523,-19.87509],[-44.62423,-19.87534],[-44.62421,-19.87533],[-44.62523,-19.87509]],[[-44.62463,-19.82386],[-44.62442,-19.82387],[-44.62443,-19.82385],[-44.62463,-19.82386]],[[-44.62504,-19.82388],[-44.62535,-19.8239],[-44.62564,-19.82408],[-44.62504,-19.82388]],[[-44.62581,-19.82418],[-44.62594,-19.82427],[-44.62625,-19.82482],[-44.62581,-19.82418]],[[-44.62874,-19.84226],[-44.62864,-19.84229],[-44.62888,-19.84213],[-44.62874,-19.84226]],[[-44.62911,-19.84191],[-44.62905,-19.84196],[-44.62919,-19.84145],[-44.62911,-19.84191]],[[-44.63087,-19.84078],[-44.63183,-19.84048],[-44.63191,-19.84052],[-44.63087,-19.84078]],[[-44.6322,-19.84067],[-44.63243,-19.84079],[-44.63259,-19.84108],[-44.6322,-19.84067]],[[-44.63841,-19.83694],[-44.63858,-19.83541],[-44.63868,-19.83606],[-44.63841,-19.83694]],[[-44.64115,-19.83704],[-44.64052,-19.83701],[-44.64123,-19.837],[-44.64115,-19.83704]],[[-44.64214,-19.83658],[-44.64244,-19.83639],[-44.64262,-19.83636],[-44.64214,-19.83658]],[[-44.64294,-19.8363],[-44.64347,-19.8362],[-44.64352,-19.83621],[-44.64294,-19.8363]],[[-44.6463,-19.81503],[-44.6461,-19.81577],[-44.64584,-19.81659],[-44.6463,-19.81503]],[[-44.65418,-19.87253],[-44.65256,-19.87335],[-44.65403,-19.87253],[-44.65418,-19.87253]],[[-44.65706,-19.80637],[-44.65691,-19.80543],[-44.65695,-19.8054],[-44.65706,-19.80637]],[[-44.65803,-19.80527],[-44.65706,-19.80532],[-44.65725,-19.80519],[-44.65803,-19.80527]],[[-44.6572,-19.80763],[-44.65721,-19.8077],[-44.6572,-19.80772],[-44.6572,-19.80763]],[[-44.65847,-19.80248],[-44.65839,-19.80177],[-44.65846,-19.80175],[-44.65847,-19.80248]],[[-44.65959,-19.86777],[-44.65952,-19.86786],[-44.65846,-19.86852],[-44.65959,-19.86777]],[[-44.65905,-19.8028],[-44.65941,-19.80296],[-44.65944,-19.803],[-44.65905,-19.8028]],[[-44.65953,-19.80317],[-44.6596,-19.80327],[-44.65952,-19.80354],[-44.65953,-19.80317]],[[-44.6608,-19.86644],[-44.65985,-19.86749],[-44.66067,-19.86649],[-44.6608,-19.86644]],[[-44.66383,-19.79948],[-44.66378,-19.79951],[-44.66353,-19.79946],[-44.66383,-19.79948]],[[-44.6653,-19.7976],[-44.66484,-19.79854],[-44.66507,-19.79787],[-44.6653,-19.7976]],[[-44.66586,-19.79721],[-44.66563,-19.79717],[-44.66567,-19.79713],[-44.66586,-19.79721]],[[-44.66605,-19.79728],[-44.66684,-19.79802],[-44.66726,-19.79861],[-44.66605,-19.79728]],[[-44.66757,-19.79973],[-44.66739,-19.7988],[-44.66751,-19.79896],[-44.66757,-19.79973]],[[-44.66832,-19.8558],[-44.66815,-19.85592],[-44.66813,-19.85588],[-44.66832,-19.8558]],[[-44.66822,-19.85607],[-44.66847,-19.85634],[-44.66852,-19.85669],[-44.66822,-19.85607]],[[-44.66998,-19.86178],[-44.66843,-19.8628],[-44.67,-19.86163],[-44.66998,-19.86178]],[[-44.66905,-19.85578],[-44.66854,-19.85571],[-44.66864,-19.85567],[-44.66905,-19.85578]],[[-44.67116,-19.85224],[-44.67112,-19.85183],[-44.67125,-19.85211],[-44.67116,-19.85224]],[[-44.67112,-19.85183],[-44.67087,-19.85184],[-44.67089,-19.85182],[-44.67112,-19.85183]],[[-44.67123,-19.85297],[-44.67117,-19.85243],[-44.67128,-19.85253],[-44.67123,-19.85297]],[[-44.6729,-19.86109],[-44.67374,-19.86055],[-44.67387,-19.86055],[-44.6729,-19.86109]],[[-44.67519,-19.86092],[-44.67454,-19.86094],[-44.6751,-19.86088],[-44.67519,-19.86092]],[[-44.67454,-19.86094],[-44.67397,-19.86054],[-44.67412,-19.86054],[-44.67454,-19.86094]],[[-44.67423,-19.85729],[-44.67419,-19.85727],[-44.67422,-19.85721],[-44.67423,-19.85729]],[[-44.67528,-19.85812],[-44.67534,-19.85778],[-44.67537,-19.85779],[-44.67528,-19.85812]],[[-44.6783,-19.81985],[-44.68066,-19.81833],[-44.68057,-19.81845],[-44.6783,-19.81985]],[[-44.68021,-19.86393],[-44.67963,-19.86358],[-44.67956,-19.8635],[-44.68021,-19.86393]],[[-44.68186,-19.86384],[-44.68105,-19.86444],[-44.68098,-19.8644],[-44.68186,-19.86384]],[[-44.68424,-19.81638],[-44.68436,-19.81654],[-44.68266,-19.81509],[-44.68424,-19.81638]],[[-44.68357,-19.81238],[-44.68345,-19.81284],[-44.68352,-19.8122],[-44.68357,-19.81238]],[[-44.6843,-19.81602],[-44.68487,-19.81566],[-44.68511,-19.8156],[-44.6843,-19.81602]],[[-44.68547,-19.80774],[-44.68543,-19.80777],[-44.68578,-19.80734],[-44.68547,-19.80774]],[[-44.68816,-19.80433],[-44.6883,-19.80416],[-44.68876,-19.804],[-44.68816,-19.80433]],[[-44.69561,-19.80657],[-44.69487,-19.80627],[-44.69566,-19.80656],[-44.69561,-19.80657]],[[-44.69633,-19.80647],[-44.69598,-19.80652],[-44.69669,-19.80618],[-44.69633,-19.80647]],[[-44.70273,-19.79994],[-44.70241,-19.80028],[-44.70316,-19.79923],[-44.70273,-19.79994]],[[-44.70375,-19.79828],[-44.70357,-19.79858],[-44.70377,-19.7978],[-44.70375,-19.79828]],[[-44.70374,-19.7958],[-44.7039,-19.79557],[-44.7048,-19.79514],[-44.70374,-19.7958]],[[-44.70443,-19.83413],[-44.70446,-19.83434],[-44.70399,-19.83359],[-44.70443,-19.83413]],[[-44.70557,-19.86341],[-44.70446,-19.86396],[-44.7043,-19.86395],[-44.70557,-19.86341]],[[-44.70518,-19.8404],[-44.70579,-19.8408],[-44.70529,-19.84062],[-44.70518,-19.8404]],[[-44.70728,-19.86011],[-44.70632,-19.86167],[-44.70671,-19.86082],[-44.70728,-19.86011]],[[-44.70632,-19.86167],[-44.70656,-19.86364],[-44.70634,-19.86314],[-44.70632,-19.86167]],[[-44.70787,-19.85907],[-44.70786,-19.85919],[-44.70778,-19.85931],[-44.70787,-19.85907]],[[-44.70784,-19.85567],[-44.70798,-19.85767],[-44.70795,-19.85807],[-44.70784,-19.85567]],[[-44.70833,-19.84079],[-44.70931,-19.8404],[-44.70877,-19.84069],[-44.70833,-19.84079]],[[-44.71139,-19.83863],[-44.71165,-19.83847],[-44.71044,-19.8398],[-44.71139,-19.83863]],[[-44.71307,-19.83762],[-44.71359,-19.83751],[-44.71222,-19.83813],[-44.71307,-19.83762]],[[-44.71683,-19.83786],[-44.71727,-19.83828],[-44.71591,-19.83739],[-44.71683,-19.83786]],[[-44.71591,-19.83739],[-44.71386,-19.83746],[-44.71438,-19.83735],[-44.71591,-19.83739]],[[-44.72474,-19.84396],[-44.72537,-19.84472],[-44.72445,-19.84382],[-44.72474,-19.84396]],[[-44.7258,-19.84694],[-44.72629,-19.84764],[-44.72585,-19.84722],[-44.7258,-19.84694]],[[-44.73252,-19.84804],[-44.73292,-19.84795],[-44.73272,-19.84804],[-44.73252,-19.84804]],[[-44.74897,-19.87414],[-44.74858,-19.87303],[-44.74852,-19.87272],[-44.74897,-19.87414]],[[-44.75005,-19.87589],[-44.75011,-19.87611],[-44.74929,-19.87506],[-44.75005,-19.87589]],[[-44.75102,-19.8784],[-44.75102,-19.87845],[-44.75065,-19.87815],[-44.75102,-19.8784]],[[-44.75106,-19.87868],[-44.75093,-19.87872],[-44.75103,-19.8785],[-44.75106,-19.87868]],[[-44.76547,-19.81894],[-44.76577,-19.81867],[-44.7655,-19.81899],[-44.76547,-19.81894]],[[-44.76709,-19.81827],[-44.7679,-19.81807],[-44.76676,-19.8186],[-44.76709,-19.81827]],[[-44.76954,-19.82208],[-44.76904,-19.82423],[-44.76932,-19.82269],[-44.76954,-19.82208]],[[-44.76995,-19.82029],[-44.76993,-19.82037],[-44.76994,-19.82026],[-44.76995,-19.82029]],[[-44.78247,-19.85843],[-44.78358,-19.85835],[-44.77846,-19.85907],[-44.78247,-19.85843]]]}}]}