{"type":"FeatureCollection","features":[{"type":"Feature","properties":{"municipio":"MARIANA"},"geometry":{"type":"Polygon","coordinates":[[[-43.45184,-20.46824],[-43.45833,-20.46844],[-43.46096,-20.46806],[-43.46208,-20.46761],[-43.46476,-20.46544],[-43.46987,-20.46382],[-43.47236,-20.46194],[-43.47456,-20.46209],[-43.47621,-20.46154],[-43.47745,-20.46045],[-43.47868,-20.45799],[-43.48176,-20.45618],[-43.4836,-20.45591],[-43.48595,-20.45685],[-43.48898,-20.45617],[-43.49042,-20.45299],[-43.49227,-20.45214],[-43.49283,-20.4515],[-43.49333,-20.44849],[-43.4957,-20.44647],[-43.49587,-20.44423],[-43.49205,-20.43781],[-43.49149,-20.43731],[-43.48958,-20.4372],[-43.48757,-20.43532],[-43.4884,-20.43113],[-43.48423,-20.42956],[-43.4827,-20.42806],[-43.48275,-20.42546],[-43.48328,-20.42357],[-43.483,-20.4219],[-43.48119,-20.41988],[-43.47994,-20.41657],[-43.4778,-20.41608],[-43.47632,-20.41432],[-43.47397,-20.40852],[-43.47263,-20.40673],[-43.47229,-20.40575],[-43.47256,-20.40445],[-43.47445,-20.40231],[-43.47501,-20.39877],[-43.47695,-20.39626],[-43.47679,-20.3953],[-43.47523,-20.39374],[-43.47396,-20.39299],[-43.47302,-20.39355],[-43.4704,-20.38826],[-43.46904,-20.38738],[-43.46711,-20.38408],[-43.46766,-20.3801],[-43.4707,-20.37105],[-43.46984,-20.36971],[-43.4686,-20.36923],[-43.46537,-20.36995],[-43.46386,-20.36911],[-43.46359,-20.36625],[-43.46246,-20.36293],[-43.46079,-20.3606],[-43.46079,-20.35855],[-43.46766,-20.35259],[-43.4684,-20.35026],[-43.47241,-20.34556],[-43.47152,-20.34316],[-43.46875,-20.33988],[-43.4688,-20.33653],[-43.46824,-20.3354],[-43.46585,-20.33329],[-43.46326,-20.33212],[-43.46193,-20.3311],[-43.46308,-20.32851],[-43.46307,-20.32596],[-43.46254,-20.32352],[-43.46281,-20.3221],[-43.46564,-20.32092],[-43.4673,-20.31954],[-43.46805,-20.31834],[-43.46803,-20.31766],[-43.46493,-20.31351],[-43.46414,-20.31129],[-43.45823,-20.30916],[-43.45622,-20.30716],[-43.45431,-20.30596],[-43.45316,-20.30476],[-43.45269,-20.30367],[-43.45215,-20.29863],[-43.45652,-20.29524],[-43.45682,-20.29279],[-43.45835,-20.29069],[-43.45998,-20.28398],[-43.45957,-20.2825],[-43.45823,-20.28077],[-43.45579,-20.27885],[-43.45395,-20.27643],[-43.45277,-20.26998],[-43.45326,-20.26903],[-43.45596,-20.26697],[-43.45641,-20.26402],[-43.45705,-20.26313],[-43.45882,-20.26226],[-43.46293,-20.26221],[-43.46291,-20.26016],[-43.46253,-20.25914],[-43.46254,-20.25306],[-43.46168,-20.25167],[-43.45976,-20.25099],[-43.45931,-20.24953],[-43.46131,-20.24836],[-43.46252,-20.24716],[-43.46609,-20.24568],[-43.46741,-20.24345],[-43.47009,-20.24217],[-43.4696,-20.23979],[-43.47138,-20.23706],[-43.47138,-20.23607],[-43.4707,-20.23529],[-43.46806,-20.23415],[-43.46826,-20.23351],[-43.46987,-20.23258],[-43.4705,-20.23146],[-43.47032,-20.22978],[-43.46892,-20.22774],[-43.47053,-20.22579],[-43.46927,-20.22415],[-43.47032,-20.222],[-43.47156,-20.2215],[-43.47306,-20.22193],[-43.47425,-20.22401],[-43.47515,-20.22412],[-43.48038,-20.22145],[-43.48356,-20.22204],[-43.4878,-20.22071],[-43.49047,-20.22093],[-43.49143,-20.22016],[-43.49228,-20.21797],[-43.4933,-20.21693],[-43.49526,-20.2165],[-43.49853,-20.21697],[-43.4999,-20.21537],[-43.49937,-20.20932],[-43.50058,-20.20566],[-43.49896,-20.20259],[-43.49888,-20.1978],[-43.49934,-20.19673],[-43.50135,-20.19558],[-43.50224,-20.19384],[-43.50051,-20.19028],[-43.49867,-20.18846],[-43.49733,-20.18777],[-43.49778,-20.18485],[-43.4976,-20.18014],[-43.49711,-20.17867],[-43.49762,-20.17734],[-43.49737,-20.17324],[-43.49421,-20.17072],[-43.49409,-20.16987],[-43.4954,-20.1694],[-43.49734,-20.17006],[-43.49986,-20.16978],[-43.50151,-20.17072],[-43.50256,-20.17215],[-43.5061,-20.17213],[-43.50745,-20.17149],[-43.50954,-20.17137],[-43.51059,-20.17113],[-43.51111,-20.17053],[-43.5141,-20.17001],[-43.51502,-20.16926],[-43.51844,-20.16877],[-43.51996,-20.16787],[-43.52175,-20.16612],[-43.52404,-20.16563],[-43.52526,-20.16417],[-43.52895,-20.16366],[-43.53372,-20.16086],[-43.53259,-20.15661],[-43.5335,-20.15531],[-43.53534,-20.15408],[-43.53536,-20.15363],[-43.5314,-20.1471],[-43.52764,-20.1421],[-43.52098,-20.1372],[-43.51243,-20.13552],[-43.51098,-20.13413],[-43.51149,-20.12957],[-43.51094,-20.12858],[-43.50886,-20.12934],[-43.50613,-20.12945],[-43.50339,-20.13086],[-43.49976,-20.13155],[-43.49687,-20.13127],[-43.49227,-20.13174],[-43.48956,-20.13093],[-43.4859,-20.13119],[-43.48363,-20.13293],[-43.48111,-20.13348],[-43.47325,-20.13982],[-43.47141,-20.14041],[-43.46663,-20.14074],[-43.46283,-20.14323],[-43.45827,-20.14357],[-43.45695,-20.14189],[-43.45598,-20.14135],[-43.45516,-20.13901],[-43.45345,-20.13832],[-43.45208,-20.13716],[-43.45033,-20.13192],[-43.45036,-20.13095],[-43.44971,-20.13052],[-43.44782,-20.13007],[-43.44672,-20.12915],[-43.44507,-20.12847],[-43.44356,-20.12687],[-43.44209,-20.12663],[-43.43771,-20.1245],[-43.43387,-20.12347],[-43.42914,-20.12345],[-43.42715,-20.12207],[-43.42442,-20.12158],[-43.42236,-20.12161],[-43.41935,-20.1225],[-43.41831,-20.12305],[-43.41767,-20.12392],[-43.41768,-20.12809],[-43.41942,-20.13073],[-43.41971,-20.13198],[-43.4179,-20.13281],[-43.41698,-20.13454],[-43.41504,-20.13632],[-43.41366,-20.13667],[-43.41119,-20.13823],[-43.41009,-20.13846],[-43.40809,-20.13731],[-43.40622,-20.13754],[-43.40509,-20.13848],[-43.40497,-20.14246],[-43.40426,-20.14301],[-43.39911,-20.1407],[-43.3968,-20.14025],[-43.39456,-20.13806],[-43.39226,-20.1378],[-43.3917,-20.13683],[-43.39104,-20.13315],[-43.38961,-20.12911],[-43.39027,-20.12571],[-43.39033,-20.12326],[-43.39001,-20.12262],[-43.38896,-20.12297],[-43.3851,-20.12568],[-43.38151,-20.12899],[-43.38034,-20.12941],[-43.37867,-20.13207],[-43.37582,-20.13481],[-43.37239,-20.13488],[-43.36991,-20.13393],[-43.3688,-20.13283],[-43.36779,-20.13264],[-43.36219,-20.13619],[-43.35441,-20.13757],[-43.34862,-20.13948],[-43.34509,-20.13971],[-43.34487,-20.14158],[-43.34604,-20.14271],[-43.34637,-20.14395],[-43.34435,-20.14578],[-43.34401,-20.14713],[-43.34502,-20.14906],[-43.34542,-20.15091],[-43.34715,-20.15211],[-43.34752,-20.1528],[-43.34877,-20.15312],[-43.34927,-20.15495],[-43.35019,-20.15536],[-43.35145,-20.15685],[-43.35295,-20.15743],[-43.35265,-20.16036],[-43.35388,-20.16223],[-43.35326,-20.16363],[-43.35336,-20.16484],[-43.35274,-20.16591],[-43.35345,-20.16685],[-43.35351,-20.16888],[-43.35236,-20.17085],[-43.35361,-20.17101],[-43.35413,-20.17155],[-43.35602,-20.17121],[-43.35608,-20.17208],[-43.35681,-20.17223],[-43.3564,-20.17313],[-43.35681,-20.17371],[-43.35635,-20.17463],[-43.35663,-20.17524],[-43.35629,-20.17595],[-43.35697,-20.17841],[-43.35646,-20.18085],[-43.35716,-20.18191],[-43.35675,-20.18422],[-43.35685,-20.18627],[-43.35624,-20.18768],[-43.35692,-20.18924],[-43.35534,-20.19179],[-43.35538,-20.19627],[-43.35621,-20.19683],[-43.35929,-20.19724],[-43.36136,-20.19872],[-43.36144,-20.19922],[-43.36041,-20.20138],[-43.36102,-20.20414],[-43.35907,-20.20484],[-43.35757,-20.20482],[-43.35315,-20.20319],[-43.34915,-20.20428],[-43.34531,-20.20168],[-43.34086,-20.20172],[-43.33875,-20.2059],[-43.33708,-20.20715],[-43.33546,-20.2105],[-43.33396,-20.21145],[-43.33221,-20.21091],[-43.33018,-20.21212],[-43.32908,-20.21215],[-43.3256,-20.20961],[-43.3246,-20.20654],[-43.32355,-20.20614],[-43.32199,-20.20706],[-43.3203,-20.21042],[-43.318,-20.21102],[-43.3151,-20.21258],[-43.31369,-20.2126],[-43.31191,-20.21134],[-43.30963,-20.21119],[-43.30874,-20.21063],[-43.30742,-20.21046],[-43.30615,-20.21108],[-43.30422,-20.21391],[-43.30124,-20.21474],[-43.29982,-20.21657],[-43.29877,-20.21718],[-43.29537,-20.21651],[-43.29444,-20.21558],[-43.29217,-20.21444],[-43.29253,-20.21273],[-43.29242,-20.21077],[-43.29341,-20.209],[-43.29332,-20.20716],[-43.2919,-20.20596],[-43.29027,-20.20584],[-43.28694,-20.20636],[-43.28553,-20.2054],[-43.286,-20.20332],[-43.28483,-20.20128],[-43.28463,-20.1983],[-43.28306,-20.19656],[-43.28096,-20.19595],[-43.27816,-20.19625],[-43.26599,-20.19382],[-43.265,-20.19424],[-43.26428,-20.19655],[-43.26355,-20.19757],[-43.26249,-20.19767],[-43.26168,-20.19713],[-43.2602,-20.19774],[-43.25918,-20.19707],[-43.25907,-20.19419],[-43.25849,-20.1924],[-43.25608,-20.18997],[-43.25458,-20.18914],[-43.25333,-20.18902],[-43.25267,-20.18945],[-43.25224,-20.19057],[-43.25144,-20.19134],[-43.24849,-20.1917],[-43.24494,-20.19394],[-43.24121,-20.1933],[-43.23908,-20.19343],[-43.23817,-20.19492],[-43.23504,-20.19602],[-43.23261,-20.19751],[-43.23098,-20.19997],[-43.22808,-20.20069],[-43.22751,-20.20174],[-43.22736,-20.20456],[-43.22575,-20.21038],[-43.22233,-20.21277],[-43.21933,-20.21327],[-43.21836,-20.2131],[-43.21738,-20.21191],[-43.21748,-20.21042],[-43.21863,-20.2099],[-43.21909,-20.20709],[-43.22011,-20.20556],[-43.21616,-20.19901],[-43.2144,-20.19761],[-43.21354,-20.19583],[-43.21228,-20.19492],[-43.21199,-20.19334],[-43.20796,-20.19021],[-43.20556,-20.19059],[-43.20483,-20.19021],[-43.20216,-20.18741],[-43.20164,-20.18408],[-43.20085,-20.18223],[-43.19796,-20.18078],[-43.19504,-20.17716],[-43.19367,-20.17649],[-43.19234,-20.17434],[-43.18609,-20.17246],[-43.18552,-20.17265],[-43.18433,-20.17422],[-43.1843,-20.17702],[-43.18173,-20.17961],[-43.18004,-20.1783],[-43.17763,-20.17918],[-43.17612,-20.17932],[-43.17087,-20.17815],[-43.16683,-20.17822],[-43.16277,-20.17723],[-43.1619,-20.17986],[-43.16398,-20.18142],[-43.16513,-20.18456],[-43.16412,-20.18647],[-43.16087,-20.18694],[-43.15952,-20.18842],[-43.15963,-20.19013],[-43.16129,-20.19335],[-43.16161,-20.195],[-43.16118,-20.19759],[-43.158,-20.20296],[-43.15855,-20.20434],[-43.15989,-20.20497],[-43.15989,-20.2058],[-43.15763,-20.20714],[-43.15208,-20.21192],[-43.15185,-20.21274],[-43.15239,-20.21434],[-43.15419,-20.21714],[-43.15205,-20.21745],[-43.15147,-20.2207],[-43.15015,-20.22183],[-43.14957,-20.22351],[-43.14918,-20.2257],[-43.15051,-20.22785],[-43.15036,-20.22956],[-43.14904,-20.23118],[-43.14634,-20.23239],[-43.14573,-20.23355],[-43.14677,-20.2357],[-43.14942,-20.23728],[-43.15048,-20.23871],[-43.1501,-20.24149],[-43.15124,-20.24445],[-43.15043,-20.24812],[-43.15096,-20.25112],[-43.15397,-20.25315],[-43.15576,-20.25338],[-43.15765,-20.25452],[-43.15807,-20.25564],[-43.16046,-20.25829],[-43.16224,-20.26138],[-43.16202,-20.26332],[-43.1626,-20.26503],[-43.16235,-20.2666],[-43.16098,-20.26835],[-43.15792,-20.26953],[-43.15654,-20.27123],[-43.15654,-20.27228],[-43.15831,-20.27522],[-43.15975,-20.27525],[-43.16007,-20.27434],[-43.15991,-20.27314],[-43.16023,-20.27287],[-43.16223,-20.273],[-43.16568,-20.27484],[-43.16651,-20.2749],[-43.16734,-20.27345],[-43.16916,-20.27184],[-43.16984,-20.2689],[-43.17034,-20.26841],[-43.17323,-20.26875],[-43.17484,-20.27097],[-43.17663,-20.27125],[-43.17734,-20.27188],[-43.17686,-20.27146],[-43.17691,-20.27257],[-43.17621,-20.27336],[-43.17589,-20.27494],[-43.1772,-20.27789],[-43.17895,-20.27987],[-43.18283,-20.27998],[-43.18287,-20.28072],[-43.18105,-20.28145],[-43.18047,-20.28287],[-43.18051,-20.28415],[-43.18127,-20.28577],[-43.18109,-20.28712],[-43.18209,-20.28882],[-43.18006,-20.28893],[-43.17862,-20.29284],[-43.17467,-20.29609],[-43.17441,-20.29727],[-43.17464,-20.29996],[-43.17157,-20.30159],[-43.17213,-20.304],[-43.17369,-20.30655],[-43.1737,-20.30708],[-43.17284,-20.3082],[-43.17298,-20.30985],[-43.17729,-20.31326],[-43.17769,-20.31463],[-43.17677,-20.31492],[-43.17367,-20.31414],[-43.17072,-20.31449],[-43.17044,-20.31483],[-43.16672,-20.31431],[-43.16461,-20.3117],[-43.16064,-20.31036],[-43.15927,-20.31129],[-43.15656,-20.31198],[-43.15464,-20.3123],[-43.15248,-20.31206],[-43.14943,-20.31429],[-43.14691,-20.31448],[-43.14657,-20.31551],[-43.14657,-20.3199],[-43.14396,-20.32235],[-43.14372,-20.32585],[-43.14222,-20.32743],[-43.14055,-20.33013],[-43.14017,-20.33361],[-43.13939,-20.33422],[-43.1378,-20.33416],[-43.13637,-20.33522],[-43.13527,-20.33746],[-43.13321,-20.33926],[-43.13291,-20.33991],[-43.13289,-20.34066],[-43.13565,-20.34169],[-43.14124,-20.34262],[-43.14415,-20.34461],[-43.15288,-20.34469],[-43.15818,-20.34542],[-43.15845,-20.34579],[-43.15778,-20.34872],[-43.15473,-20.3505],[-43.15433,-20.35133],[-43.15681,-20.35227],[-43.15751,-20.35361],[-43.15963,-20.35451],[-43.15974,-20.35543],[-43.15864,-20.35833],[-43.15985,-20.3612],[-43.16031,-20.36162],[-43.16291,-20.36189],[-43.16375,-20.36236],[-43.16377,-20.36334],[-43.16289,-20.36563],[-43.16351,-20.3696],[-43.1624,-20.37162],[-43.15994,-20.37351],[-43.15863,-20.37384],[-43.15684,-20.37295],[-43.15613,-20.37297],[-43.1528,-20.37573],[-43.15276,-20.3762],[-43.15486,-20.37776],[-43.15585,-20.37798],[-43.15794,-20.38097],[-43.15815,-20.38195],[-43.15772,-20.38289],[-43.15778,-20.3842],[-43.15891,-20.38594],[-43.16035,-20.38715],[-43.16529,-20.38824],[-43.16575,-20.39187],[-43.16819,-20.39371],[-43.16857,-20.39562],[-43.16784,-20.39759],[-43.16833,-20.39981],[-43.16793,-20.40061],[-43.16025,-20.40261],[-43.1592,-20.40323],[-43.15879,-20.40465],[-43.15768,-20.40543],[-43.15637,-20.40563],[-43.15352,-20.40498],[-43.15076,-20.40859],[-43.14999,-20.40895],[-43.14537,-20.40936],[-43.14355,-20.40994],[-43.14271,-20.41085],[-43.14212,-20.41249],[-43.1417,-20.41737],[-43.13821,-20.41972],[-43.1383,-20.4251],[-43.13541,-20.42545],[-43.13138,-20.4272],[-43.12614,-20.42839],[-43.1224,-20.43059],[-43.12344,-20.4322],[-43.12313,-20.43285],[-43.12078,-20.43472],[-43.12083,-20.43521],[-43.12245,-20.43598],[-43.12528,-20.44369],[-43.12553,-20.4471],[-43.12474,-20.4495],[-43.12753,-20.45107],[-43.13189,-20.4524],[-43.13257,-20.45367],[-43.13231,-20.45517],[-43.13042,-20.45715],[-43.12943,-20.46183],[-43.12997,-20.46585],[-43.13056,-20.46664],[-43.13198,-20.46732],[-43.13285,-20.4694],[-43.13387,-20.47066],[-43.13457,-20.47101],[-43.13769,-20.4712],[-43.13872,-20.47087],[-43.13903,-20.4702],[-43.13818,-20.46512],[-43.13864,-20.46498],[-43.14216,-20.46629],[-43.14319,-20.4663],[-43.14407,-20.46572],[-43.1456,-20.46098],[-43.14655,-20.45992],[-43.14865,-20.46006],[-43.15184,-20.46126],[-43.15535,-20.45995],[-43.15572,-20.45927],[-43.15568,-20.45632],[-43.15611,-20.45489],[-43.15885,-20.45424],[-43.16048,-20.45278],[-43.16239,-20.45254],[-43.16327,-20.45204],[-43.16354,-20.45136],[-43.16503,-20.45035],[-43.16539,-20.4497],[-43.16534,-20.44798],[-43.16916,-20.44496],[-43.17027,-20.44345],[-43.17353,-20.44326],[-43.17455,-20.44076],[-43.17363,-20.43892],[-43.17351,-20.43714],[-43.17184,-20.43467],[-43.1716,-20.43287],[-43.17296,-20.43152],[-43.17543,-20.42779],[-43.17665,-20.42676],[-43.18201,-20.42471],[-43.18576,-20.42704],[-43.1895,-20.42724],[-43.19235,-20.42685],[-43.19387,-20.42741],[-43.19611,-20.43034],[-43.19645,-20.43157],[-43.19544,-20.43464],[-43.19391,-20.43695],[-43.19384,-20.43764],[-43.19435,-20.43806],[-43.19559,-20.4382],[-43.19707,-20.43724],[-43.19831,-20.43875],[-43.20015,-20.43911],[-43.20081,-20.43884],[-43.20154,-20.43771],[-43.20241,-20.43879],[-43.20491,-20.44063],[-43.20629,-20.44102],[-43.20969,-20.44069],[-43.21029,-20.44101],[-43.21106,-20.44238],[-43.21136,-20.44436],[-43.21138,-20.44556],[-43.21071,-20.44724],[-43.21316,-20.44929],[-43.21227,-20.45129],[-43.21288,-20.45251],[-43.21293,-20.45365],[-43.21181,-20.45647],[-43.213,-20.45664],[-43.21369,-20.45755],[-43.21414,-20.45748],[-43.21559,-20.45526],[-43.21809,-20.45418],[-43.2197,-20.45411],[-43.22232,-20.45207],[-43.22232,-20.45117],[-43.22014,-20.45097],[-43.22082,-20.4495],[-43.2197,-20.4482],[-43.21954,-20.44668],[-43.21968,-20.44601],[-43.22049,-20.4456],[-43.22296,-20.44757],[-43.22545,-20.44896],[-43.22717,-20.45072],[-43.22819,-20.451],[-43.22892,-20.45081],[-43.22942,-20.44998],[-43.22927,-20.4487],[-43.22845,-20.44767],[-43.22845,-20.44698],[-43.23147,-20.44458],[-43.2329,-20.44657],[-43.23356,-20.44688],[-43.23667,-20.44652],[-43.23745,-20.44586],[-43.23784,-20.446],[-43.23852,-20.44853],[-43.24001,-20.44972],[-43.24175,-20.45015],[-43.24242,-20.45005],[-43.24248,-20.44919],[-43.24035,-20.44637],[-43.2403,-20.44586],[-43.24078,-20.44535],[-43.24703,-20.44496],[-43.24774,-20.44561],[-43.24875,-20.44555],[-43.25021,-20.44615],[-43.25253,-20.44608],[-43.25293,-20.44851],[-43.25347,-20.44915],[-43.25483,-20.44962],[-43.25672,-20.45109],[-43.2584,-20.45164],[-43.25992,-20.45272],[-43.26065,-20.45282],[-43.26203,-20.4516],[-43.26387,-20.45249],[-43.26527,-20.45206],[-43.26655,-20.45226],[-43.26863,-20.45112],[-43.26955,-20.4516],[-43.27,-20.45247],[-43.27305,-20.45307],[-43.27333,-20.45414],[-43.27488,-20.45553],[-43.27522,-20.45637],[-43.27491,-20.45833],[-43.27405,-20.45891],[-43.27094,-20.4586],[-43.26905,-20.45948],[-43.26877,-20.46047],[-43.26903,-20.46285],[-43.26792,-20.46473],[-43.26837,-20.46548],[-43.26931,-20.46492],[-43.27115,-20.46491],[-43.27228,-20.46603],[-43.27214,-20.4665],[-43.27058,-20.46742],[-43.27037,-20.46953],[-43.27119,-20.47196],[-43.27203,-20.47311],[-43.27238,-20.47638],[-43.27322,-20.47815],[-43.2728,-20.48095],[-43.27324,-20.4828],[-43.27817,-20.48865],[-43.28029,-20.49172],[-43.27958,-20.49348],[-43.28159,-20.4981],[-43.28462,-20.49881],[-43.28686,-20.49869],[-43.29025,-20.49679],[-43.29378,-20.4961],[-43.29603,-20.49682],[-43.29858,-20.49716],[-43.30011,-20.49694],[-43.30079,-20.49631],[-43.30049,-20.4946],[-43.30098,-20.49435],[-43.30402,-20.49807],[-43.30446,-20.49945],[-43.30382,-20.50039],[-43.30378,-20.50133],[-43.30625,-20.50308],[-43.30737,-20.50551],[-43.30868,-20.506],[-43.31042,-20.50524],[-43.31215,-20.50517],[-43.31711,-20.50859],[-43.32001,-20.50905],[-43.32057,-20.51143],[-43.32314,-20.51241],[-43.32629,-20.51584],[-43.32632,-20.51655],[-43.32519,-20.51792],[-43.32495,-20.51925],[-43.32755,-20.52082],[-43.32892,-20.521],[-43.3312,-20.52225],[-43.33223,-20.52317],[-43.33333,-20.52552],[-43.33763,-20.52514],[-43.33928,-20.52451],[-43.34077,-20.52464],[-43.34447,-20.5277],[-43.34973,-20.5282],[-43.3552,-20.53117],[-43.35659,-20.53145],[-43.35769,-20.53111],[-43.35887,-20.53223],[-43.36046,-20.53247],[-43.36379,-20.53213],[-43.36766,-20.53614],[-43.36837,-20.53822],[-43.36927,-20.53947],[-43.36934,-20.54023],[-43.36895,-20.54053],[-43.36351,-20.54196],[-43.36323,-20.54238],[-43.36442,-20.54566],[-43.36706,-20.54917],[-43.36789,-20.5497],[-43.36898,-20.54964],[-43.37088,-20.54895],[-43.37201,-20.54966],[-43.37337,-20.54983],[-43.3759,-20.54852],[-43.37731,-20.54839],[-43.37899,-20.55021],[-43.37951,-20.55027],[-43.38118,-20.55018],[-43.38395,-20.54934],[-43.38659,-20.54933],[-43.38843,-20.54995],[-43.39311,-20.54955],[-43.39676,-20.54856],[-43.39898,-20.54745],[-43.40276,-20.5468],[-43.40334,-20.54704],[-43.40554,-20.54581],[-43.40716,-20.54654],[-43.40798,-20.54653],[-43.40889,-20.54605],[-43.40979,-20.5446],[-43.41068,-20.54406],[-43.41261,-20.54416],[-43.41374,-20.54504],[-43.41469,-20.54496],[-43.41641,-20.54412],[-43.41711,-20.54316],[-43.41776,-20.54065],[-43.41882,-20.53933],[-43.41954,-20.53759],[-43.42118,-20.53672],[-43.42399,-20.53607],[-43.42829,-20.52552],[-43.42867,-20.52253],[-43.43017,-20.51959],[-43.42929,-20.51497],[-43.42931,-20.50703],[-43.4283,-20.50421],[-43.42865,-20.50329],[-43.42996,-20.50235],[-43.43109,-20.50052],[-43.43127,-20.49858],[-43.42976,-20.49692],[-43.42898,-20.49507],[-43.42681,-20.49193],[-43.42661,-20.49027],[-43.42735,-20.48956],[-43.42981,-20.48849],[-43.43675,-20.48646],[-43.43976,-20.48451],[-43.44081,-20.48436],[-43.44389,-20.48514],[-43.44587,-20.48495],[-43.44655,-20.4749],[-43.44734,-20.47276],[-43.44936,-20.47018],[-43.45184,-20.46824]],[[-43.17124,-20.26777],[-43.17112,-20.26798],[-43.17117,-20.26778],[-43.17124,-20.26777]],[[-43.17177,-20.26828],[-43.17122,-20.2681],[-43.17195,-20.26825],[-43.17177,-20.26828]],[[-43.19512,-20.29585],[-43.19663,-20.29649],[-43.19419,-20.2957],[-43.19512,-20.29585]],[[-43.1943,-20.29454],[-43.19431,-20.29437],[-43.19463,-20.29405],[-43.1943,-20.29454]],[[-43.19529,-20.29337],[-43.19537,-20.29329],[-43.19548,-20.29327],[-43.19529,-20.29337]],[[-43.20244,-20.29232],[-43.20176,-20.29242],[-43.20255,-20.29217],[-43.20244,-20.29232]],[[-43.20605,-20.29706],[-43.20541,-20.29711],[-43.20565,-20.29702],[-43.20605,-20.29706]],[[-43.20756,-20.35913],[-43.2069,-20.35883],[-43.20737,-20.35898],[-43.20756,-20.35913]],[[-43.20891,-20.36019],[-43.20823,-20.35976],[-43.20806,-20.35953],[-43.20891,-20.36019]],[[-43.20926,-20.1928],[-43.20818,-20.19409],[-43.20897,-20.19307],[-43.20926,-20.1928]],[[-43.20847,-20.42149],[-43.20975,-20.42091],[-43.2093,-20.42123],[-43.20847,-20.42149]],[[-43.21042,-20.42061],[-43.21078,-20.42064],[-43.21012,-20.42074],[-43.21042,-20.42061]],[[-43.21449,-20.31939],[-43.21447,-20.31926],[-43.21465,-20.3188],[-43.21449,-20.31939]],[[-43.21526,-20.32297],[-43.21482,-20.32177],[-43.21478,-20.32154],[-43.21526,-20.32297]],[[-43.22502,-20.33183],[-43.22429,-20.33152],[-43.21995,-20.32925],[-43.22502,-20.33183]],[[-43.21995,-20.32925],[-43.21615,-20.32433],[-43.21601,-20.32412],[-43.21995,-20.32925]],[[-43.22029,-20.3656],[-43.2201,-20.36589],[-43.21996,-20.36591],[-43.22029,-20.3656]],[[-43.22292,-20.2362],[-43.22322,-20.23632],[-43.22349,-20.23669],[-43.22292,-20.2362]],[[-43.22343,-20.25223],[-43.22448,-20.25239],[-43.22346,-20.25227],[-43.22343,-20.25223]],[[-43.22761,-20.33263],[-43.22633,-20.33239],[-43.22565,-20.3321],[-43.22761,-20.33263]],[[-43.22613,-20.25226],[-43.22624,-20.25188],[-43.22673,-20.25135],[-43.22613,-20.25226]],[[-43.22656,-20.2437],[-43.22674,-20.24436],[-43.22673,-20.24519],[-43.22656,-20.2437]],[[-43.23013,-20.25514],[-43.23026,-20.25517],[-43.23181,-20.25686],[-43.23013,-20.25514]],[[-43.23175,-20.30292],[-43.23177,-20.30278],[-43.23183,-20.30292],[-43.23175,-20.30292]],[[-43.23244,-20.30297],[-43.23217,-20.30295],[-43.23264,-20.30285],[-43.23244,-20.30297]],[[-43.23293,-20.30269],[-43.23284,-20.30274],[-43.23305,-20.30234],[-43.23293,-20.30269]],[[-43.23399,-20.26393],[-43.23411,-20.26423],[-43.23396,-20.26408],[-43.23399,-20.26393]],[[-43.23816,-20.441],[-43.23827,-20.43952],[-43.2382,-20.44112],[-43.23816,-20.441]],[[-43.23995,-20.37169],[-43.24078,-20.37191],[-43.23978,-20.37174],[-43.24025,-20.37131],[-43.23995,-20.37169]],[[-43.24155,-20.33476],[-43.23994,-20.33354],[-43.24145,-20.33464],[-43.24155,-20.33476]],[[-43.24178,-20.36759],[-43.24138,-20.3662],[-43.24177,-20.36743],[-43.24178,-20.36759]],[[-43.2417,-20.36881],[-43.24179,-20.36784],[-43.24181,-20.36853],[-43.2417,-20.36881]],[[-43.24257,-20.33636],[-43.24182,-20.3351],[-43.2421,-20.33546],[-43.24257,-20.33636]],[[-43.24307,-20.38184],[-43.24319,-20.38194],[-43.2428,-20.38184],[-43.24307,-20.38184]],[[-43.24333,-20.38206],[-43.24355,-20.38225],[-43.24346,-20.38228],[-43.24333,-20.38206]],[[-43.24481,-20.38138],[-43.24437,-20.38118],[-43.24474,-20.38126],[-43.24481,-20.38138]],[[-43.24625,-20.37271],[-43.24728,-20.37294],[-43.24446,-20.37251],[-43.24625,-20.37271]],[[-43.24615,-20.42858],[-43.2464,-20.42869],[-43.24457,-20.42866],[-43.24615,-20.42858]],[[-43.24466,-20.28344],[-43.24675,-20.28302],[-43.2469,-20.28304],[-43.24466,-20.28344]],[[-43.24489,-20.38169],[-43.2449,-20.38154],[-43.24495,-20.38163],[-43.24489,-20.38169]],[[-43.24687,-20.4287],[-43.24727,-20.42862],[-43.24724,-20.4287],[-43.24687,-20.4287]],[[-43.24767,-20.42114],[-43.24772,-20.42108],[-43.24733,-20.42482],[-43.24767,-20.42114]],[[-43.24738,-20.42839],[-43.24744,-20.42816],[-43.24746,-20.42823],[-43.24738,-20.42839]],[[-43.24767,-20.28314],[-43.24805,-20.28318],[-43.24936,-20.28371],[-43.24767,-20.28314]],[[-43.24793,-20.42087],[-43.24927,-20.41948],[-43.24835,-20.42059],[-43.24793,-20.42087]],[[-43.2509,-20.28383],[-43.25082,-20.28385],[-43.25092,-20.28376],[-43.2509,-20.28383]],[[-43.25116,-20.28293],[-43.2511,-20.28314],[-43.25135,-20.28027],[-43.25116,-20.28293]],[[-43.25545,-20.27492],[-43.2555,-20.2712],[-43.25557,-20.27103],[-43.25545,-20.27492]],[[-43.25603,-20.26993],[-43.25693,-20.26911],[-43.25774,-20.26854],[-43.25603,-20.26993]],[[-43.26558,-20.26575],[-43.26333,-20.26606],[-43.26307,-20.26604],[-43.26512,-20.26576],[-43.26558,-20.26575]],[[-43.26568,-20.26574],[-43.26589,-20.26574],[-43.2667,-20.26596],[-43.26568,-20.26574]],[[-43.26833,-20.26807],[-43.26828,-20.268],[-43.26848,-20.26814],[-43.26833,-20.26807]],[[-43.26886,-20.26831],[-43.2687,-20.26824],[-43.26904,-20.26826],[-43.26886,-20.26831]],[[-43.26935,-20.26817],[-43.26915,-20.26822],[-43.26943,-20.26796],[-43.26935,-20.26817]],[[-43.27064,-20.39342],[-43.2705,-20.39308],[-43.27072,-20.39348],[-43.27064,-20.39342]],[[-43.27157,-20.44617],[-43.27156,-20.44614],[-43.27158,-20.44612],[-43.27157,-20.44617]],[[-43.27285,-20.44766],[-43.27182,-20.44678],[-43.27172,-20.44655],[-43.27285,-20.44766]],[[-43.27289,-20.36877],[-43.27367,-20.36886],[-43.27211,-20.36882],[-43.27289,-20.36877]],[[-43.27215,-20.43329],[-43.27218,-20.43289],[-43.27234,-20.43252],[-43.27215,-20.43329]],[[-43.27285,-20.44461],[-43.27253,-20.44495],[-43.27317,-20.44417],[-43.27285,-20.44461]],[[-43.27262,-20.43189],[-43.27266,-20.43179],[-43.27333,-20.43152],[-43.27262,-20.43189]],[[-43.27359,-20.43712],[-43.27369,-20.43845],[-43.27353,-20.43695],[-43.27359,-20.43712]],[[-43.27404,-20.44295],[-43.27401,-20.443],[-43.27402,-20.44288],[-43.27404,-20.44295]],[[-43.27425,-20.36893],[-43.27686,-20.37012],[-43.27408,-20.36891],[-43.27425,-20.36893]],[[-43.27701,-20.25575],[-43.27542,-20.25491],[-43.27658,-20.25544],[-43.27701,-20.25575]],[[-43.27806,-20.39511],[-43.27736,-20.39466],[-43.27735367088608,-20.39464892405063],[-43.27806,-20.39511]],[[-43.2804,-20.39953],[-43.28048,-20.39967],[-43.28047,-20.40043],[-43.2804,-20.39953]],[[-43.28136,-20.39323],[-43.28095,-20.39266],[-43.28147,-20.39326],[-43.28136,-20.39323]],[[-43.28173,-20.39332],[-43.28166,-20.3933],[-43.28176,-20.39327],[-43.28173,-20.39332]],[[-43.28471,-20.25275],[-43.28535,-20.25263],[-43.28496,-20.25279],[-43.28471,-20.25275]],[[-43.2872,-20.25179],[-43.28766,-20.2517],[-43.28656,-20.25214],[-43.2872,-20.25179]],[[-43.28942,-20.39701],[-43.2886,-20.39685],[-43.28865,-20.39669],[-43.28942,-20.39701]],[[-43.28918,-20.39163],[-43.28914,-20.3916],[-43.28921,-20.3916],[-43.28918,-20.39163]],[[-43.28925,-20.25106],[-43.29018,-20.25064],[-43.29003,-20.25074],[-43.28925,-20.25106]],[[-43.28971,-20.23974],[-43.2898,-20.23971],[-43.28956,-20.24017],[-43.28971,-20.23974]],[[-43.29102,-20.39053],[-43.28983,-20.39108],[-43.29103,-20.39049],[-43.29102,-20.39053]],[[-43.29072,-20.24581],[-43.29006,-20.24429],[-43.29073,-20.24567],[-43.29072,-20.24581]],[[-43.29057,-20.3928],[-43.29135,-20.39187],[-43.29128,-20.39208],[-43.29057,-20.3928]],[[-43.29064,-20.25031],[-43.2907,-20.25022],[-43.29069,-20.25027],[-43.29064,-20.25031]],[[-43.29072,-20.38941],[-43.2911,-20.39029],[-43.29105,-20.39045],[-43.29072,-20.38941]],[[-43.29087,-20.38846],[-43.29075,-20.38903],[-43.29076,-20.38878],[-43.29087,-20.38846]],[[-43.29294,-20.38693],[-43.29075,-20.38552],[-43.29111,-20.38566],[-43.29294,-20.38693]],[[-43.29132,-20.239],[-43.29143,-20.23899],[-43.29096,-20.23916],[-43.29132,-20.239]],[[-43.29151,-20.39035],[-43.29141,-20.39169],[-43.29135,-20.39186],[-43.29151,-20.39035]],[[-43.29359,-20.40217],[-43.29285,-20.40317],[-43.29357,-20.40207],[-43.29359,-20.40217]],[[-43.29337,-20.40492],[-43.29405,-20.4042],[-43.29342,-20.40494],[-43.29337,-20.40492]],[[-43.29445,-20.40286],[-43.29525,-20.40274],[-43.29524,-20.40282],[-43.29445,-20.40286]],[[-43.29759,-20.37919],[-43.29909,-20.38062],[-43.29852,-20.38023],[-43.29759,-20.37919]],[[-43.29799,-20.23987],[-43.29913,-20.23904],[-43.29815,-20.23986],[-43.29799,-20.23987]],[[-43.29944,-20.38087],[-43.29952,-20.38087],[-43.29949,-20.38091],[-43.29944,-20.38087]],[[-43.30169,-20.43282],[-43.30146,-20.43284],[-43.30211,-20.43266],[-43.30169,-20.43282]],[[-43.30252,-20.43251],[-43.30225,-20.43261],[-43.30415,-20.43116],[-43.30252,-20.43251]],[[-43.3077,-20.42983],[-43.30645,-20.43049],[-43.30787,-20.4296],[-43.3077,-20.42983]],[[-43.30795,-20.23609],[-43.30743,-20.2359],[-43.30733,-20.23578],[-43.30795,-20.23609]],[[-43.31222,-20.24075],[-43.31057,-20.23968],[-43.31213,-20.24059],[-43.31222,-20.24075]],[[-43.31164,-20.24378],[-43.3116,-20.24363],[-43.31166,-20.24335],[-43.31164,-20.24378]],[[-43.31173,-20.24308],[-43.31176,-20.24293],[-43.3125,-20.24189],[-43.31173,-20.24308]],[[-43.3125,-20.24128],[-43.31236,-20.24099],[-43.3125,-20.24121],[-43.3125,-20.24128]],[[-43.31328,-20.24565],[-43.31258,-20.24549],[-43.31249,-20.2454],[-43.31328,-20.24565]],[[-43.31611,-20.24443],[-43.31516,-20.2451],[-43.31595,-20.24449],[-43.31611,-20.24443]],[[-43.31545,-20.39229],[-43.3164,-20.39029],[-43.31653,-20.39012],[-43.31545,-20.39229]],[[-43.31669,-20.38992],[-43.31679,-20.3898],[-43.31802,-20.38927],[-43.31669,-20.38992]],[[-43.31892,-20.24338],[-43.31673,-20.24417],[-43.31698,-20.24407],[-43.31892,-20.24338]],[[-43.32602,-20.3183],[-43.3255,-20.3171],[-43.32612,-20.31841],[-43.32602,-20.3183]],[[-43.33098,-20.23955],[-43.33038,-20.24058],[-43.33061,-20.23994],[-43.33098,-20.23955]],[[-43.33386,-20.24043],[-43.33266,-20.23974],[-43.33314,-20.23989],[-43.33386,-20.24043]],[[-43.37584,-20.42914],[-43.3758,-20.42859],[-43.37589,-20.42824],[-43.37584,-20.42914]],[[-43.37598,-20.42789],[-43.37604,-20.42761],[-43.37633,-20.42686],[-43.37598,-20.42789]],[[-43.37839,-20.44244],[-43.37828,-20.44189],[-43.37831,-20.44165],[-43.37839,-20.44244]],[[-43.38032,-20.44451],[-43.37906,-20.44353],[-43.38025,-20.44442],[-43.38032,-20.44451]],[[-43.38212,-20.44649],[-43.3818,-20.44628],[-43.3816,-20.44603],[-43.38212,-20.44649]],[[-43.38345,-20.44686],[-43.38258,-20.44678],[-43.38364,-20.44682],[-43.38345,-20.44686]],[[-43.38596,-20.4462],[-43.38586,-20.44624],[-43.38483,-20.44651],[-43.38596,-20.4462]],[[-43.38741,-20.39885],[-43.38566,-20.39717],[-43.38778,-20.39905],[-43.38741,-20.39885]],[[-43.3888,-20.41935],[-43.38906,-20.41869],[-43.38903,-20.41887],[-43.3888,-20.41935]],[[-43.3901,-20.40029],[-43.38904,-20.39972],[-43.38992,-20.4001],[-43.3901,-20.40029]],[[-43.39007,-20.39916],[-43.39013,-20.39877],[-43.39032,-20.39845],[-43.39007,-20.39916]],[[-43.39071,-20.40302],[-43.39096,-20.40289],[-43.39092,-20.40298],[-43.39071,-20.40302]],[[-43.39115,-20.40151],[-43.39086,-20.40111],[-43.39113,-20.4014],[-43.39115,-20.40151]],[[-43.39464,-20.44662],[-43.39453,-20.44655],[-43.39366,-20.44555],[-43.39464,-20.44662]],[[-43.39366,-20.44555],[-43.39289,-20.44533],[-43.39321,-20.44534],[-43.39366,-20.44555]],[[-43.39448,-20.38244],[-43.39443,-20.38287],[-43.39457,-20.37945],[-43.39448,-20.38244]],[[-43.39645,-20.37201],[-43.39647,-20.37183],[-43.39662,-20.37165],[-43.39645,-20.37201]],[[-43.39733,-20.37084],[-43.39739,-20.37078],[-43.39765,-20.37073],[-43.39733,-20.37084]],[[-43.39795,-20.30192],[-43.39769,-20.30119],[-43.39794,-20.30184],[-43.39795,-20.30192]],[[-43.40004,-20.37091],[-43.39799,-20.37068],[-43.40014,-20.37087],[-43.40004,-20.37091]],[[-43.40082,-20.45099],[-43.40172,-20.45053],[-43.40066,-20.45117],[-43.40082,-20.45099]],[[-43.40181,-20.37026],[-43.40187,-20.37023],[-43.40198,-20.37025],[-43.40181,-20.37026]],[[-43.40399,-20.31237],[-43.40255,-20.31311],[-43.40388,-20.31234],[-43.40399,-20.31237]],[[-43.40485,-20.37666],[-43.40541,-20.37671],[-43.40634,-20.37699],[-43.40485,-20.37666]],[[-43.40549,-20.31442],[-43.40534,-20.31436],[-43.4053,-20.31426],[-43.40549,-20.31442]],[[-43.40589,-20.35819],[-43.4058,-20.35809],[-43.40583,-20.35791],[-43.40589,-20.35819]],[[-43.40709,-20.31411],[-43.40595,-20.3146],[-43.40586,-20.31456],[-43.40709,-20.31411]],[[-43.40601,-20.35754],[-43.4059,-20.35759],[-43.406,-20.35702],[-43.40601,-20.35754]],[[-43.40684,-20.35815],[-43.406,-20.35832],[-43.40597,-20.35828],[-43.40684,-20.35815]],[[-43.40677,-20.17961],[-43.40605,-20.1801],[-43.40678,-20.17956],[-43.40677,-20.17961]],[[-43.40625,-20.35586],[-43.40623,-20.35583],[-43.40643,-20.35583],[-43.40625,-20.35586]],[[-43.40692,-20.36237],[-43.40735,-20.36142],[-43.40638,-20.36486],[-43.40692,-20.36237]],[[-43.40646,-20.37702],[-43.40651,-20.37704],[-43.40691,-20.37749],[-43.40646,-20.37702]],[[-43.40655,-20.3554],[-43.40656,-20.35533],[-43.4066,-20.35536],[-43.40655,-20.3554]],[[-43.40811,-20.37773],[-43.40761,-20.3775],[-43.40821,-20.37772],[-43.40811,-20.37773]],[[-43.409,-20.35002],[-43.40916,-20.34983],[-43.40926,-20.34981],[-43.409,-20.35002]],[[-43.40914,-20.38009],[-43.40907,-20.38002],[-43.4091,-20.37992],[-43.40914,-20.38009]],[[-43.40995,-20.39408],[-43.41047,-20.39268],[-43.41057,-20.39264],[-43.40995,-20.39408]],[[-43.41048,-20.38152],[-43.40996,-20.38097],[-43.4104,-20.38136],[-43.41048,-20.38152]],[[-43.41046,-20.36252],[-43.41006,-20.36316],[-43.41,-20.36314],[-43.41046,-20.36252]],[[-43.41044,-20.3833],[-43.41072,-20.38268],[-43.41071,-20.38286],[-43.41044,-20.3833]],[[-43.41073,-20.38238],[-43.4106,-20.38174],[-43.41075,-20.38204],[-43.41073,-20.38238]],[[-43.41145,-20.36252],[-43.41181,-20.36266],[-43.41096,-20.36235],[-43.41145,-20.36252]],[[-43.41196,-20.38638],[-43.41184,-20.38631],[-43.41182,-20.38628],[-43.41196,-20.38638]],[[-43.41192,-20.3737],[-43.41186,-20.37379],[-43.41188,-20.37374],[-43.41192,-20.3737]],[[-43.41335,-20.3893],[-43.41278,-20.39111],[-43.41294,-20.39058],[-43.41335,-20.3893]],[[-43.41294,-20.39058],[-43.41281,-20.39072],[-43.41187,-20.39158],[-43.41294,-20.39058]],[[-43.41232,-20.39246],[-43.41291,-20.39388],[-43.41287,-20.39383],[-43.41232,-20.39246]],[[-43.41318,-20.1818],[-43.4132,-20.18187],[-43.41287,-20.18169],[-43.41318,-20.1818]],[[-43.41347,-20.37207],[-43.41335,-20.37075],[-43.41355,-20.37186],[-43.41347,-20.37207]],[[-43.41337,-20.3946],[-43.4134,-20.39465],[-43.41339,-20.39464],[-43.41337,-20.3946]],[[-43.41458,-20.36579],[-43.41447,-20.36571],[-43.41337,-20.36343],[-43.41458,-20.36579]],[[-43.41401,-20.39125],[-43.41352,-20.39169],[-43.41345,-20.39163],[-43.41401,-20.39125]],[[-43.41427,-20.39577],[-43.41451,-20.39721],[-43.41403,-20.39519],[-43.41427,-20.39577]],[[-43.41403,-20.39519],[-43.41345,-20.39469],[-43.41436,-20.39502],[-43.4135,-20.39471],[-43.41403,-20.39519]],[[-43.41354,-20.36741],[-43.4136,-20.36732],[-43.41366,-20.36771],[-43.41354,-20.36741]],[[-43.41382,-20.37946],[-43.41391,-20.37955],[-43.41367,-20.37943],[-43.41382,-20.37946]],[[-43.41396,-20.38116],[-43.4137,-20.38078],[-43.41373,-20.38074],[-43.41396,-20.38116]],[[-43.41396,-20.38116],[-43.4151,-20.38147],[-43.41452,-20.38141],[-43.41396,-20.38116]],[[-43.4162,-20.36185],[-43.41375,-20.3623],[-43.41751,-20.36153],[-43.4162,-20.36185]],[[-43.41378,-20.36802],[-43.41376,-20.36796],[-43.41392,-20.36815],[-43.41378,-20.36802]],[[-43.41439,-20.38772],[-43.41399,-20.3875],[-43.41441,-20.38769],[-43.41439,-20.38772]],[[-43.41425,-20.37986],[-43.41421,-20.37992],[-43.41419,-20.3798],[-43.41425,-20.37986]],[[-43.41446,-20.36924],[-43.41446,-20.36931],[-43.41426,-20.36952],[-43.41446,-20.36924]],[[-43.4144,-20.36875],[-43.4145,-20.36888],[-43.41448,-20.36914],[-43.4144,-20.36875]],[[-43.41474,-20.34259],[-43.41479,-20.3421],[-43.41504,-20.34164],[-43.41474,-20.34259]],[[-43.41512,-20.3899],[-43.41536,-20.38927],[-43.41513,-20.38993],[-43.41512,-20.3899]],[[-43.41553,-20.36755],[-43.41538,-20.36708],[-43.41551,-20.36742],[-43.41553,-20.36755]],[[-43.41595,-20.38825],[-43.41621,-20.38826],[-43.41603,-20.38827],[-43.41595,-20.38825]],[[-43.41626,-20.40021],[-43.41659,-20.39953],[-43.41662,-20.39953],[-43.41626,-20.40021]],[[-43.4172,-20.18758],[-43.41633,-20.18723],[-43.41711,-20.18752],[-43.4172,-20.18758]],[[-43.41687,-20.38823],[-43.42184,-20.38715],[-43.41708,-20.38821],[-43.41687,-20.38823]],[[-43.41836,-20.36269],[-43.41689,-20.36341],[-43.41856,-20.36251],[-43.41836,-20.36269]],[[-43.41689,-20.36341],[-43.41706,-20.36377],[-43.41703,-20.36401],[-43.41689,-20.36341]],[[-43.41778,-20.23104],[-43.41709,-20.23224],[-43.41696,-20.23229],[-43.41778,-20.23104]],[[-43.41714,-20.41963],[-43.41699,-20.41937],[-43.4174,-20.41985],[-43.41714,-20.41963]],[[-43.41778,-20.36766],[-43.41709,-20.36771],[-43.41707,-20.3677],[-43.41778,-20.36766]],[[-43.41745,-20.38135],[-43.41763,-20.38262],[-43.41762,-20.38287],[-43.41745,-20.38135]],[[-43.41782,-20.42021],[-43.41761,-20.42003],[-43.42007,-20.42065],[-43.41782,-20.42021]],[[-43.41895,-20.38349],[-43.41888,-20.3838],[-43.41887,-20.38365],[-43.41895,-20.38349]],[[-43.41891,-20.38431],[-43.41913,-20.38462],[-43.41892,-20.38448],[-43.41891,-20.38431]],[[-43.41916,-20.36796],[-43.41913,-20.36707],[-43.4192,-20.36728],[-43.41916,-20.36796]],[[-43.42032,-20.37427],[-43.42049,-20.37423],[-43.41922,-20.3754],[-43.42032,-20.37427]],[[-43.41935,-20.38476],[-43.41948,-20.38472],[-43.41938,-20.38478],[-43.41935,-20.38476]],[[-43.41955,-20.38489],[-43.41944,-20.38482],[-43.42059,-20.38463],[-43.41955,-20.38489]],[[-43.42177,-20.39818],[-43.42012,-20.39517],[-43.42009,-20.39504],[-43.42177,-20.39818]],[[-43.42047,-20.40369],[-43.4207,-20.40339],[-43.42037,-20.4039],[-43.42047,-20.40369]],[[-43.42141,-20.39164],[-43.42139,-20.39172],[-43.42059,-20.39119],[-43.42141,-20.39164]],[[-43.42061,-20.39942],[-43.42069,-20.39925],[-43.4216,-20.40134],[-43.42061,-20.39942]],[[-43.42147,-20.37452],[-43.42086,-20.37506],[-43.42157,-20.3744],[-43.42147,-20.37452]],[[-43.42103,-20.37409],[-43.4211,-20.37413],[-43.42089,-20.37412],[-43.42103,-20.37409]],[[-43.42112,-20.36868],[-43.42167,-20.36828],[-43.42233,-20.36781],[-43.42112,-20.36868]],[[-43.42128,-20.39218],[-43.42127,-20.39212],[-43.42132,-20.39202],[-43.42128,-20.39218]],[[-43.42188,-20.36359],[-43.42212,-20.36342],[-43.42131,-20.36447],[-43.42188,-20.36359]],[[-43.42148,-20.39279],[-43.42137,-20.39267],[-43.42134,-20.39248],[-43.42148,-20.39279]],[[-43.42178,-20.40183],[-43.42168,-20.40192],[-43.42189,-20.40139],[-43.42178,-20.40183]],[[-43.42238,-20.39002],[-43.42169,-20.38941],[-43.42251,-20.39004],[-43.42238,-20.39002]],[[-43.4225,-20.40207],[-43.42246,-20.40212],[-43.42202,-20.40193],[-43.4225,-20.40207]],[[-43.42348,-20.36386],[-43.42218,-20.36338],[-43.42328,-20.36261],[-43.42225,-20.36336],[-43.42348,-20.36386]],[[-43.4222,-20.36725],[-43.42219,-20.36721],[-43.42268,-20.36625],[-43.4222,-20.36725]],[[-43.42763,-20.35329],[-43.42785,-20.3533],[-43.42657,-20.35359],[-43.42763,-20.35329]],[[-43.42657,-20.35359],[-43.42311,-20.35648],[-43.42361,-20.35604],[-43.42657,-20.35359]],[[-43.42361,-20.35604],[-43.42277,-20.3553],[-43.42231,-20.35489],[-43.42361,-20.35604]],[[-43.42235,-20.38662],[-43.42236,-20.38655],[-43.42254,-20.38697],[-43.42235,-20.38662]],[[-43.42263,-20.27442],[-43.42259,-20.2744],[-43.42236,-20.27418],[-43.42263,-20.27442]],[[-43.42286,-20.38742],[-43.4243,-20.38981],[-43.42262,-20.38713],[-43.42397,-20.38801],[-43.42286,-20.38742]],[[-43.4228,-20.39763],[-43.42293,-20.39785],[-43.4228,-20.39776],[-43.4228,-20.39763]],[[-43.42299,-20.36915],[-43.42327,-20.36911],[-43.4236,-20.36922],[-43.42299,-20.36915]],[[-43.42353,-20.37879],[-43.42365,-20.37889],[-43.42336,-20.37874],[-43.42353,-20.37879]],[[-43.42354,-20.26914],[-43.42353,-20.26906],[-43.42354,-20.26903],[-43.42354,-20.26914]],[[-43.4237,-20.26865],[-43.42356,-20.26885],[-43.42387,-20.26695],[-43.4237,-20.26865]],[[-43.42438,-20.37624],[-43.42407,-20.37539],[-43.42441,-20.37619],[-43.42527,-20.37608],[-43.42501,-20.37509],[-43.42568,-20.37713],[-43.4253,-20.37612],[-43.42438,-20.37624]],[[-43.4246,-20.38835],[-43.42447,-20.38828],[-43.42609,-20.38822],[-43.4246,-20.38835]],[[-43.42562,-20.30873],[-43.42458,-20.30832],[-43.42485,-20.30834],[-43.42562,-20.30873]],[[-43.42554,-20.3745],[-43.42486,-20.37452],[-43.42483,-20.37441],[-43.42554,-20.3745]],[[-43.42596,-20.36576],[-43.42593,-20.36577],[-43.42711,-20.36475],[-43.42596,-20.36576]],[[-43.42671,-20.38817],[-43.42655,-20.38819],[-43.42752,-20.38775],[-43.42671,-20.38817]],[[-43.4276,-20.31758],[-43.42849,-20.31691],[-43.42879,-20.31685],[-43.4276,-20.31758]],[[-43.4276,-20.31758],[-43.42711,-20.31846],[-43.42716,-20.31822],[-43.4276,-20.31758]],[[-43.42814,-20.36262],[-43.42854,-20.36282],[-43.4279,-20.36268],[-43.42814,-20.36262]],[[-43.42896,-20.27598],[-43.42888,-20.27599],[-43.42832,-20.27538],[-43.42896,-20.27598]],[[-43.4288,-20.36421],[-43.42883,-20.36421],[-43.42903,-20.36498],[-43.4288,-20.36421]],[[-43.42887,-20.36273],[-43.42917,-20.36308],[-43.4288,-20.36275],[-43.42887,-20.36273]],[[-43.42944,-20.35338],[-43.42939,-20.35339],[-43.42895,-20.35335],[-43.42944,-20.35338]],[[-43.42971,-20.36494],[-43.42973,-20.36479],[-43.43011,-20.3644],[-43.42971,-20.36494]],[[-43.43037,-20.35316],[-43.43031,-20.35322],[-43.43008,-20.35326],[-43.43037,-20.35316]],[[-43.43069,-20.36285],[-43.43024,-20.36382],[-43.43038,-20.36327],[-43.43069,-20.36285]],[[-43.43158,-20.3542],[-43.43153,-20.35428],[-43.43035,-20.35374],[-43.43158,-20.3542]],[[-43.43073,-20.35274],[-43.4307,-20.35284],[-43.43054,-20.35299],[-43.43073,-20.35274]],[[-43.43116,-20.35911],[-43.43118,-20.35953],[-43.43111,-20.35949],[-43.43116,-20.35911]],[[-43.43164,-20.31631],[-43.43236,-20.31672],[-43.43256,-20.31695],[-43.43164,-20.31631]],[[-43.43301,-20.27552],[-43.43312,-20.27546],[-43.433,-20.27594],[-43.43301,-20.27552]],[[-43.433,-20.27594],[-43.43233,-20.27635],[-43.43214,-20.27636],[-43.433,-20.27594]],[[-43.43349,-20.31819],[-43.43299,-20.31744],[-43.43406,-20.31867],[-43.43349,-20.31819]],[[-43.43334,-20.27533],[-43.43483,-20.27639],[-43.43324,-20.27539],[-43.43334,-20.27533]],[[-43.4354,-20.31887],[-43.43533,-20.31886],[-43.43649,-20.31878],[-43.4354,-20.31887]],[[-43.43658,-20.34428],[-43.43643,-20.3431],[-43.43647,-20.34295],[-43.43658,-20.34428]],[[-43.43652,-20.34279],[-43.43658,-20.34258],[-43.43704,-20.34219],[-43.43652,-20.34279]],[[-43.43758,-20.34332],[-43.43766,-20.34298],[-43.43766,-20.34399],[-43.43758,-20.34332]],[[-43.43787,-20.27578],[-43.43789,-20.2758],[-43.4376,-20.2757],[-43.43787,-20.27578]],[[-43.43773,-20.34269],[-43.44003,-20.33899],[-43.43768,-20.3429],[-43.43773,-20.34269]],[[-43.43821,-20.27607],[-43.43848,-20.27701],[-43.43806,-20.27594],[-43.43821,-20.27607]],[[-43.4452,-20.36857],[-43.44947,-20.36821],[-43.44921,-20.36827],[-43.4452,-20.36857]],[[-43.44982,-20.36814],[-43.45171,-20.36768],[-43.45136,-20.3678],[-43.44982,-20.36814]],[[-43.45242,-20.36742],[-43.45319,-20.36705],[-43.45283,-20.36727],[-43.45242,-20.36742]],[[-43.45548,-20.36494],[-43.45329,-20.36698],[-43.45554,-20.36483],[-43.45548,-20.36494]]]}}]}