{"type":"FeatureCollection","features":[{"type":"Feature","properties":{"municipio":"SAO JOAO DEL REI"},"geometry":{"type":"Polygon","coordinates":[[[-44.23512,-21.12164],[-44.2329,-21.12245],[-44.23232,-21.12457],[-44.2301,-21.12633],[-44.22927,-21.12789],[-44.22663,-21.12848],[-44.22512,-21.1271],[-44.22212,-21.126],[-44.22376,-21.12771],[-44.22379,-21.12953],[-44.22332,-21.13185],[-44.22198,-21.13346],[-44.22128,-21.13547],[-44.22144,-21.13635],[-44.22078,-21.13769],[-44.22108,-21.13862],[-44.22027,-21.14023],[-44.2197,-21.14328],[-44.2203,-21.14452],[-44.22417,-21.14488],[-44.22344,-21.14762],[-44.22207,-21.14747],[-44.22152,-21.15076],[-44.22043,-21.15153],[-44.22034,-21.15255],[-44.21833,-21.15615],[-44.21888,-21.15648],[-44.22315,-21.15601],[-44.22564,-21.15498],[-44.2256,-21.15383],[-44.22611,-21.15318],[-44.22716,-21.15509],[-44.23143,-21.15368],[-44.23299,-21.15378],[-44.2334,-21.15444],[-44.23207,-21.15608],[-44.23278,-21.15609],[-44.23977,-21.15328],[-44.24136,-21.15503],[-44.24443,-21.15573],[-44.24865,-21.1581],[-44.2492,-21.15763],[-44.25314,-21.15686],[-44.25387,-21.15362],[-44.25542,-21.15406],[-44.2557,-21.15524],[-44.25504,-21.15538],[-44.25513,-21.15648],[-44.25667,-21.15744],[-44.25677,-21.16067],[-44.25278,-21.16663],[-44.25466,-21.16672],[-44.25637,-21.1681],[-44.25912,-21.16698],[-44.25808,-21.17063],[-44.26186,-21.17338],[-44.27651,-21.17887],[-44.27746,-21.1772],[-44.2791,-21.17609],[-44.28016,-21.17436],[-44.28513,-21.17366],[-44.28979,-21.17164],[-44.29128,-21.16698],[-44.2884,-21.16412],[-44.28863,-21.15935],[-44.29092,-21.15544],[-44.29319,-21.15422],[-44.29545,-21.15416],[-44.29529,-21.15114],[-44.29187,-21.1499],[-44.29078,-21.14883],[-44.2902,-21.14721],[-44.2868,-21.14688],[-44.2872,-21.1461],[-44.28632,-21.145],[-44.28751,-21.14305],[-44.28583,-21.14287],[-44.28528,-21.14235],[-44.28671,-21.14042],[-44.28571,-21.1389],[-44.28611,-21.13752],[-44.28593,-21.13334],[-44.28343,-21.13327],[-44.28401,-21.13185],[-44.28346,-21.13138],[-44.28172,-21.13309],[-44.28006,-21.13346],[-44.27771,-21.13315],[-44.27657,-21.13197],[-44.27464,-21.13188],[-44.27316,-21.13269],[-44.27172,-21.13275],[-44.27128,-21.13094],[-44.26906,-21.12989],[-44.26916,-21.12909],[-44.26834,-21.12835],[-44.26744,-21.12471],[-44.2667,-21.1243],[-44.26602,-21.12262],[-44.26474,-21.12238],[-44.26478,-21.121],[-44.2634,-21.12053],[-44.26339,-21.11952],[-44.26266,-21.1193],[-44.26079,-21.116],[-44.26673,-21.11165],[-44.2709,-21.11122],[-44.27066,-21.1085],[-44.27201,-21.1062],[-44.27148,-21.10534],[-44.27141,-21.10254],[-44.27227,-21.09977],[-44.27295,-21.09898],[-44.27249,-21.0958],[-44.26976,-21.09444],[-44.2671,-21.09513],[-44.26656,-21.09445],[-44.26422,-21.09433],[-44.26298,-21.09274],[-44.26217,-21.09238],[-44.26009,-21.09425],[-44.25871,-21.09337],[-44.2584,-21.09605],[-44.25715,-21.09969],[-44.25496,-21.10016],[-44.25246,-21.09894],[-44.25058,-21.09953],[-44.24829,-21.09778],[-44.24758,-21.09778],[-44.24642,-21.09865],[-44.24588,-21.10094],[-44.2449,-21.10126],[-44.24403,-21.09963],[-44.24451,-21.09823],[-44.24422,-21.09774],[-44.24273,-21.09805],[-44.24203,-21.0995],[-44.24104,-21.09915],[-44.2411,-21.0984],[-44.24214,-21.09819],[-44.24279,-21.09748],[-44.24104,-21.09774],[-44.24017,-21.0973],[-44.24034,-21.0965],[-44.2412,-21.09715],[-44.24222,-21.09693],[-44.24192,-21.09606],[-44.24054,-21.09615],[-44.24024,-21.09539],[-44.24087,-21.09454],[-44.24033,-21.09336],[-44.24141,-21.09302],[-44.24102,-21.0903],[-44.24243,-21.08845],[-44.24153,-21.08779],[-44.24123,-21.08889],[-44.24027,-21.08938],[-44.24,-21.08887],[-44.24083,-21.08799],[-44.24049,-21.08651],[-44.23885,-21.0871],[-44.23808,-21.08599],[-44.23627,-21.08631],[-44.23595,-21.08461],[-44.23764,-21.08427],[-44.23736,-21.08279],[-44.23803,-21.08219],[-44.23774,-21.08159],[-44.23636,-21.0814],[-44.23674,-21.07991],[-44.23375,-21.07998],[-44.23296,-21.07875],[-44.23223,-21.07937],[-44.23032,-21.07867],[-44.22766,-21.07858],[-44.22554,-21.07734],[-44.22512,-21.07669],[-44.22584,-21.07588],[-44.22439,-21.0751],[-44.22393,-21.07613],[-44.22432,-21.07825],[-44.2238,-21.08241],[-44.22261,-21.08555],[-44.21646,-21.08845],[-44.20824,-21.08879],[-44.20797,-21.09074],[-44.20622,-21.09452],[-44.20699,-21.09664],[-44.2068,-21.09891],[-44.20601,-21.09994],[-44.20339,-21.10145],[-44.20361,-21.10211],[-44.20537,-21.10353],[-44.20624,-21.10574],[-44.2048,-21.10871],[-44.20551,-21.11017],[-44.20542,-21.11122],[-44.20388,-21.11302],[-44.20373,-21.11401],[-44.20453,-21.11536],[-44.20582,-21.11569],[-44.20747,-21.11556],[-44.21295,-21.11373],[-44.21702,-21.11519],[-44.21754,-21.11433],[-44.22082,-21.1147],[-44.22334,-21.11661],[-44.2266,-21.1166],[-44.23021,-21.11774],[-44.23212,-21.11925],[-44.23498,-21.12007],[-44.23594,-21.12161],[-44.23992,-21.12175],[-44.23512,-21.12164]],[[-44.22561,-21.15211],[-44.22663,-21.15237],[-44.22658,-21.15245],[-44.22561,-21.15211]],[[-44.23931,-21.15288],[-44.23932,-21.15266],[-44.23944,-21.15299],[-44.23931,-21.15288]],[[-44.23968,-21.14985],[-44.24002,-21.14931],[-44.23962,-21.15011],[-44.23968,-21.14985]],[[-44.24206,-21.1158],[-44.24026,-21.11561],[-44.24048,-21.11554],[-44.24206,-21.1158]],[[-44.24412,-21.12993],[-44.24296,-21.13079],[-44.24265,-21.13092],[-44.24412,-21.12993]],[[-44.24398,-21.1211],[-44.24496,-21.12327],[-44.24501,-21.12343],[-44.24398,-21.1211]],[[-44.24582,-21.14026],[-44.24584,-21.14024],[-44.24598,-21.14095],[-44.24582,-21.14026]],[[-44.24594,-21.12861],[-44.24601,-21.12854],[-44.24617,-21.12854],[-44.24594,-21.12861]],[[-44.24702,-21.1391],[-44.24736,-21.13891],[-44.2463,-21.13979],[-44.24702,-21.1391]],[[-44.24659,-21.14322],[-44.24666,-21.14304],[-44.24665,-21.14316],[-44.24659,-21.14322]],[[-44.24662,-21.12854],[-44.24698,-21.12854],[-44.24886,-21.12943],[-44.24662,-21.12854]],[[-44.25031,-21.13798],[-44.25456,-21.1342],[-44.24961,-21.13871],[-44.25031,-21.13798]],[[-44.25031,-21.13798],[-44.24754,-21.13881],[-44.2479,-21.1386],[-44.25031,-21.13798]],[[-44.25191,-21.13933],[-44.25189,-21.1393],[-44.25349,-21.13939],[-44.25191,-21.13933]],[[-44.25306,-21.12846],[-44.25332,-21.12747],[-44.25338,-21.12742],[-44.25306,-21.12846]],[[-44.25394,-21.12693],[-44.25632,-21.12585],[-44.25358,-21.12724],[-44.25394,-21.12693]],[[-44.26053,-21.13081],[-44.25706,-21.13062],[-44.25904,-21.1306],[-44.26053,-21.13081]],[[-44.26279,-21.14304],[-44.26185,-21.14295],[-44.26183,-21.14294],[-44.26279,-21.14304]],[[-44.26284,-21.14244],[-44.26277,-21.14232],[-44.26318,-21.14153],[-44.26284,-21.14244]],[[-44.26417,-21.1431],[-44.26404,-21.14328],[-44.26411,-21.14281],[-44.26417,-21.1431]],[[-44.26411,-21.14281],[-44.26303,-21.14264],[-44.26287,-21.14249],[-44.26411,-21.14281]],[[-44.26369,-21.13294],[-44.26358,-21.13294],[-44.26389,-21.13246],[-44.26369,-21.13294]],[[-44.26617,-21.16094],[-44.26607,-21.16101],[-44.26477,-21.16071],[-44.26617,-21.16094]],[[-44.26548,-21.13618],[-44.26578,-21.13435],[-44.26604,-21.13363],[-44.26548,-21.13618]],[[-44.26591,-21.15945],[-44.26628,-21.16052],[-44.26614,-21.16044],[-44.26591,-21.15945]],[[-44.26633,-21.16067],[-44.26638,-21.16081],[-44.26628,-21.16087],[-44.26633,-21.16067]]]}}]}