{"type":"FeatureCollection","features":[{"type":"Feature","properties":{"municipio":"DIVINOPOLIS"},"geometry":{"type":"Polygon","coordinates":[[[-44.91371,-20.21883],[-44.91532,-20.21857],[-44.91631,-20.21879],[-44.9166,-20.21713],[-44.91861,-20.21713],[-44.92054,-20.21855],[-44.921,-20.22101],[-44.92278,-20.22066],[-44.92346,-20.22214],[-44.92501,-20.22248],[-44.92472,-20.22425],[-44.92388,-20.22482],[-44.92313,-20.22637],[-44.92344,-20.22704],[-44.92576,-20.22658],[-44.92586,-20.22463],[-44.92721,-20.22298],[-44.92857,-20.22287],[-44.9296,-20.22355],[-44.93062,-20.22213],[-44.93161,-20.22223],[-44.93232,-20.22],[-44.93196,-20.21967],[-44.93113,-20.21977],[-44.93187,-20.21789],[-44.93261,-20.21772],[-44.93283,-20.21663],[-44.93374,-20.21631],[-44.93464,-20.21484],[-44.93567,-20.21428],[-44.93651,-20.21449],[-44.93702,-20.21283],[-44.93875,-20.21289],[-44.93845,-20.21259],[-44.93894,-20.21152],[-44.93961,-20.21082],[-44.94107,-20.21034],[-44.94161,-20.20928],[-44.94267,-20.20937],[-44.94364,-20.20859],[-44.94522,-20.20936],[-44.94814,-20.20955],[-44.94939,-20.21084],[-44.95018,-20.21114],[-44.95315,-20.20995],[-44.95661,-20.21001],[-44.95875,-20.20933],[-44.95979,-20.20981],[-44.96128,-20.21132],[-44.96372,-20.21192],[-44.96467,-20.21393],[-44.96564,-20.21414],[-44.96636,-20.21333],[-44.96746,-20.20982],[-44.96827,-20.20872],[-44.96948,-20.20799],[-44.97043,-20.20638],[-44.97447,-20.20595],[-44.97712,-20.20223],[-44.97956,-20.20048],[-44.98296,-20.19644],[-44.98308,-20.19531],[-44.98159,-20.19154],[-44.98217,-20.19105],[-44.98851,-20.18861],[-44.99009,-20.18766],[-44.9926,-20.18737],[-44.99421,-20.18845],[-44.99499,-20.18956],[-44.99694,-20.19538],[-44.99767,-20.19623],[-44.99814,-20.19614],[-45.00146,-20.1885],[-45.00416,-20.18646],[-45.00681,-20.1853],[-45.00759,-20.18434],[-45.00628,-20.18234],[-45.00561,-20.1796],[-45.00598,-20.17781],[-45.00771,-20.17379],[-45.00784,-20.17194],[-45.00841,-20.17102],[-45.00805,-20.171],[-45.01177,-20.16858],[-45.01318,-20.16666],[-45.01404,-20.16621],[-45.0148,-20.16632],[-45.01748,-20.16845],[-45.02117,-20.17015],[-45.02192,-20.1701],[-45.02345,-20.16844],[-45.02593,-20.16336],[-45.02962,-20.16106],[-45.03117,-20.1609],[-45.03271,-20.1619],[-45.03661,-20.16266],[-45.04221,-20.1599],[-45.04434,-20.15571],[-45.05224,-20.14931],[-45.05497,-20.1464],[-45.05588,-20.14614],[-45.05911,-20.14805],[-45.06084,-20.14856],[-45.06178,-20.14824],[-45.06295,-20.14665],[-45.06489,-20.14539],[-45.06614,-20.14566],[-45.06885,-20.1484],[-45.07151,-20.14947],[-45.07775,-20.14785],[-45.0786,-20.1473],[-45.08032,-20.14462],[-45.08186,-20.13995],[-45.08388,-20.13653],[-45.08449,-20.13332],[-45.08506,-20.13231],[-45.08568,-20.13196],[-45.08829,-20.13178],[-45.08958,-20.12999],[-45.09085,-20.12917],[-45.09388,-20.12919],[-45.09689,-20.12273],[-45.098,-20.12152],[-45.1023,-20.11988],[-45.1052,-20.11714],[-45.10805,-20.11663],[-45.10915,-20.11605],[-45.10897,-20.11243],[-45.11004,-20.10856],[-45.10815,-20.10102],[-45.10685,-20.0983],[-45.10669,-20.09692],[-45.10766,-20.09486],[-45.10913,-20.09421],[-45.11199,-20.09109],[-45.11555,-20.08825],[-45.11653,-20.08686],[-45.12027,-20.08555],[-45.12114,-20.0835],[-45.12128,-20.07968],[-45.12265,-20.07764],[-45.12226,-20.07602],[-45.12148,-20.07499],[-45.11874,-20.07271],[-45.11489,-20.0686],[-45.11414,-20.06638],[-45.11232,-20.06526],[-45.11053,-20.06504],[-45.10893,-20.06708],[-45.10763,-20.06773],[-45.10481,-20.0668],[-45.10366,-20.06591],[-45.10277,-20.06451],[-45.10139,-20.06382],[-45.09862,-20.06349],[-45.09228,-20.0637],[-45.08896,-20.0649],[-45.0855,-20.06673],[-45.08421,-20.06688],[-45.08265,-20.06603],[-45.08143,-20.06388],[-45.07877,-20.06341],[-45.07819,-20.06268],[-45.07674,-20.05779],[-45.07225,-20.0543],[-45.07108,-20.0518],[-45.07016,-20.04657],[-45.06942,-20.04584],[-45.06687,-20.04509],[-45.06547,-20.04386],[-45.06229,-20.03738],[-45.05997,-20.03545],[-45.05941,-20.03418],[-45.05923,-20.03136],[-45.05881,-20.03033],[-45.05525,-20.02873],[-45.053,-20.02524],[-45.05184,-20.02407],[-45.05016,-20.02309],[-45.04748,-20.01999],[-45.04527,-20.01878],[-45.0455,-20.01807],[-45.04712,-20.01741],[-45.04794,-20.01654],[-45.04788,-20.01349],[-45.04717,-20.01169],[-45.04489,-20.00964],[-45.04392,-20.00639],[-45.04399,-20.00126],[-45.04511,-19.9985],[-45.04552,-19.99541],[-45.04435,-19.99365],[-45.04199,-19.99126],[-45.04088,-19.99169],[-45.03989,-19.99264],[-45.03721,-19.99655],[-45.03542,-19.99994],[-45.03381,-20.00017],[-45.02963,-20.00395],[-45.02567,-20.00676],[-45.02418,-20.00694],[-45.02202,-20.00567],[-45.02084,-20.00593],[-45.01988,-20.00668],[-45.01895,-20.00979],[-45.0181,-20.01024],[-45.01526,-20.01037],[-45.01158,-20.00848],[-45.00842,-20.00834],[-45.00486,-20.01077],[-44.9994,-20.01194],[-44.99743,-20.01168],[-44.99645,-20.01088],[-44.99649,-20.00617],[-44.99544,-20.00483],[-44.9942,-20.00495],[-44.98948,-20.00768],[-44.98902,-20.00833],[-44.98648,-20.00895],[-44.98505,-20.00763],[-44.98152,-20.00643],[-44.97946,-20.0041],[-44.97598,-20.00115],[-44.97502,-20.00075],[-44.97415,-20.00125],[-44.97343,-20.0032],[-44.97217,-20.00254],[-44.97097,-20.00109],[-44.97046,-19.99894],[-44.97094,-19.99691],[-44.97072,-19.99634],[-44.96971,-19.99539],[-44.96403,-19.99211],[-44.96313,-19.99011],[-44.96294,-19.9871],[-44.96221,-19.98487],[-44.96143,-19.98352],[-44.95922,-19.98214],[-44.958,-19.98044],[-44.95835,-19.97462],[-44.95674,-19.9726],[-44.95631,-19.97108],[-44.95781,-19.96807],[-44.95786,-19.96568],[-44.95488,-19.96256],[-44.95762,-19.95764],[-44.96064,-19.95452],[-44.96183,-19.95139],[-44.9647,-19.94742],[-44.96791,-19.94533],[-44.96837,-19.94351],[-44.9682,-19.9416],[-44.96484,-19.9348],[-44.95858,-19.93413],[-44.95732,-19.93455],[-44.95515,-19.93666],[-44.9536,-19.93703],[-44.9526,-19.93769],[-44.9509,-19.93985],[-44.95073,-19.9421],[-44.95034,-19.94236],[-44.94487,-19.94219],[-44.9439,-19.94162],[-44.94203,-19.93937],[-44.9378,-19.9381],[-44.93384,-19.93773],[-44.93246,-19.93821],[-44.93136,-19.93913],[-44.92716,-19.93996],[-44.92616,-19.93975],[-44.92495,-19.93823],[-44.924,-19.93802],[-44.9223,-19.93931],[-44.92013,-19.94193],[-44.91882,-19.9425],[-44.91661,-19.94144],[-44.91593,-19.9402],[-44.91581,-19.93816],[-44.91511,-19.93751],[-44.91068,-19.93712],[-44.9092,-19.93664],[-44.90595,-19.93691],[-44.905,-19.93647],[-44.90337,-19.93454],[-44.90133,-19.93103],[-44.8989,-19.92946],[-44.89441,-19.92792],[-44.89252,-19.92509],[-44.88951,-19.92274],[-44.88802,-19.92084],[-44.88786,-19.91825],[-44.88555,-19.91916],[-44.88399,-19.92079],[-44.8829,-19.92265],[-44.88139,-19.92674],[-44.88058,-19.93138],[-44.88111,-19.93285],[-44.88291,-19.93519],[-44.88301,-19.93621],[-44.88245,-19.93701],[-44.87817,-19.93868],[-44.87685,-19.94013],[-44.87668,-19.94054],[-44.87809,-19.94241],[-44.87819,-19.94333],[-44.87704,-19.94496],[-44.8732,-19.94606],[-44.8724,-19.9467],[-44.87196,-19.94822],[-44.87257,-19.95005],[-44.8732,-19.95097],[-44.87468,-19.95157],[-44.87962,-19.95045],[-44.88047,-19.95089],[-44.88192,-19.95291],[-44.88377,-19.95383],[-44.88822,-19.95106],[-44.89029,-19.94713],[-44.8918,-19.94566],[-44.89469,-19.94525],[-44.89576,-19.94566],[-44.90032,-19.9489],[-44.90472,-19.95015],[-44.90584,-19.95127],[-44.90615,-19.95311],[-44.90584,-19.95447],[-44.90479,-19.95571],[-44.89993,-19.95761],[-44.89876,-19.95853],[-44.89874,-19.95991],[-44.90077,-19.96271],[-44.90296,-19.96467],[-44.90456,-19.9652],[-44.9068,-19.96525],[-44.90996,-19.96375],[-44.91195,-19.96376],[-44.91215,-19.96472],[-44.91161,-19.96766],[-44.91195,-19.96805],[-44.91543,-19.96863],[-44.91696,-19.97003],[-44.91696,-19.97097],[-44.91632,-19.97228],[-44.91656,-19.97523],[-44.91622,-19.97628],[-44.9151,-19.97741],[-44.91355,-19.9772],[-44.91085,-19.97481],[-44.90529,-19.97451],[-44.90405,-19.97531],[-44.903,-19.97795],[-44.90115,-19.97963],[-44.89933,-19.98039],[-44.89714,-19.98006],[-44.89527,-19.98064],[-44.89558,-19.98165],[-44.89942,-19.98592],[-44.90029,-19.98776],[-44.89973,-19.98972],[-44.89769,-19.99107],[-44.89769,-19.99162],[-44.89849,-19.99298],[-44.90085,-19.99512],[-44.90109,-19.99647],[-44.90036,-19.99771],[-44.89739,-19.99858],[-44.89693,-19.99934],[-44.89723,-20.00083],[-44.89975,-20.00268],[-44.89948,-20.00336],[-44.89464,-20.0042],[-44.89393,-20.00483],[-44.89328,-20.00644],[-44.8927,-20.0067],[-44.89104,-20.00664],[-44.8875,-20.0055],[-44.88758,-20.00707],[-44.88994,-20.01231],[-44.89018,-20.01453],[-44.89067,-20.01538],[-44.8915,-20.01546],[-44.89193,-20.01642],[-44.89116,-20.02108],[-44.88864,-20.02551],[-44.88842,-20.02765],[-44.88869,-20.02901],[-44.88761,-20.02989],[-44.88582,-20.03022],[-44.88129,-20.0303],[-44.87673,-20.02974],[-44.87632,-20.03043],[-44.87627,-20.03206],[-44.8768,-20.03491],[-44.8712,-20.03702],[-44.86687,-20.03705],[-44.86612,-20.038],[-44.86707,-20.04229],[-44.86814,-20.04323],[-44.87025,-20.04654],[-44.8717,-20.04803],[-44.87077,-20.04954],[-44.86889,-20.05094],[-44.86818,-20.05228],[-44.87257,-20.05258],[-44.87313,-20.05418],[-44.87411,-20.05541],[-44.87926,-20.05631],[-44.88181,-20.05758],[-44.88716,-20.05917],[-44.8881,-20.06017],[-44.88897,-20.06287],[-44.88802,-20.06643],[-44.88811,-20.0701],[-44.8878,-20.07199],[-44.88827,-20.0743],[-44.88792,-20.07494],[-44.88602,-20.07586],[-44.88322,-20.07558],[-44.87979,-20.07586],[-44.87892,-20.07498],[-44.87922,-20.07204],[-44.87892,-20.07155],[-44.87723,-20.07116],[-44.87205,-20.06877],[-44.86992,-20.06855],[-44.86627,-20.06895],[-44.86455,-20.07017],[-44.86385,-20.07136],[-44.86357,-20.07539],[-44.86219,-20.08142],[-44.86194,-20.08757],[-44.86076,-20.09036],[-44.8616,-20.09131],[-44.86108,-20.0908],[-44.85852,-20.09151],[-44.85353,-20.09504],[-44.85104,-20.09849],[-44.84961,-20.09897],[-44.84708,-20.09913],[-44.84255,-20.10249],[-44.84303,-20.10399],[-44.84429,-20.10512],[-44.84306,-20.1067],[-44.84263,-20.10944],[-44.84062,-20.10977],[-44.83825,-20.10959],[-44.83627,-20.11166],[-44.83457,-20.11081],[-44.83356,-20.10899],[-44.83029,-20.11022],[-44.8249,-20.10859],[-44.82209,-20.1088],[-44.82078,-20.10774],[-44.82003,-20.10616],[-44.81902,-20.1057],[-44.81808,-20.10582],[-44.81528,-20.10734],[-44.81467,-20.10889],[-44.81424,-20.10908],[-44.81236,-20.10844],[-44.81197,-20.10861],[-44.81142,-20.10932],[-44.81148,-20.11074],[-44.81403,-20.11206],[-44.81777,-20.11282],[-44.81991,-20.11628],[-44.82088,-20.11705],[-44.82055,-20.11899],[-44.82157,-20.12048],[-44.82164,-20.12125],[-44.82029,-20.12286],[-44.82012,-20.12355],[-44.82039,-20.12408],[-44.82295,-20.12492],[-44.82316,-20.12545],[-44.82283,-20.12646],[-44.82125,-20.12782],[-44.81832,-20.12789],[-44.81754,-20.13062],[-44.81524,-20.13302],[-44.81525,-20.13457],[-44.8171,-20.13588],[-44.81713,-20.13694],[-44.81677,-20.13744],[-44.81178,-20.13655],[-44.81136,-20.13695],[-44.8109,-20.13895],[-44.81026,-20.13935],[-44.80882,-20.13914],[-44.80757,-20.1396],[-44.80699,-20.14179],[-44.80786,-20.14271],[-44.80987,-20.14383],[-44.80962,-20.1455],[-44.80868,-20.14572],[-44.80611,-20.14391],[-44.80289,-20.14627],[-44.80139,-20.1483],[-44.80079,-20.14986],[-44.8001,-20.15359],[-44.79879,-20.15746],[-44.7997,-20.15797],[-44.80247,-20.15719],[-44.80311,-20.15683],[-44.8046,-20.15421],[-44.80551,-20.15417],[-44.80657,-20.15578],[-44.80743,-20.1599],[-44.80889,-20.16074],[-44.81013,-20.16094],[-44.81056,-20.16163],[-44.81038,-20.16388],[-44.80846,-20.16502],[-44.80567,-20.16748],[-44.80289,-20.1662],[-44.80152,-20.16674],[-44.80085,-20.16845],[-44.79882,-20.16966],[-44.79856,-20.1722],[-44.79467,-20.17978],[-44.79342,-20.18127],[-44.79371,-20.18249],[-44.79282,-20.18225],[-44.792,-20.18279],[-44.79042,-20.18304],[-44.7892,-20.18479],[-44.78814,-20.18448],[-44.78732,-20.18671],[-44.78654,-20.18757],[-44.78462,-20.18829],[-44.78383,-20.18898],[-44.78452,-20.19176],[-44.78433,-20.19227],[-44.78292,-20.19335],[-44.78096,-20.19366],[-44.78077,-20.19507],[-44.77991,-20.1966],[-44.7778,-20.19727],[-44.77759,-20.19819],[-44.7802,-20.19987],[-44.78075,-20.20222],[-44.78032,-20.20223],[-44.77963,-20.20085],[-44.77862,-20.19995],[-44.77582,-20.20036],[-44.7751,-20.20122],[-44.77568,-20.20495],[-44.77529,-20.2056],[-44.77352,-20.20721],[-44.77116,-20.2084],[-44.76961,-20.20981],[-44.76698,-20.21027],[-44.76602,-20.21103],[-44.76611,-20.21212],[-44.76747,-20.21454],[-44.76399,-20.21499],[-44.76311,-20.21586],[-44.76303,-20.21746],[-44.76482,-20.21792],[-44.76509,-20.21843],[-44.76445,-20.21984],[-44.76264,-20.22109],[-44.76144,-20.22065],[-44.75925,-20.22133],[-44.758,-20.22068],[-44.75637,-20.22067],[-44.75243,-20.22208],[-44.75242,-20.22363],[-44.754,-20.22376],[-44.75425,-20.22417],[-44.75283,-20.22589],[-44.75249,-20.22767],[-44.7502,-20.22926],[-44.75061,-20.23136],[-44.75019,-20.23406],[-44.75061,-20.23611],[-44.7512,-20.237],[-44.754,-20.2381],[-44.75726,-20.2387],[-44.7607,-20.24015],[-44.76177,-20.24118],[-44.76271,-20.24297],[-44.76326,-20.24623],[-44.76155,-20.24944],[-44.75799,-20.25338],[-44.7586,-20.25439],[-44.7615,-20.25496],[-44.76515,-20.25459],[-44.76789,-20.25325],[-44.76884,-20.2522],[-44.77369,-20.2494],[-44.77822,-20.24956],[-44.7798,-20.25043],[-44.78153,-20.25083],[-44.78317,-20.25202],[-44.78533,-20.25729],[-44.78859,-20.26001],[-44.79033,-20.26217],[-44.79278,-20.26389],[-44.79562,-20.26482],[-44.7967,-20.26582],[-44.79724,-20.26586],[-44.80073,-20.26321],[-44.80163,-20.26274],[-44.80218,-20.26287],[-44.8049,-20.26607],[-44.80932,-20.26947],[-44.80948,-20.27133],[-44.81086,-20.27443],[-44.81092,-20.27666],[-44.81167,-20.27774],[-44.8133,-20.27793],[-44.81788,-20.28023],[-44.82104,-20.28129],[-44.82115,-20.27914],[-44.82308,-20.27881],[-44.82359,-20.27905],[-44.82501,-20.2808],[-44.82667,-20.28145],[-44.82783,-20.28251],[-44.82993,-20.28252],[-44.83314,-20.28456],[-44.83499,-20.28692],[-44.83647,-20.28767],[-44.83868,-20.2881],[-44.84168,-20.29052],[-44.84284,-20.292],[-44.84313,-20.29299],[-44.84672,-20.29537],[-44.84841,-20.29538],[-44.85081,-20.29373],[-44.85188,-20.29341],[-44.8595,-20.29514],[-44.86012,-20.29587],[-44.86063,-20.29939],[-44.86154,-20.30058],[-44.8634,-20.3013],[-44.86426,-20.30262],[-44.86597,-20.30399],[-44.86724,-20.30675],[-44.86814,-20.30659],[-44.86883,-20.30723],[-44.87055,-20.30631],[-44.87315,-20.30372],[-44.87643,-20.30354],[-44.88193,-20.30504],[-44.88254,-20.3071],[-44.88366,-20.30884],[-44.88554,-20.30818],[-44.88679,-20.30563],[-44.88715,-20.30334],[-44.88374,-20.29755],[-44.88357,-20.29667],[-44.88297,-20.29617],[-44.8816,-20.29199],[-44.88285,-20.28961],[-44.88401,-20.29],[-44.88542,-20.28991],[-44.88593,-20.2892],[-44.88552,-20.2863],[-44.88625,-20.28475],[-44.88813,-20.284],[-44.88952,-20.28537],[-44.89143,-20.28554],[-44.89218,-20.28521],[-44.89215,-20.2827],[-44.89275,-20.28204],[-44.89281,-20.28128],[-44.89184,-20.28042],[-44.89187,-20.27889],[-44.89338,-20.27816],[-44.8936,-20.27906],[-44.89411,-20.27913],[-44.89584,-20.27768],[-44.89515,-20.27485],[-44.89569,-20.27209],[-44.89489,-20.27038],[-44.89302,-20.26932],[-44.89192,-20.26732],[-44.892,-20.26554],[-44.89344,-20.26307],[-44.89385,-20.26068],[-44.89551,-20.26123],[-44.89626,-20.26066],[-44.89662,-20.25948],[-44.89712,-20.25954],[-44.89888,-20.25823],[-44.89926,-20.25849],[-44.89952,-20.25981],[-44.90024,-20.25983],[-44.90208,-20.2575],[-44.90302,-20.25863],[-44.90438,-20.25909],[-44.90888,-20.25462],[-44.91063,-20.25434],[-44.91163,-20.25545],[-44.91259,-20.25565],[-44.91366,-20.25364],[-44.91513,-20.25258],[-44.91634,-20.25042],[-44.91567,-20.24908],[-44.91448,-20.2483],[-44.91435,-20.24711],[-44.91303,-20.24673],[-44.91311,-20.24572],[-44.91234,-20.24456],[-44.91228,-20.24381],[-44.91377,-20.24198],[-44.91455,-20.24194],[-44.91577,-20.24267],[-44.91648,-20.24117],[-44.91703,-20.24142],[-44.91743,-20.24114],[-44.91743,-20.23995],[-44.91517,-20.2387],[-44.91482,-20.2371],[-44.91241,-20.23496],[-44.91242,-20.23363],[-44.91165,-20.23357],[-44.91128,-20.23267],[-44.90998,-20.23198],[-44.91031,-20.23005],[-44.9116,-20.22988],[-44.91191,-20.22947],[-44.91224,-20.22727],[-44.91295,-20.22627],[-44.9127,-20.22588],[-44.9133,-20.22553],[-44.91417,-20.22602],[-44.91267,-20.22372],[-44.9124,-20.22152],[-44.91274,-20.21998],[-44.91371,-20.21883]],[[-44.8616,-20.09131],[-44.86361,-20.09194],[-44.86216,-20.09155],[-44.8616,-20.09131]],[[-44.794,-20.18282],[-44.79467,-20.18295],[-44.79411,-20.18295],[-44.794,-20.18282]],[[-44.8038,-20.19342],[-44.80413,-20.19351],[-44.80173,-20.19344],[-44.8038,-20.19342]],[[-44.81922,-20.1684],[-44.80914,-20.16897],[-44.81313,-20.16874],[-44.81922,-20.1684]],[[-44.80914,-20.16897],[-44.80781,-20.1693],[-44.80799,-20.16917],[-44.80914,-20.16897]],[[-44.82342,-20.12515],[-44.82357,-20.12522],[-44.8239,-20.12573],[-44.82342,-20.12515]],[[-44.82997,-20.13207],[-44.83087,-20.13237],[-44.8309,-20.13241],[-44.82997,-20.13207]],[[-44.83113,-20.13269],[-44.83202,-20.13351],[-44.83253,-20.13399],[-44.83133,-20.13305],[-44.83113,-20.13269]],[[-44.83355,-20.13662],[-44.83476,-20.1387],[-44.83402,-20.13768],[-44.83355,-20.13662]],[[-44.83584,-20.12707],[-44.83559,-20.12581],[-44.83575,-20.12658],[-44.83584,-20.12707]],[[-44.84076,-20.12105],[-44.84099,-20.12053],[-44.84467,-20.11737],[-44.84114,-20.12046],[-44.84076,-20.12105]],[[-44.84223,-20.1356],[-44.84139,-20.13684],[-44.84215,-20.13567],[-44.84223,-20.1356]],[[-44.84475,-20.13402],[-44.8424,-20.13544],[-44.84269,-20.13517],[-44.84475,-20.13402]],[[-44.84424,-20.16292],[-44.844,-20.16287],[-44.84347,-20.16245],[-44.84424,-20.16292]],[[-44.84347,-20.16245],[-44.84284,-20.16103],[-44.84276,-20.16082],[-44.84347,-20.16245]],[[-44.84686,-20.15944],[-44.84656,-20.15957],[-44.84408,-20.15995],[-44.84686,-20.15944]],[[-44.84452,-20.13142],[-44.84473,-20.13117],[-44.84444,-20.13171],[-44.84452,-20.13142]],[[-44.84495,-20.16305],[-44.845,-20.1631],[-44.84472,-20.16303],[-44.84495,-20.16305]],[[-44.84504,-20.1672],[-44.84504,-20.16704],[-44.84511,-20.16731],[-44.84504,-20.1672]],[[-44.84536,-20.165],[-44.84808,-20.16415],[-44.84653,-20.16472],[-44.84536,-20.165]],[[-44.84536,-20.165],[-44.84504,-20.16591],[-44.8456,-20.16423],[-44.8456,-20.16448],[-44.84536,-20.165]],[[-44.84536,-20.16767],[-44.84561,-20.16786],[-44.84585,-20.16838],[-44.84536,-20.16767]],[[-44.84742,-20.17195],[-44.8526,-20.17005],[-44.84595,-20.1725],[-44.84742,-20.17195]],[[-44.84604,-20.18008],[-44.84603,-20.18009],[-44.84602,-20.18006],[-44.84604,-20.18008]],[[-44.84763,-20.12772],[-44.84616,-20.12853],[-44.84761,-20.12767],[-44.84763,-20.12772]],[[-44.84644,-20.21954],[-44.84716,-20.21896],[-44.84667,-20.21947],[-44.84644,-20.21954]],[[-44.84682,-20.18036],[-44.84731,-20.17926],[-44.84759,-20.17898],[-44.84682,-20.18036]],[[-44.84828,-20.17832],[-44.84822,-20.17836],[-44.84827,-20.17832],[-44.84828,-20.17832]],[[-44.8483,-20.12906],[-44.84836,-20.129],[-44.84849,-20.12896],[-44.8483,-20.12906]],[[-44.84971,-20.1493],[-44.84945,-20.15013],[-44.84865,-20.14967],[-44.84945,-20.15005],[-44.84971,-20.1493]],[[-44.85192,-20.14843],[-44.85067,-20.14808],[-44.85197,-20.14841],[-44.85192,-20.14843]],[[-44.85185,-20.15697],[-44.85144,-20.15707],[-44.85158,-20.15697],[-44.85185,-20.15697]],[[-44.85228,-20.1376],[-44.85197,-20.13686],[-44.8523,-20.13744],[-44.85228,-20.1376]],[[-44.85199,-20.13625],[-44.85199,-20.13619],[-44.85255,-20.13512],[-44.85199,-20.13625]],[[-44.85208,-20.16508],[-44.85299,-20.16727],[-44.85367,-20.16893],[-44.85208,-20.16508]],[[-44.85256,-20.1397],[-44.85224,-20.13908],[-44.85225,-20.13884],[-44.85256,-20.1397]],[[-44.85251,-20.15698],[-44.8542,-20.15781],[-44.85227,-20.15697],[-44.85251,-20.15698]],[[-44.85267,-20.14002],[-44.8527,-20.14009],[-44.8524,-20.14129],[-44.85267,-20.14002]],[[-44.8524,-20.14129],[-44.85261,-20.14303],[-44.85261,-20.14306],[-44.8524,-20.14129]],[[-44.85294,-20.12685],[-44.85355,-20.1266],[-44.85414,-20.12651],[-44.85294,-20.12685]],[[-44.85295,-20.17617],[-44.85335,-20.17533],[-44.85337,-20.17532],[-44.85295,-20.17617]],[[-44.85632,-20.15599],[-44.8564,-20.15589],[-44.85563,-20.15746],[-44.85632,-20.15599]],[[-44.85563,-20.15746],[-44.85453,-20.1579],[-44.85442,-20.15787],[-44.85563,-20.15746]],[[-44.85495,-20.17303],[-44.8558,-20.17223],[-44.85473,-20.17331],[-44.85495,-20.17303]],[[-44.85475,-20.12642],[-44.85482,-20.12641],[-44.85579,-20.12705],[-44.85475,-20.12642]],[[-44.857,-20.15532],[-44.85661,-20.15562],[-44.85678,-20.15541],[-44.857,-20.15532]],[[-44.85719,-20.12767],[-44.85747,-20.12769],[-44.85736,-20.12778],[-44.85719,-20.12767]],[[-44.85802,-20.1605],[-44.85723,-20.15974],[-44.8572,-20.15967],[-44.85802,-20.1605]],[[-44.86014,-20.15455],[-44.85728,-20.15521],[-44.85736,-20.15518],[-44.86014,-20.15455]],[[-44.85759,-20.11363],[-44.85898,-20.11406],[-44.85861,-20.11405],[-44.85759,-20.11363]],[[-44.85804,-20.12603],[-44.85854,-20.12556],[-44.85804,-20.12609],[-44.85804,-20.12603]],[[-44.85932,-20.11716],[-44.85911,-20.11838],[-44.8591,-20.11831],[-44.85932,-20.11716]],[[-44.86598,-20.16008],[-44.86261,-20.15958],[-44.86324,-20.15965],[-44.86598,-20.16008]],[[-44.86261,-20.15958],[-44.85973,-20.16096],[-44.85916,-20.16119],[-44.86261,-20.15958]],[[-44.86598,-20.16008],[-44.86675,-20.15897],[-44.86568,-20.16063],[-44.86598,-20.16008]],[[-44.86004,-20.11408],[-44.86077,-20.11402],[-44.86054,-20.1141],[-44.86004,-20.11408]],[[-44.8601,-20.12368],[-44.8603,-20.12466],[-44.86027,-20.1246],[-44.8601,-20.12368]],[[-44.86196,-20.11356],[-44.86086,-20.11439],[-44.86177,-20.11366],[-44.86196,-20.11356]],[[-44.862,-20.18739],[-44.861,-20.18764],[-44.86202,-20.18736],[-44.862,-20.18739]],[[-44.86129,-20.19095],[-44.86135,-20.19092],[-44.86252,-20.19334],[-44.86129,-20.19095]],[[-44.86169,-20.12716],[-44.86179,-20.13108],[-44.86171,-20.13088],[-44.86169,-20.12716]],[[-44.86255,-20.15407],[-44.86186,-20.15416],[-44.86232,-20.15405],[-44.86255,-20.15407]],[[-44.86187,-20.13129],[-44.86243,-20.13184],[-44.86197,-20.13154],[-44.86187,-20.13129]],[[-44.86199,-20.13545],[-44.86227,-20.1339],[-44.86242,-20.13332],[-44.86199,-20.13545]],[[-44.86249,-20.1504],[-44.86366,-20.15146],[-44.86353,-20.15145],[-44.86249,-20.1504]],[[-44.86294,-20.15409],[-44.86306,-20.1541],[-44.8632,-20.15417],[-44.86294,-20.15409]],[[-44.86989,-20.13335],[-44.86298,-20.13221],[-44.87077,-20.13348],[-44.86989,-20.13335]],[[-44.86419,-20.17948],[-44.86432,-20.17936],[-44.8641,-20.18059],[-44.86419,-20.17948]],[[-44.86425,-20.1515],[-44.86447,-20.15149],[-44.86433,-20.1515],[-44.86425,-20.1515]],[[-44.86474,-20.14032],[-44.86457,-20.13982],[-44.86482,-20.14047],[-44.86474,-20.14032]],[[-44.8651,-20.14098],[-44.86502,-20.14084],[-44.86638,-20.14177],[-44.8651,-20.14098]],[[-44.86506,-20.15145],[-44.86593,-20.15108],[-44.86512,-20.15144],[-44.86506,-20.15145]],[[-44.8658,-20.09433],[-44.86559,-20.0942],[-44.86541,-20.09379],[-44.8658,-20.09433]],[[-44.86554,-20.1783],[-44.86638,-20.17756],[-44.86626,-20.17773],[-44.86554,-20.1783]],[[-44.86622,-20.15587],[-44.86572,-20.15557],[-44.86628,-20.15588],[-44.86622,-20.15587]],[[-44.86644,-20.11766],[-44.86833,-20.11939],[-44.86824,-20.11946],[-44.86644,-20.11766]],[[-44.86658,-20.15079],[-44.86695,-20.15045],[-44.86677,-20.15071],[-44.86658,-20.15079]],[[-44.86685,-20.17692],[-44.86716,-20.17638],[-44.86707,-20.17663],[-44.86685,-20.17692]],[[-44.86692,-20.1578],[-44.86727,-20.15734],[-44.86687,-20.15817],[-44.86692,-20.1578]],[[-44.87031,-20.14185],[-44.86695,-20.1432],[-44.87031,-20.14182],[-44.87031,-20.14185]],[[-44.86708,-20.12075],[-44.86731,-20.12017],[-44.86713,-20.12081],[-44.86708,-20.12075]],[[-44.86754,-20.17538],[-44.86745,-20.17563],[-44.86754,-20.17533],[-44.86754,-20.17538]],[[-44.86796,-20.17385],[-44.86795,-20.17386],[-44.86808,-20.17268],[-44.86796,-20.17385]],[[-44.86864,-20.16519],[-44.86826,-20.16546],[-44.87125,-20.16206],[-44.86864,-20.16519]],[[-44.86863,-20.11916],[-44.86887,-20.11883],[-44.87019,-20.11782],[-44.86969,-20.11834],[-44.86863,-20.11916]],[[-44.86881,-20.13775],[-44.87025,-20.13763],[-44.87114,-20.13756],[-44.86881,-20.13775]],[[-44.86881,-20.20061],[-44.86927,-20.20359],[-44.86925,-20.2044],[-44.86881,-20.20061]],[[-44.87099,-20.15421],[-44.87089,-20.15431],[-44.86903,-20.15493],[-44.87099,-20.15421]],[[-44.87032,-20.20788],[-44.86939,-20.20565],[-44.86933,-20.20513],[-44.87032,-20.20788]],[[-44.87222,-20.14559],[-44.87237,-20.14568],[-44.86936,-20.14674],[-44.87222,-20.14559]],[[-44.8699,-20.10126],[-44.86994,-20.10092],[-44.86997,-20.1014],[-44.8699,-20.10126]],[[-44.87087,-20.14057],[-44.87039,-20.14122],[-44.87033,-20.14166],[-44.87031,-20.14125],[-44.87087,-20.14057]],[[-44.87039,-20.14122],[-44.87066,-20.14259],[-44.8706,-20.14251],[-44.87039,-20.14122]],[[-44.87037,-20.11739],[-44.87151,-20.11602],[-44.87225,-20.11533],[-44.87037,-20.11739]],[[-44.87072,-20.13271],[-44.87159,-20.1326],[-44.87161,-20.1326],[-44.87072,-20.13271]],[[-44.87082,-20.15123],[-44.8754,-20.14953],[-44.87534,-20.14959],[-44.87082,-20.15123]],[[-44.87158,-20.15329],[-44.87129,-20.15392],[-44.87112,-20.15408],[-44.87158,-20.15329]],[[-44.87208,-20.13824],[-44.87236,-20.13821],[-44.87196,-20.13839],[-44.87208,-20.13824]],[[-44.87239,-20.15221],[-44.87205,-20.15247],[-44.87209,-20.1524],[-44.87239,-20.15221]],[[-44.87236,-20.14602],[-44.87237,-20.14586],[-44.87306,-20.1473],[-44.87236,-20.14602]],[[-44.87238,-20.12018],[-44.87238,-20.12005],[-44.87264,-20.11925],[-44.87238,-20.12018]],[[-44.87279,-20.13797],[-44.87288,-20.13798],[-44.87269,-20.13806],[-44.87279,-20.13797]],[[-44.87551,-20.09847],[-44.87514,-20.09845],[-44.87461,-20.09819],[-44.87551,-20.09847]],[[-44.87461,-20.09819],[-44.87286,-20.09935],[-44.87465,-20.09814],[-44.87461,-20.09819]],[[-44.87308,-20.12119],[-44.8729,-20.12076],[-44.87287,-20.12019],[-44.87308,-20.12119]],[[-44.87542,-20.15033],[-44.87314,-20.15171],[-44.8759,-20.1499],[-44.87542,-20.15033]],[[-44.8734,-20.12171],[-44.8733,-20.1217],[-44.87322,-20.12151],[-44.8734,-20.12171]],[[-44.87343,-20.16647],[-44.87374,-20.16604],[-44.87345,-20.16662],[-44.87343,-20.16647]],[[-44.87348,-20.16688],[-44.87347,-20.1668],[-44.87418,-20.16922],[-44.87348,-20.16688]],[[-44.87391,-20.13866],[-44.87385,-20.13815],[-44.87362,-20.13572],[-44.87391,-20.13866]],[[-44.87391,-20.13866],[-44.87427,-20.13907],[-44.87421,-20.13904],[-44.87391,-20.13866]],[[-44.87895,-20.11437],[-44.87808,-20.11416],[-44.87447,-20.11267],[-44.87895,-20.11437]],[[-44.87447,-20.11267],[-44.87411,-20.11327],[-44.87457,-20.11248],[-44.87479,-20.1123],[-44.87447,-20.11267]],[[-44.87495,-20.21046],[-44.87462,-20.21024],[-44.87492,-20.21041],[-44.87495,-20.21046]],[[-44.87551,-20.15794],[-44.87474,-20.1628],[-44.87498,-20.16128],[-44.87551,-20.15794]],[[-44.87632,-20.10971],[-44.87696,-20.10889],[-44.8768,-20.10925],[-44.87632,-20.10971]],[[-44.87632,-20.10971],[-44.87548,-20.11151],[-44.87535,-20.11166],[-44.87632,-20.10971]],[[-44.87649,-20.17269],[-44.87555,-20.17314],[-44.87663,-20.17261],[-44.87649,-20.17269]],[[-44.87564,-20.21154],[-44.87561,-20.21148],[-44.87578,-20.2116],[-44.87564,-20.21154]],[[-44.87667,-20.09827],[-44.8761,-20.0985],[-44.87595,-20.09849],[-44.87667,-20.09827]],[[-44.87674,-20.1726],[-44.87897,-20.17394],[-44.87666,-20.17261],[-44.87674,-20.1726]],[[-44.87667,-20.13687],[-44.8777,-20.13473],[-44.8767,-20.13709],[-44.87667,-20.13687]],[[-44.87858,-20.17916],[-44.87686,-20.17947],[-44.87788,-20.17917],[-44.87858,-20.17916]],[[-44.87714,-20.09799],[-44.87703,-20.09812],[-44.87694,-20.09816],[-44.87714,-20.09799]],[[-44.87711,-20.10855],[-44.8772,-20.10799],[-44.87717,-20.10842],[-44.87711,-20.10855]],[[-44.87839,-20.10923],[-44.87827,-20.10921],[-44.87825,-20.1092],[-44.87839,-20.10923]],[[-44.87838,-20.1477],[-44.8783,-20.14777],[-44.87843,-20.14757],[-44.87838,-20.1477]],[[-44.87883,-20.21246],[-44.8787,-20.21245],[-44.87922,-20.21236],[-44.87883,-20.21246]],[[-44.87969,-20.14166],[-44.87893,-20.1429],[-44.8796,-20.14169],[-44.87969,-20.14166]],[[-44.87893,-20.1429],[-44.87875,-20.14678],[-44.87871,-20.14688],[-44.87893,-20.1429]],[[-44.87998,-20.10933],[-44.87983,-20.10941],[-44.87905,-20.10931],[-44.87998,-20.10933]],[[-44.88134,-20.1045],[-44.87922,-20.1038],[-44.88027,-20.10414],[-44.88134,-20.1045]],[[-44.88415,-20.17401],[-44.88414,-20.17414],[-44.88275,-20.17631],[-44.88415,-20.17401]],[[-44.88275,-20.17631],[-44.88115,-20.17776],[-44.88006,-20.17874],[-44.88275,-20.17631]],[[-44.88006,-20.17874],[-44.8795,-20.179],[-44.87925,-20.17905],[-44.88006,-20.17874]],[[-44.88096,-20.14125],[-44.88032,-20.14142],[-44.8807,-20.14128],[-44.88096,-20.14125]],[[-44.8807,-20.14128],[-44.88036,-20.14099],[-44.87952,-20.13981],[-44.8807,-20.14128]],[[-44.88105,-20.10154],[-44.88017,-20.10128],[-44.88112,-20.1015],[-44.88105,-20.10154]],[[-44.88018,-20.11467],[-44.88211,-20.11492],[-44.8805,-20.11475],[-44.88018,-20.11467]],[[-44.88479,-20.19257],[-44.88073,-20.18989],[-44.88496,-20.19257],[-44.88479,-20.19257]],[[-44.88191,-20.12991],[-44.88131,-20.12917],[-44.88114,-20.12876],[-44.88191,-20.12991]],[[-44.88181,-20.1404],[-44.8816,-20.14019],[-44.88161,-20.14004],[-44.88181,-20.1404]],[[-44.8818,-20.1401],[-44.88161,-20.14001],[-44.88161,-20.13989],[-44.8818,-20.1401]],[[-44.88162,-20.13979],[-44.88162,-20.13963],[-44.88274,-20.13765],[-44.88162,-20.13979]],[[-44.88181,-20.17391],[-44.88273,-20.17388],[-44.88279,-20.17389],[-44.88181,-20.17391]],[[-44.88184,-20.14012],[-44.88485,-20.14037],[-44.88204,-20.14022],[-44.88184,-20.14012]],[[-44.88644,-20.15946],[-44.88617,-20.16178],[-44.88212,-20.1611],[-44.88611,-20.16172],[-44.88644,-20.15946]],[[-44.88773,-20.11505],[-44.88322,-20.11505],[-44.88297,-20.11502],[-44.88409,-20.11496],[-44.88773,-20.11505]],[[-44.88388,-20.10068],[-44.88392,-20.10073],[-44.88342,-20.10057],[-44.88388,-20.10068]],[[-44.88574,-20.16556],[-44.88352,-20.16582],[-44.88572,-20.16555],[-44.88574,-20.16556]],[[-44.88572,-20.16555],[-44.88589,-20.16392],[-44.88612,-20.1622],[-44.88572,-20.16555]],[[-44.88446,-20.19277],[-44.88387,-20.19344],[-44.88424,-20.19291],[-44.88446,-20.19277]],[[-44.88523,-20.14889],[-44.88497,-20.14875],[-44.88491,-20.14848],[-44.88523,-20.14889]],[[-44.88499,-20.1695],[-44.88526,-20.16918],[-44.8853,-20.16916],[-44.88499,-20.1695]],[[-44.88636,-20.10317],[-44.88645,-20.10336],[-44.88575,-20.1028],[-44.88636,-20.10317]],[[-44.88613,-20.15688],[-44.88605,-20.1569],[-44.88615,-20.1563],[-44.88613,-20.15688]],[[-44.88638,-20.12547],[-44.8862,-20.1252],[-44.88623,-20.12508],[-44.88638,-20.12547]],[[-44.88626,-20.12492],[-44.88628,-20.12486],[-44.88633,-20.12485],[-44.88626,-20.12492]],[[-44.88671,-20.16586],[-44.88802,-20.16675],[-44.88627,-20.16572],[-44.88671,-20.16586]],[[-44.88669,-20.12874],[-44.88658,-20.12847],[-44.88639,-20.12795],[-44.88669,-20.12874]],[[-44.88796,-20.18434],[-44.88741,-20.19336],[-44.88783,-20.18644],[-44.88796,-20.18434]],[[-44.88869,-20.11251],[-44.88879,-20.11245],[-44.88866,-20.11262],[-44.88869,-20.11251]],[[-44.89056,-20.1114],[-44.89018,-20.11174],[-44.8892,-20.11221],[-44.89056,-20.1114]],[[-44.8899,-20.1512],[-44.88983,-20.15165],[-44.88975,-20.15036],[-44.8899,-20.1512]],[[-44.89144,-20.15834],[-44.89125,-20.15819],[-44.8919,-20.1583],[-44.89144,-20.15834]],[[-44.89266,-20.13078],[-44.89197,-20.13127],[-44.89166,-20.13137],[-44.89266,-20.13078]],[[-44.89271,-20.12673],[-44.89287,-20.12703],[-44.89232,-20.1262],[-44.89271,-20.12673]],[[-44.89258,-20.15823],[-44.89238,-20.15825],[-44.89264,-20.15814],[-44.89258,-20.15823]],[[-44.8967,-20.17198],[-44.89453,-20.17063],[-44.89683,-20.17206],[-44.8967,-20.17198]],[[-44.89453,-20.17063],[-44.8941,-20.17088],[-44.89259,-20.17162],[-44.89453,-20.17063]],[[-44.89353,-20.18811],[-44.89327,-20.18763],[-44.89278,-20.18534],[-44.89353,-20.18811]],[[-44.89337,-20.13025],[-44.8931,-20.1305],[-44.89369,-20.12979],[-44.89337,-20.13025]],[[-44.89496,-20.20943],[-44.89376,-20.20954],[-44.89488,-20.2094],[-44.89496,-20.20943]],[[-44.89395,-20.17178],[-44.89378,-20.17184],[-44.89433,-20.17147],[-44.89395,-20.17178]],[[-44.89469,-20.15728],[-44.89386,-20.1567],[-44.89448,-20.15708],[-44.89469,-20.15728]],[[-44.89448,-20.15708],[-44.89476,-20.15686],[-44.89483,-20.15685],[-44.89448,-20.15708]],[[-44.89467,-20.11027],[-44.89417,-20.11053],[-44.89402,-20.11054],[-44.89467,-20.11027]],[[-44.89574,-20.15178],[-44.89475,-20.15146],[-44.89583,-20.15176],[-44.89574,-20.15178]],[[-44.89537,-20.1889],[-44.89526,-20.18993],[-44.89535,-20.18888],[-44.89537,-20.1889]],[[-44.896,-20.1568],[-44.89589,-20.15681],[-44.89619,-20.15667],[-44.896,-20.1568]],[[-44.89668,-20.15144],[-44.89666,-20.15156],[-44.89614,-20.15168],[-44.89668,-20.15144]],[[-44.89666,-20.15634],[-44.89648,-20.15647],[-44.8968,-20.15577],[-44.89666,-20.15634]],[[-44.89692,-20.16243],[-44.89655,-20.16278],[-44.89719,-20.16198],[-44.89692,-20.16243]],[[-44.89686,-20.15154],[-44.89691,-20.15153],[-44.89729,-20.15182],[-44.89686,-20.15154]],[[-44.8972,-20.15082],[-44.89798,-20.1487],[-44.89808,-20.14859],[-44.8972,-20.15082]],[[-44.89752,-20.16139],[-44.89739,-20.16163],[-44.89744,-20.16125],[-44.89752,-20.16139]],[[-44.89997,-20.10603],[-44.89769,-20.11163],[-44.90052,-20.10449],[-44.89997,-20.10603]],[[-44.89781,-20.15866],[-44.89836,-20.15555],[-44.89782,-20.15876],[-44.89781,-20.15866]],[[-44.89789,-20.15931],[-44.89813,-20.16039],[-44.898,-20.16016],[-44.89789,-20.15931]],[[-44.89909,-20.14559],[-44.89979,-20.14749],[-44.89819,-20.14319],[-44.89909,-20.14559]],[[-44.89821,-20.14844],[-44.89852,-20.14809],[-44.89864,-20.14804],[-44.89821,-20.14844]],[[-44.8983,-20.15502],[-44.89833,-20.15528],[-44.89826,-20.15494],[-44.8983,-20.15502]],[[-44.89834,-20.16074],[-44.90065,-20.16356],[-44.89865,-20.16126],[-44.89834,-20.16074]],[[-44.89867,-20.16512],[-44.8988,-20.16414],[-44.89855,-20.16623],[-44.89867,-20.16512]],[[-44.89949,-20.13493],[-44.89858,-20.13418],[-44.89971,-20.13498],[-44.89949,-20.13493]],[[-44.89863,-20.17038],[-44.90046,-20.16763],[-44.90041,-20.1679],[-44.89863,-20.17038]],[[-44.89916,-20.13804],[-44.90376,-20.13646],[-44.90317,-20.13669],[-44.89916,-20.13804]],[[-44.89997,-20.13504],[-44.89986,-20.13502],[-44.90157,-20.13432],[-44.89997,-20.13504]],[[-44.90001,-20.14035],[-44.90171,-20.14492],[-44.89993,-20.14014],[-44.90001,-20.14035]],[[-44.90645,-20.11141],[-44.90604,-20.1113],[-44.89994,-20.10909],[-44.90645,-20.11141]],[[-44.90254,-20.11669],[-44.91078,-20.12054],[-44.90021,-20.11561],[-44.90254,-20.11669]],[[-44.90233,-20.1853],[-44.90231,-20.18558],[-44.90065,-20.19474],[-44.90205,-20.187],[-44.90233,-20.1853]],[[-44.90076,-20.16794],[-44.90262,-20.16815],[-44.90178,-20.16817],[-44.90076,-20.16794]],[[-44.90096,-20.1805],[-44.90108,-20.18051],[-44.90142,-20.18084],[-44.90096,-20.1805]],[[-44.90116,-20.16629],[-44.90098,-20.16662],[-44.90116,-20.16597],[-44.90116,-20.16629]],[[-44.90117,-20.16475],[-44.90116,-20.16498],[-44.9011,-20.1646],[-44.90117,-20.16475]],[[-44.9012,-20.14851],[-44.90152,-20.14957],[-44.90115,-20.14853],[-44.9012,-20.14851]],[[-44.90337,-20.1485],[-44.90304,-20.14824],[-44.90148,-20.14685],[-44.90337,-20.1485]],[[-44.90304,-20.14824],[-44.90121,-20.14851],[-44.90171,-20.14831],[-44.90304,-20.14824]],[[-44.90185,-20.18115],[-44.90173,-20.18106],[-44.90253,-20.18131],[-44.90185,-20.18115]],[[-44.90297,-20.17467],[-44.90229,-20.17437],[-44.90304,-20.17465],[-44.90297,-20.17467]],[[-44.90266,-20.11536],[-44.90264,-20.11562],[-44.90237,-20.11464],[-44.90266,-20.11536]],[[-44.90558,-20.18259],[-44.90431,-20.18226],[-44.9092,-20.18298],[-44.90558,-20.18259]],[[-44.90431,-20.18226],[-44.90307,-20.18148],[-44.90327,-20.18154],[-44.90431,-20.18226]],[[-44.90442,-20.14471],[-44.90415,-20.14441],[-44.90439,-20.14456],[-44.90442,-20.14471]],[[-44.90415,-20.14441],[-44.90358,-20.14464],[-44.90344,-20.14414],[-44.90362,-20.14458],[-44.90415,-20.14441]],[[-44.90379,-20.14038],[-44.90645,-20.1395],[-44.90579,-20.13972],[-44.90379,-20.14038]],[[-44.90406,-20.13467],[-44.9038,-20.13469],[-44.90412,-20.13464],[-44.90406,-20.13467]],[[-44.90435,-20.13449],[-44.90424,-20.13456],[-44.90431,-20.13378],[-44.90435,-20.13449]],[[-44.90456,-20.1457],[-44.90459,-20.14561],[-44.9046,-20.14566],[-44.90456,-20.1457]],[[-44.90515,-20.19598],[-44.90661,-20.19561],[-44.9046,-20.19628],[-44.90515,-20.19598]],[[-44.90499,-20.13425],[-44.90503,-20.1344],[-44.90488,-20.13517],[-44.90499,-20.13425]],[[-44.9084,-20.17539],[-44.90556,-20.17467],[-44.90587,-20.17472],[-44.9084,-20.17539]],[[-44.90753,-20.17109],[-44.90665,-20.16867],[-44.90697,-20.1695],[-44.90753,-20.17109]],[[-44.90753,-20.17109],[-44.90838,-20.17082],[-44.90666,-20.1714],[-44.90753,-20.17109]],[[-44.9078,-20.15411],[-44.9076,-20.15384],[-44.90824,-20.15454],[-44.9078,-20.15411]],[[-44.90796,-20.11059],[-44.90805,-20.1106],[-44.90788,-20.11063],[-44.90796,-20.11059]],[[-44.90887,-20.21539],[-44.90795,-20.21442],[-44.90856,-20.21494],[-44.90887,-20.21539]],[[-44.90887,-20.21539],[-44.90883,-20.21573],[-44.90807,-20.2174],[-44.90887,-20.21539]],[[-44.90817,-20.11521],[-44.90809,-20.11487],[-44.90824,-20.11444],[-44.90817,-20.11521]],[[-44.90848,-20.11379],[-44.90855,-20.11358],[-44.91058,-20.11083],[-44.90848,-20.11379]],[[-44.91506,-20.13411],[-44.9149,-20.13138],[-44.91502,-20.13236],[-44.91506,-20.13411]],[[-44.91506,-20.13411],[-44.9085,-20.13627],[-44.91129,-20.13531],[-44.91506,-20.13411]],[[-44.90918,-20.12633],[-44.90898,-20.12576],[-44.90861,-20.1244],[-44.90918,-20.12633]],[[-44.90918,-20.12633],[-44.91116,-20.12582],[-44.91114,-20.12583],[-44.90918,-20.12633]],[[-44.91086,-20.14168],[-44.91058,-20.14195],[-44.90883,-20.14359],[-44.91086,-20.14168]],[[-44.91156,-20.13196],[-44.91056,-20.12925],[-44.91051,-20.12898],[-44.91156,-20.13196]],[[-44.91056,-20.12925],[-44.90891,-20.12989],[-44.90901,-20.12976],[-44.91056,-20.12925]],[[-44.91007,-20.19528],[-44.91075,-20.19659],[-44.91,-20.19524],[-44.91007,-20.19528]],[[-44.91001,-20.18272],[-44.91143,-20.18273],[-44.91164,-20.18277],[-44.91001,-20.18272]],[[-44.91003,-20.20058],[-44.91055,-20.20071],[-44.9103,-20.2007],[-44.91003,-20.20058]],[[-44.91026,-20.11928],[-44.91027,-20.11953],[-44.91012,-20.11906],[-44.91026,-20.11928]],[[-44.91157,-20.10622],[-44.9102,-20.10558],[-44.91034,-20.10557],[-44.91157,-20.10622]],[[-44.91027,-20.1693],[-44.91166,-20.16993],[-44.91262,-20.17037],[-44.91027,-20.1693]],[[-44.91028,-20.15654],[-44.91173,-20.15768],[-44.91096,-20.1572],[-44.91028,-20.15654]],[[-44.91041,-20.17544],[-44.91216,-20.17547],[-44.91063,-20.17553],[-44.91041,-20.17544]],[[-44.91047,-20.12871],[-44.91046,-20.12869],[-44.91123,-20.12672],[-44.91047,-20.12871]],[[-44.9106,-20.17863],[-44.912,-20.17597],[-44.91199,-20.176],[-44.9106,-20.17863]],[[-44.91107,-20.20075],[-44.91363,-20.20042],[-44.91127,-20.20076],[-44.91107,-20.20075]],[[-44.91458,-20.19406],[-44.91241,-20.19464],[-44.91436,-20.19404],[-44.91458,-20.19406]],[[-44.91352,-20.14169],[-44.91246,-20.14136],[-44.91355,-20.14169],[-44.91352,-20.14169]],[[-44.91407,-20.18326],[-44.91324,-20.18739],[-44.91421,-20.18731],[-44.91316,-20.1874],[-44.91407,-20.18326]],[[-44.91441,-20.1274],[-44.91458,-20.12879],[-44.91432,-20.12705],[-44.91441,-20.1274]],[[-44.91577,-20.14666],[-44.91599,-20.15017],[-44.91544,-20.14219],[-44.91577,-20.14666]],[[-44.91544,-20.14219],[-44.9153,-20.14215],[-44.9158,-20.14222],[-44.91544,-20.14219]],[[-44.91531,-20.18788],[-44.91627,-20.18803],[-44.91609,-20.18805],[-44.91531,-20.18788]],[[-44.91993,-20.1941],[-44.91607,-20.19417],[-44.91936,-20.19401],[-44.91993,-20.1941]],[[-44.91645,-20.14227],[-44.91639,-20.14227],[-44.91666,-20.14219],[-44.91645,-20.14227]],[[-44.9168,-20.16063],[-44.91997,-20.16151],[-44.91739,-20.16085],[-44.9168,-20.16063]],[[-44.91886,-20.17381],[-44.91716,-20.1725],[-44.91752,-20.17267],[-44.91886,-20.17381]],[[-44.9172,-20.13693],[-44.91725,-20.13678],[-44.91737,-20.13839],[-44.9172,-20.13693]],[[-44.91843,-20.16753],[-44.91722,-20.16791],[-44.92044,-20.16687],[-44.91843,-20.16753]],[[-44.9173,-20.14193],[-44.91725,-20.14195],[-44.91734,-20.14188],[-44.9173,-20.14193]],[[-44.91783,-20.14113],[-44.9177,-20.14133],[-44.91783,-20.14103],[-44.91783,-20.14113]],[[-44.9187,-20.13353],[-44.91884,-20.13346],[-44.91817,-20.13412],[-44.9187,-20.13353]],[[-44.91828,-20.18783],[-44.92101,-20.18744],[-44.91901,-20.18776],[-44.91828,-20.18783]],[[-44.91838,-20.21183],[-44.92101,-20.2043],[-44.92094,-20.20463],[-44.91838,-20.21183]],[[-44.91843,-20.12339],[-44.91841,-20.12326],[-44.9197,-20.12509],[-44.91843,-20.12339]],[[-44.92047,-20.13262],[-44.92102,-20.13242],[-44.91933,-20.13321],[-44.92047,-20.13262]],[[-44.92086,-20.19433],[-44.92018,-20.19414],[-44.92065,-20.19422],[-44.92086,-20.19433]],[[-44.92062,-20.17617],[-44.92023,-20.17581],[-44.92066,-20.17607],[-44.92062,-20.17617]],[[-44.92163,-20.1691],[-44.92046,-20.1669],[-44.92085,-20.16746],[-44.92163,-20.1691]],[[-44.92098,-20.17931],[-44.92108,-20.17927],[-44.92105,-20.17963],[-44.92098,-20.17931]],[[-44.92118,-20.17923],[-44.92113,-20.17894],[-44.92226,-20.17985],[-44.92118,-20.17923]],[[-44.92118,-20.20345],[-44.92116,-20.20326],[-44.9212,-20.20334],[-44.92118,-20.20345]],[[-44.92158,-20.20398],[-44.92132,-20.20466],[-44.92151,-20.20403],[-44.92158,-20.20398]],[[-44.92699,-20.20558],[-44.92166,-20.20394],[-44.92171,-20.2039],[-44.92699,-20.20558]],[[-44.92699,-20.20558],[-44.9277,-20.20347],[-44.92769,-20.20358],[-44.92608,-20.20819],[-44.92699,-20.20558]],[[-44.92169,-20.19605],[-44.92221,-20.1951],[-44.92222,-20.1951],[-44.92169,-20.19605]],[[-44.92183,-20.13211],[-44.92573,-20.13233],[-44.92177,-20.13214],[-44.92183,-20.13211]],[[-44.92474,-20.13916],[-44.92489,-20.13911],[-44.92438,-20.13976],[-44.92474,-20.13916]],[[-44.92438,-20.13976],[-44.92213,-20.14014],[-44.92195,-20.14014],[-44.92438,-20.13976]],[[-44.92278,-20.16711],[-44.92385,-20.16725],[-44.92477,-20.16757],[-44.92278,-20.16711]],[[-44.92344,-20.10003],[-44.92329,-20.09962],[-44.92334,-20.0993],[-44.92344,-20.10003]],[[-44.92623,-20.13893],[-44.92496,-20.13909],[-44.92557,-20.13892],[-44.92623,-20.13893]],[[-44.92607,-20.18464],[-44.92604,-20.18555],[-44.92589,-20.18454],[-44.92607,-20.18464]],[[-44.9273,-20.08404],[-44.92708,-20.08422],[-44.92784,-20.0835],[-44.9273,-20.08404]],[[-44.92857,-20.10403],[-44.93076,-20.10591],[-44.92711,-20.10302],[-44.92857,-20.10403]],[[-44.92806,-20.13904],[-44.92743,-20.13894],[-44.92773,-20.13895],[-44.92806,-20.13904]],[[-44.92871,-20.12942],[-44.92873,-20.12933],[-44.9292,-20.1311],[-44.92871,-20.12942]],[[-44.92887,-20.12877],[-44.92892,-20.1287],[-44.92881,-20.12901],[-44.92887,-20.12877]],[[-44.93067,-20.15359],[-44.92953,-20.15346],[-44.93042,-20.15338],[-44.93067,-20.15359]],[[-44.93087,-20.18141],[-44.93097,-20.18142],[-44.93008,-20.18176],[-44.93087,-20.18141]],[[-44.93137,-20.15255],[-44.93141,-20.15228],[-44.93156,-20.152],[-44.93137,-20.15255]],[[-44.93137,-20.15255],[-44.93062,-20.15332],[-44.9306,-20.15333],[-44.93137,-20.15255]],[[-44.93161,-20.18846],[-44.9315,-20.18837],[-44.93183,-20.18853],[-44.93161,-20.18846]],[[-44.93205,-20.11487],[-44.93278,-20.11519],[-44.93173,-20.11479],[-44.93205,-20.11487]],[[-44.93317,-20.1726],[-44.93197,-20.16962],[-44.93318,-20.17247],[-44.93317,-20.1726]],[[-44.93201,-20.07882],[-44.93243,-20.0776],[-44.93203,-20.07882],[-44.93201,-20.07882]],[[-44.93231,-20.18869],[-44.93207,-20.18861],[-44.93379,-20.18877],[-44.93231,-20.18869]],[[-44.93277,-20.07476],[-44.93286,-20.07455],[-44.93275,-20.07496],[-44.93277,-20.07476]],[[-44.93285,-20.14783],[-44.9329,-20.1477],[-44.93312,-20.14716],[-44.93285,-20.14783]],[[-44.93359,-20.07294],[-44.93373,-20.0728],[-44.93328,-20.07363],[-44.93359,-20.07294]],[[-44.93371,-20.11559],[-44.93375,-20.11572],[-44.93348,-20.11549],[-44.93371,-20.11559]],[[-44.93522,-20.11718],[-44.93506,-20.11717],[-44.9341,-20.11679],[-44.93522,-20.11718]],[[-44.93526,-20.18891],[-44.93558,-20.18894],[-44.93625,-20.18916],[-44.93526,-20.18891]],[[-44.93644,-20.11702],[-44.93608,-20.11721],[-44.93554,-20.11719],[-44.93644,-20.11702]],[[-44.93667,-20.1893],[-44.93676,-20.18933],[-44.93761,-20.19027],[-44.93667,-20.1893]],[[-44.9405,-20.16894],[-44.94067,-20.16901],[-44.94016,-20.16901],[-44.9405,-20.16894]],[[-44.94016,-20.16901],[-44.94606,-20.17293],[-44.93776,-20.16754],[-44.94016,-20.16901]],[[-44.94387,-20.17108],[-44.94078,-20.16907],[-44.94092,-20.16913],[-44.94387,-20.17108]],[[-44.94097,-20.06791],[-44.94178,-20.06777],[-44.94083,-20.068],[-44.94097,-20.06791]],[[-44.94512,-20.11307],[-44.94607,-20.11563],[-44.94512,-20.11308],[-44.94512,-20.11307]],[[-44.94618,-20.04523],[-44.94626,-20.04523],[-44.94599,-20.04549],[-44.94618,-20.04523]],[[-44.94637,-20.18892],[-44.94647,-20.18956],[-44.94633,-20.1888],[-44.94637,-20.18892]],[[-44.94788,-20.2085],[-44.94774,-20.20866],[-44.94644,-20.20939],[-44.94788,-20.2085]],[[-44.94777,-20.06377],[-44.94779,-20.06382],[-44.94674,-20.06325],[-44.94777,-20.06377]],[[-44.94707,-20.17395],[-44.94682,-20.17356],[-44.94701,-20.17371],[-44.94707,-20.17395]],[[-44.94781,-20.17694],[-44.94765,-20.17661],[-44.94729,-20.17483],[-44.94781,-20.17694]],[[-44.94812,-20.06537],[-44.94832,-20.06499],[-44.948,-20.06645],[-44.94812,-20.06537]],[[-44.948,-20.06645],[-44.94845,-20.06766],[-44.94758,-20.06721],[-44.9484,-20.06758],[-44.948,-20.06645]],[[-44.94834,-20.1959],[-44.94798,-20.1949],[-44.94834,-20.19571],[-44.94834,-20.1959]],[[-44.94798,-20.1949],[-44.94784,-20.1937],[-44.948,-20.19411],[-44.94798,-20.1949]],[[-44.94787,-20.19748],[-44.94834,-20.196],[-44.94834,-20.19632],[-44.94787,-20.19748]],[[-44.94792,-20.04528],[-44.94894,-20.04473],[-44.94893,-20.04476],[-44.94792,-20.04528]],[[-44.94837,-20.06472],[-44.94836,-20.06478],[-44.94795,-20.06438],[-44.94837,-20.06472]],[[-44.94909,-20.1786],[-44.94818,-20.1777],[-44.94804,-20.1774],[-44.94909,-20.1786]],[[-44.94907,-20.20395],[-44.94859,-20.20197],[-44.94895,-20.20303],[-44.94907,-20.20395]],[[-44.94915,-20.20468],[-44.94914,-20.2045],[-44.94915,-20.20464],[-44.94915,-20.20468]],[[-44.95508,-20.19387],[-44.95464,-20.19399],[-44.95596,-20.19337],[-44.95508,-20.19387]],[[-44.96222,-20.19203],[-44.96236,-20.19464],[-44.9622,-20.19193],[-44.96388,-20.1919],[-44.96222,-20.19203]],[[-44.96375,-20.10274],[-44.96461,-20.10329],[-44.96451,-20.10334],[-44.96375,-20.10274]],[[-44.9669,-20.07804],[-44.96754,-20.07911],[-44.96742,-20.07903],[-44.9669,-20.07804]],[[-44.96855,-20.07917],[-44.9681,-20.07936],[-44.96909,-20.08019],[-44.9676,-20.07915],[-44.96855,-20.07917]],[[-44.96999,-20.1006],[-44.969,-20.10078],[-44.96884,-20.10073],[-44.96999,-20.1006]],[[-44.97042,-20.10323],[-44.96971,-20.10373],[-44.97116,-20.1027],[-44.97042,-20.10323]],[[-44.97202,-20.16779],[-44.97181,-20.16776],[-44.97143,-20.16758],[-44.97202,-20.16779]],[[-44.97491,-20.10896],[-44.97286,-20.10984],[-44.97271,-20.10986],[-44.97491,-20.10896]],[[-44.97284,-20.18574],[-44.97309,-20.18468],[-44.97309,-20.18493],[-44.97284,-20.18574]],[[-44.97285,-20.08112],[-44.97376,-20.08087],[-44.97286,-20.08113],[-44.97285,-20.08112]],[[-44.97298,-20.03847],[-44.97332,-20.03864],[-44.97288,-20.03846],[-44.97298,-20.03847]],[[-44.97456,-20.10468],[-44.97305,-20.10268],[-44.97524,-20.10553],[-44.97456,-20.10468]],[[-44.97392,-20.10052],[-44.97323,-20.1005],[-44.9734,-20.10044],[-44.97392,-20.10052]],[[-44.97691,-20.17107],[-44.97686,-20.17104],[-44.97575,-20.17012],[-44.97691,-20.17107]],[[-44.97575,-20.17012],[-44.97411,-20.16835],[-44.9744,-20.16855],[-44.97575,-20.17012]],[[-44.97421,-20.039],[-44.97585,-20.0393],[-44.97443,-20.03909],[-44.97421,-20.039]],[[-44.97642,-20.1051],[-44.97637,-20.10525],[-44.97615,-20.10282],[-44.97642,-20.1051]],[[-44.97615,-20.10282],[-44.97564,-20.1024],[-44.97521,-20.10172],[-44.97615,-20.10282]],[[-44.9754,-20.08458],[-44.97541,-20.08469],[-44.9753,-20.08451],[-44.9754,-20.08458]],[[-44.97533,-20.10852],[-44.97533,-20.10837],[-44.97534,-20.1083],[-44.97533,-20.10852]],[[-44.97658,-20.11033],[-44.97571,-20.11097],[-44.97534,-20.11015],[-44.97534,-20.10986],[-44.97568,-20.11088],[-44.97658,-20.11033]],[[-44.97544,-20.08539],[-44.97539,-20.08531],[-44.97542,-20.08503],[-44.97544,-20.08539]],[[-44.97549,-20.10643],[-44.9755,-20.10636],[-44.97553,-20.10633],[-44.97549,-20.10643]],[[-44.97599,-20.08615],[-44.97587,-20.08604],[-44.97573,-20.08581],[-44.97599,-20.08615]],[[-44.97628,-20.10555],[-44.97626,-20.10559],[-44.97615,-20.10568],[-44.97628,-20.10555]],[[-44.97671,-20.08685],[-44.97663,-20.08681],[-44.97634,-20.08652],[-44.97671,-20.08685]],[[-44.97814,-20.12283],[-44.97779,-20.123],[-44.97692,-20.1231],[-44.97814,-20.12283]],[[-44.97712,-20.09385],[-44.97707,-20.09373],[-44.97713,-20.09363],[-44.97712,-20.09385]],[[-44.97718,-20.09352],[-44.9772,-20.09349],[-44.97742,-20.09352],[-44.97718,-20.09352]],[[-44.97794,-20.17158],[-44.9778,-20.17157],[-44.97764,-20.17147],[-44.97794,-20.17158]],[[-44.97831,-20.13225],[-44.97825,-20.13214],[-44.97768,-20.12924],[-44.97831,-20.13225]],[[-44.97788,-20.09352],[-44.97781,-20.09352],[-44.97791,-20.09344],[-44.97788,-20.09352]],[[-44.97802,-20.09315],[-44.97798,-20.09327],[-44.97789,-20.09178],[-44.97802,-20.09315]],[[-44.9787,-20.09909],[-44.97792,-20.09923],[-44.97854,-20.09893],[-44.9787,-20.09909]],[[-44.97803,-20.08754],[-44.9782,-20.08797],[-44.97801,-20.08752],[-44.97803,-20.08754]],[[-44.97902,-20.12194],[-44.97879,-20.12008],[-44.97898,-20.12119],[-44.97902,-20.12194]],[[-44.97893,-20.09913],[-44.97905,-20.09915],[-44.97942,-20.09951],[-44.97893,-20.09913]],[[-44.9805,-20.13432],[-44.98006,-20.13419],[-44.97986,-20.13406],[-44.9805,-20.13432]],[[-44.98247,-20.04153],[-44.98251,-20.04155],[-44.9803,-20.04122],[-44.98247,-20.04153]],[[-44.9817,-20.10349],[-44.98178,-20.10359],[-44.98179,-20.10404],[-44.9817,-20.10349]],[[-44.98185,-20.10445],[-44.98183,-20.1043],[-44.98197,-20.10452],[-44.98185,-20.10445]],[[-44.9837,-20.13582],[-44.98185,-20.13487],[-44.98277,-20.13524],[-44.9837,-20.13582]],[[-44.98469,-20.10527],[-44.98301,-20.10511],[-44.98477,-20.10524],[-44.98469,-20.10527]],[[-44.98308,-20.16777],[-44.98513,-20.16794],[-44.98501,-20.16796],[-44.98308,-20.16777]],[[-44.98495,-20.10735],[-44.98357,-20.11148],[-44.98494,-20.10732],[-44.98495,-20.10735]],[[-44.98378,-20.04235],[-44.9843,-20.04267],[-44.98423,-20.04266],[-44.98378,-20.04235]],[[-44.98597,-20.18594],[-44.98562,-20.18486],[-44.98565,-20.18477],[-44.98597,-20.18594]],[[-44.98598,-20.04305],[-44.98613,-20.04317],[-44.98568,-20.04299],[-44.98598,-20.04305]],[[-44.98686,-20.18784],[-44.98674,-20.18684],[-44.98681,-20.18692],[-44.98686,-20.18784]],[[-44.98687,-20.10363],[-44.98691,-20.10354],[-44.98722,-20.10343],[-44.98687,-20.10363]],[[-44.98771,-20.10325],[-44.98776,-20.10323],[-44.98778,-20.10325],[-44.98771,-20.10325]],[[-44.98857,-20.08873],[-44.98895,-20.08899],[-44.98894,-20.08903],[-44.98857,-20.08873]],[[-44.98997,-20.08795],[-44.98935,-20.08662],[-44.98998,-20.08794],[-44.98997,-20.08795]],[[-44.98938,-20.04682],[-44.98936,-20.04688],[-44.98936,-20.04668],[-44.98938,-20.04682]],[[-44.98938,-20.08433],[-44.98944,-20.08419],[-44.98939,-20.08437],[-44.98938,-20.08433]],[[-44.98966,-20.08367],[-44.99062,-20.08331],[-44.98961,-20.08379],[-44.98966,-20.08367]],[[-44.99562,-20.07912],[-44.9958,-20.07891],[-44.99553,-20.07943],[-44.99562,-20.07912]],[[-44.99596,-20.07874],[-44.99644,-20.07857],[-44.99593,-20.07878],[-44.99596,-20.07874]],[[-44.99642,-20.04548],[-44.99618,-20.04477],[-44.99624,-20.04478],[-44.99642,-20.04548]],[[-44.99642,-20.04548],[-44.99638,-20.04775],[-44.99629,-20.04689],[-44.99642,-20.04548]],[[-44.99654,-20.0448],[-45.00151,-20.04639],[-44.99629,-20.04478],[-44.99654,-20.0448]],[[-44.99652,-20.10419],[-44.99652,-20.10405],[-44.9966,-20.10398],[-44.99652,-20.10419]],[[-44.99662,-20.10527],[-44.99652,-20.10509],[-44.99652,-20.10477],[-44.99662,-20.10527]],[[-44.99799,-20.10715],[-44.99748,-20.10619],[-44.99798,-20.10706],[-44.99799,-20.10715]],[[-44.99748,-20.10619],[-44.99695,-20.10587],[-44.99682,-20.10562],[-44.99748,-20.10619]],[[-44.99716,-20.1036],[-44.99692,-20.10372],[-44.99728,-20.10343],[-44.99716,-20.1036]],[[-44.99696,-20.11361],[-44.99705,-20.11282],[-44.99712,-20.11277],[-44.99696,-20.11361]],[[-44.99764,-20.10313],[-44.99772,-20.10307],[-44.99803,-20.10317],[-44.99764,-20.10313]],[[-44.99821,-20.1119],[-44.99843,-20.11114],[-44.99825,-20.11187],[-44.99821,-20.1119]],[[-44.99977,-20.16406],[-44.99998,-20.16406],[-45.00027,-20.16415],[-44.99977,-20.16406]],[[-45.00054,-20.07803],[-45.00125,-20.07707],[-45.00062,-20.07798],[-45.00054,-20.07803]],[[-45.00157,-20.10883],[-45.00189,-20.10916],[-45.00226,-20.11003],[-45.00157,-20.10883]],[[-45.00261,-20.11062],[-45.00252,-20.11047],[-45.00279,-20.11069],[-45.00261,-20.11062]],[[-45.00316,-20.07269],[-45.00321,-20.0727],[-45.00266,-20.07351],[-45.00316,-20.07269]],[[-45.00303,-20.11079],[-45.0029,-20.11074],[-45.00322,-20.11061],[-45.00303,-20.11079]],[[-45.00512,-20.1683],[-45.00715,-20.17063],[-45.0071,-20.1706],[-45.00512,-20.1683]],[[-45.00655,-20.04976],[-45.00663,-20.05049],[-45.00649,-20.04967],[-45.00655,-20.04976]],[[-45.00699,-20.05387],[-45.00709,-20.05478],[-45.00702,-20.05469],[-45.00699,-20.05387]],[[-45.0076,-20.1709],[-45.0078,-20.17098],[-45.00772,-20.17098],[-45.0076,-20.1709]],[[-45.00776,-20.07462],[-45.00874,-20.07569],[-45.00869,-20.07569],[-45.00776,-20.07462]],[[-45.00858,-20.05673],[-45.00865,-20.05686],[-45.00829,-20.05638],[-45.00858,-20.05673]],[[-45.00951,-20.07574],[-45.01013,-20.07545],[-45.01012,-20.07546],[-45.00951,-20.07574]],[[-45.01103,-20.07373],[-45.01102,-20.07365],[-45.01152,-20.07363],[-45.01103,-20.07373]],[[-45.01102,-20.07328],[-45.0114,-20.07241],[-45.01102,-20.07362],[-45.01102,-20.07328]],[[-45.0117,-20.07172],[-45.0118,-20.07167],[-45.01163,-20.07186],[-45.0117,-20.07172]],[[-45.01228,-20.07146],[-45.01291,-20.07146],[-45.01207,-20.07155],[-45.01228,-20.07146]],[[-45.01449,-20.07145],[-45.01445,-20.07147],[-45.01432,-20.07145],[-45.01449,-20.07145]],[[-45.01494,-20.0711],[-45.01492,-20.07121],[-45.01473,-20.07131],[-45.01494,-20.0711]],[[-45.01598,-20.06537],[-45.01602,-20.06536],[-45.01597,-20.06542],[-45.01598,-20.06537]],[[-45.01849,-20.07349],[-45.01865,-20.07505],[-45.01859,-20.075],[-45.01849,-20.07349]],[[-45.01874,-20.07512],[-45.0204,-20.07511],[-45.01879,-20.07517],[-45.01874,-20.07512]],[[-45.0226,-20.06409],[-45.02289,-20.06403],[-45.02268,-20.06409],[-45.0226,-20.06409]],[[-45.02321,-20.06394],[-45.02339,-20.0637],[-45.02331,-20.06391],[-45.02321,-20.06394]],[[-45.02942,-20.05872],[-45.03154,-20.05795],[-45.03125,-20.05817],[-45.02942,-20.05872]],[[-45.02942,-20.05872],[-45.02841,-20.05941],[-45.02847,-20.05933],[-45.02942,-20.05872]],[[-45.03168,-20.05785],[-45.03206,-20.05725],[-45.03176,-20.05779],[-45.03168,-20.05785]],[[-45.03476,-20.08042],[-45.03515,-20.0806],[-45.03483,-20.08051],[-45.03476,-20.08042]],[[-45.03519,-20.03759],[-45.03581,-20.037],[-45.03519,-20.03763],[-45.03519,-20.03759]],[[-45.03529,-20.08064],[-45.03614,-20.08071],[-45.03557,-20.08072],[-45.03529,-20.08064]],[[-45.03563,-20.05066],[-45.0353,-20.05011],[-45.03564,-20.05058],[-45.03563,-20.05066]],[[-45.03546,-20.0512],[-45.03559,-20.05091],[-45.03555,-20.05115],[-45.03546,-20.0512]],[[-45.03652,-20.0488],[-45.03668,-20.0485],[-45.03665,-20.04867],[-45.03652,-20.0488]],[[-45.03687,-20.04758],[-45.03687,-20.04726],[-45.03692,-20.04736],[-45.03687,-20.04758]],[[-45.04154,-20.10364],[-45.04061,-20.10344],[-45.04184,-20.10359],[-45.04154,-20.10364]],[[-45.04338,-20.1038],[-45.04317,-20.10375],[-45.04349,-20.10379],[-45.04338,-20.1038]],[[-45.04417,-20.10372],[-45.04384,-20.10375],[-45.04482,-20.10344],[-45.04417,-20.10372]],[[-45.0535,-20.08598],[-45.05358,-20.08609],[-45.05033,-20.08525],[-45.0535,-20.08598]],[[-45.05412,-20.08675],[-45.05437,-20.08706],[-45.05427,-20.087],[-45.05412,-20.08675]],[[-45.0552,-20.08762],[-45.05468,-20.08727],[-45.05568,-20.08777],[-45.0552,-20.08762]],[[-45.06497,-20.08514],[-45.06506,-20.0851],[-45.06523,-20.08512],[-45.06497,-20.08514]],[[-45.06556,-20.08515],[-45.06566,-20.08516],[-45.06921,-20.08626],[-45.06556,-20.08515]],[[-45.07013,-20.08796],[-45.07009,-20.08788],[-45.07076,-20.0885],[-45.07013,-20.08796]],[[-45.07202,-20.08957],[-45.07196,-20.08953],[-45.07439,-20.0897],[-45.07202,-20.08957]],[[-45.08014,-20.0916],[-45.07993,-20.09152],[-45.08029,-20.0916],[-45.08014,-20.0916]],[[-45.08104,-20.09157],[-45.08222,-20.09142],[-45.08416,-20.09145],[-45.08104,-20.09157]],[[-45.08454,-20.09143],[-45.08443,-20.09144],[-45.08473,-20.09132],[-45.08454,-20.09143]],[[-45.10737,-20.07904],[-45.10587,-20.08058],[-45.10737,-20.07897],[-45.10737,-20.07904]],[[-45.10587,-20.08058],[-45.10345,-20.08468],[-45.10329,-20.0848],[-45.10587,-20.08058]],[[-45.10768,-20.07702],[-45.10509,-20.07559],[-45.10842,-20.0773],[-45.10768,-20.07702]],[[-45.11449,-20.07625],[-45.11383,-20.07666],[-45.11452,-20.0762],[-45.11449,-20.07625]],[[-45.11477,-20.07509],[-45.11472,-20.07508],[-45.11417,-20.07407],[-45.11477,-20.07509]],[[-45.11491,-20.07511],[-45.11535,-20.07499],[-45.11495,-20.07531],[-45.11491,-20.07511]],[[-45.11547,-20.07495],[-45.11561,-20.07543],[-45.11544,-20.07496],[-45.11547,-20.07495]],[[-45.11587,-20.07545],[-45.11574,-20.07544],[-45.11657,-20.07522],[-45.11587,-20.07545]],[[-45.11754,-20.0745],[-45.11777,-20.07441],[-45.11786,-20.07446],[-45.11754,-20.0745]]]}}]}