{"type":"FeatureCollection","features":[{"type":"Feature","properties":{"municipio":"CURVELO"},"geometry":{"type":"Polygon","coordinates":[[[-44.52286,-19.16352],[-44.52477,-19.16579],[-44.52557,-19.16578],[-44.52668,-19.16675],[-44.52656,-19.16721],[-44.52736,-19.16889],[-44.52937,-19.16907],[-44.53179,-19.16754],[-44.53324,-19.16726],[-44.53499,-19.16827],[-44.5363,-19.17018],[-44.53732,-19.17004],[-44.53814,-19.17066],[-44.53962,-19.17077],[-44.54093,-19.17035],[-44.54134,-19.17065],[-44.54263,-19.17325],[-44.54237,-19.17361],[-44.54373,-19.17541],[-44.54424,-19.17545],[-44.54407,-19.17637],[-44.54446,-19.17722],[-44.54613,-19.17775],[-44.5458,-19.17911],[-44.54711,-19.18044],[-44.54942,-19.18443],[-44.55177,-19.18611],[-44.55219,-19.18581],[-44.55325,-19.18601],[-44.55492,-19.18523],[-44.5571,-19.18607],[-44.55846,-19.18745],[-44.5589,-19.18874],[-44.55825,-19.18922],[-44.56009,-19.18986],[-44.55983,-19.1917],[-44.56182,-19.19292],[-44.56207,-19.19381],[-44.56396,-19.19526],[-44.56452,-19.19648],[-44.56561,-19.19581],[-44.56714,-19.19748],[-44.5692,-19.19888],[-44.5685,-19.20001],[-44.56899,-19.20019],[-44.5703,-19.20219],[-44.57071,-19.20194],[-44.57207,-19.20253],[-44.57442,-19.2025],[-44.57515,-19.20303],[-44.57547,-19.20395],[-44.57634,-19.20431],[-44.57769,-19.20376],[-44.58177,-19.20513],[-44.584,-19.20763],[-44.58597,-19.20797],[-44.58684,-19.20905],[-44.58793,-19.20877],[-44.58834,-19.20904],[-44.59005,-19.21192],[-44.59138,-19.2115],[-44.59225,-19.21216],[-44.59315,-19.21191],[-44.59397,-19.21239],[-44.59443,-19.21225],[-44.59545,-19.21317],[-44.59684,-19.21346],[-44.59686,-19.21392],[-44.59602,-19.21496],[-44.59643,-19.21581],[-44.59704,-19.21604],[-44.59796,-19.21569],[-44.59978,-19.21631],[-44.60036,-19.21704],[-44.60172,-19.21704],[-44.60286,-19.21853],[-44.60378,-19.21823],[-44.60599,-19.22057],[-44.60648,-19.22064],[-44.60703,-19.21985],[-44.60933,-19.21941],[-44.60974,-19.21858],[-44.61124,-19.21825],[-44.61367,-19.21891],[-44.61488,-19.22114],[-44.61532,-19.2213],[-44.61638,-19.2204],[-44.61687,-19.2204],[-44.61704,-19.22256],[-44.61944,-19.22329],[-44.61855,-19.22371],[-44.61986,-19.22502],[-44.62044,-19.22508],[-44.62117,-19.22393],[-44.6233,-19.22514],[-44.6235,-19.22556],[-44.62292,-19.22733],[-44.62407,-19.2288],[-44.62489,-19.22831],[-44.62673,-19.22854],[-44.62862,-19.22985],[-44.62962,-19.2297],[-44.63073,-19.23044],[-44.63226,-19.23055],[-44.63269,-19.22965],[-44.634,-19.22898],[-44.6341,-19.23029],[-44.63319,-19.23197],[-44.63362,-19.23215],[-44.63524,-19.23114],[-44.63534,-19.23024],[-44.63616,-19.22906],[-44.63705,-19.22954],[-44.63749,-19.22938],[-44.63751,-19.22841],[-44.63797,-19.22828],[-44.63977,-19.22972],[-44.64059,-19.22852],[-44.64243,-19.22789],[-44.64346,-19.22699],[-44.6455,-19.22722],[-44.64734,-19.22647],[-44.64887,-19.22755],[-44.64991,-19.2267],[-44.6509,-19.22642],[-44.65172,-19.22673],[-44.65216,-19.2254],[-44.65503,-19.2221],[-44.66417,-19.2174],[-44.66768,-19.21748],[-44.66945,-19.21791],[-44.67716,-19.22046],[-44.68095,-19.22227],[-44.68299,-19.22268],[-44.68645,-19.22225],[-44.69153,-19.22032],[-44.69547,-19.21808],[-44.69802,-19.21384],[-44.69803,-19.21082],[-44.69647,-19.20779],[-44.69492,-19.20644],[-44.6921,-19.20516],[-44.69081,-19.20325],[-44.69009,-19.19824],[-44.69026,-19.19202],[-44.68883,-19.18572],[-44.68531,-19.1821],[-44.68384,-19.17877],[-44.68153,-19.17682],[-44.67569,-19.17629],[-44.67259,-19.17533],[-44.67087,-19.17421],[-44.67004,-19.17299],[-44.67013,-19.17145],[-44.67075,-19.16951],[-44.67108,-19.16601],[-44.6719,-19.16491],[-44.67667,-19.16347],[-44.68276,-19.16071],[-44.68433,-19.16047],[-44.68649,-19.16136],[-44.69153,-19.16938],[-44.69493,-19.17187],[-44.70034,-19.17349],[-44.70363,-19.17263],[-44.70486,-19.17113],[-44.70683,-19.16691],[-44.70684,-19.16412],[-44.70623,-19.16141],[-44.70366,-19.15617],[-44.70252,-19.15512],[-44.70031,-19.15409],[-44.69658,-19.15341],[-44.69132,-19.15122],[-44.68897,-19.15125],[-44.68682,-19.15197],[-44.68435,-19.1517],[-44.6832,-19.15037],[-44.68227,-19.14732],[-44.6806,-19.14569],[-44.67872,-19.14256],[-44.67816,-19.14121],[-44.67732,-19.13596],[-44.67794,-19.13463],[-44.67961,-19.13467],[-44.68339,-19.13601],[-44.68529,-19.13849],[-44.68691,-19.13835],[-44.69129,-19.13658],[-44.69834,-19.13081],[-44.70261,-19.12799],[-44.70365,-19.12653],[-44.70389,-19.12552],[-44.70431,-19.12289],[-44.70416,-19.12066],[-44.70464,-19.11923],[-44.70794,-19.1152],[-44.70974,-19.11054],[-44.7091,-19.10916],[-44.70689,-19.10712],[-44.70119,-19.10323],[-44.69939,-19.10139],[-44.69946,-19.09997],[-44.70092,-19.09591],[-44.70081,-19.0935],[-44.69981,-19.09118],[-44.69621,-19.0855],[-44.69467,-19.08238],[-44.69387,-19.08153],[-44.6871,-19.07778],[-44.68256,-19.07455],[-44.67943,-19.07102],[-44.67881,-19.06869],[-44.68024,-19.06167],[-44.68163,-19.05909],[-44.68325,-19.05731],[-44.68825,-19.05439],[-44.69093,-19.05213],[-44.69499,-19.04588],[-44.69744,-19.04636],[-44.70154,-19.04949],[-44.70292,-19.05002],[-44.70655,-19.04987],[-44.70921,-19.04816],[-44.70995,-19.04645],[-44.70965,-19.04507],[-44.70708,-19.0425],[-44.70678,-19.0396],[-44.7059,-19.03777],[-44.70386,-19.03655],[-44.6991,-19.03687],[-44.69372,-19.03647],[-44.69263,-19.03537],[-44.69246,-19.03447],[-44.69339,-19.03079],[-44.69473,-19.0286],[-44.69594,-19.0277],[-44.69915,-19.02603],[-44.7021,-19.02577],[-44.70563,-19.02479],[-44.71166,-19.02559],[-44.71437,-19.02547],[-44.71881,-19.02216],[-44.72282,-19.02058],[-44.72379,-19.02065],[-44.72558,-19.02154],[-44.72615,-19.02293],[-44.73205,-19.02346],[-44.7334,-19.02303],[-44.73391,-19.02225],[-44.7345,-19.01838],[-44.73574,-19.01566],[-44.73796,-19.01434],[-44.73954,-19.01399],[-44.74127,-19.01168],[-44.74479,-19.00932],[-44.74689,-19.00699],[-44.74662,-19.00561],[-44.74545,-19.00476],[-44.73753,-19.00249],[-44.73617,-19.00116],[-44.73675,-18.99865],[-44.73756,-18.99689],[-44.74281,-18.99042],[-44.74839,-18.98714],[-44.75311,-18.98525],[-44.75541,-18.98505],[-44.75926,-18.98554],[-44.76243,-18.98539],[-44.76668,-18.98464],[-44.76868,-18.98391],[-44.77197,-18.98357],[-44.77474,-18.98472],[-44.77601,-18.98584],[-44.77643,-18.98671],[-44.77645,-18.98811],[-44.77583,-18.98957],[-44.77254,-18.99377],[-44.77303,-18.99618],[-44.77621,-18.9996],[-44.77921,-19.00091],[-44.78881,-19.00126],[-44.79524,-19.00381],[-44.7962,-19.00363],[-44.79695,-19.00296],[-44.79781,-18.99916],[-44.79633,-18.99604],[-44.7956,-18.99549],[-44.79089,-18.99416],[-44.78742,-18.98906],[-44.78598,-18.98843],[-44.78296,-18.98823],[-44.78126,-18.98613],[-44.78142,-18.98258],[-44.78312,-18.98116],[-44.78561,-18.98061],[-44.7861,-18.9789],[-44.78408,-18.96907],[-44.78334,-18.96334],[-44.78425,-18.96023],[-44.78612,-18.95682],[-44.78637,-18.95526],[-44.7859,-18.95425],[-44.78394,-18.95385],[-44.77752,-18.95587],[-44.77031,-18.95963],[-44.76865,-18.96079],[-44.76667,-18.96592],[-44.76594,-18.96722],[-44.76514,-18.9678],[-44.76145,-18.96671],[-44.75871,-18.96372],[-44.75795,-18.96221],[-44.75998,-18.95773],[-44.7598,-18.95503],[-44.76021,-18.95195],[-44.75972,-18.94958],[-44.75858,-18.94674],[-44.75841,-18.94494],[-44.7603,-18.94294],[-44.76252,-18.93514],[-44.76414,-18.93315],[-44.77072,-18.93071],[-44.7728,-18.93055],[-44.77537,-18.93159],[-44.77746,-18.93189],[-44.77953,-18.93106],[-44.78094,-18.9295],[-44.78227,-18.92719],[-44.78193,-18.92068],[-44.78258,-18.91614],[-44.78322,-18.91523],[-44.78575,-18.91426],[-44.78676,-18.9132],[-44.78672,-18.91161],[-44.78569,-18.90883],[-44.78296,-18.90699],[-44.78069,-18.90474],[-44.78063,-18.90149],[-44.77944,-18.89895],[-44.77936,-18.89794],[-44.78133,-18.89437],[-44.78162,-18.89264],[-44.78098,-18.8912],[-44.77927,-18.88933],[-44.77854,-18.88517],[-44.77586,-18.87896],[-44.77631,-18.87759],[-44.77987,-18.87343],[-44.77645,-18.87308],[-44.77479,-18.87556],[-44.7723,-18.87602],[-44.77151,-18.87486],[-44.77223,-18.87351],[-44.77203,-18.87296],[-44.77047,-18.87199],[-44.76851,-18.86964],[-44.76762,-18.87004],[-44.7664,-18.86931],[-44.76634,-18.86842],[-44.76689,-18.8677],[-44.7663,-18.86634],[-44.76667,-18.86553],[-44.76655,-18.86084],[-44.76496,-18.86159],[-44.76409,-18.86107],[-44.76164,-18.86114],[-44.76043,-18.86044],[-44.75949,-18.86061],[-44.75899,-18.86144],[-44.75769,-18.86224],[-44.75478,-18.86326],[-44.75414,-18.8625],[-44.75285,-18.86215],[-44.75246,-18.86181],[-44.75379,-18.86115],[-44.75379,-18.85935],[-44.75346,-18.8597],[-44.75254,-18.85962],[-44.75072,-18.85895],[-44.75052,-18.85849],[-44.75094,-18.8577],[-44.75194,-18.85765],[-44.75284,-18.85653],[-44.75135,-18.85028],[-44.75006,-18.85218],[-44.74783,-18.85329],[-44.7474,-18.85426],[-44.74618,-18.85501],[-44.7458,-18.85356],[-44.74485,-18.85316],[-44.74297,-18.85322],[-44.74208,-18.85212],[-44.74072,-18.85168],[-44.73989,-18.85058],[-44.73662,-18.84974],[-44.73522,-18.85019],[-44.7343,-18.84994],[-44.73337,-18.8488],[-44.73215,-18.84812],[-44.73039,-18.84855],[-44.72899,-18.84818],[-44.72854,-18.84905],[-44.72665,-18.84916],[-44.72573,-18.84876],[-44.72572,-18.84791],[-44.72475,-18.84789],[-44.72402,-18.84716],[-44.72308,-18.8474],[-44.72227,-18.84626],[-44.72286,-18.84547],[-44.72276,-18.84504],[-44.72083,-18.84517],[-44.72031,-18.84384],[-44.71975,-18.84401],[-44.71858,-18.84537],[-44.71845,-18.84399],[-44.71683,-18.8418],[-44.71723,-18.84101],[-44.7181,-18.84064],[-44.71849,-18.83893],[-44.71694,-18.83842],[-44.71602,-18.8387],[-44.71553,-18.83997],[-44.71465,-18.83961],[-44.71415,-18.83969],[-44.71377,-18.84056],[-44.71285,-18.84034],[-44.71248,-18.84005],[-44.71249,-18.83864],[-44.7115,-18.83879],[-44.71109,-18.83856],[-44.71111,-18.8381],[-44.7112,-18.8376],[-44.71258,-18.83733],[-44.71165,-18.83639],[-44.71386,-18.83538],[-44.71358,-18.83405],[-44.71261,-18.83376],[-44.70979,-18.83443],[-44.70862,-18.83173],[-44.70841,-18.82973],[-44.70561,-18.83024],[-44.70379,-18.82922],[-44.70415,-18.82737],[-44.70381,-18.82701],[-44.70241,-18.82709],[-44.70228,-18.82661],[-44.70283,-18.82584],[-44.70375,-18.82558],[-44.70234,-18.82472],[-44.7013,-18.82501],[-44.70045,-18.82667],[-44.69958,-18.82689],[-44.69924,-18.82654],[-44.69988,-18.8252],[-44.69866,-18.82452],[-44.69783,-18.82331],[-44.69683,-18.82316],[-44.69687,-18.82229],[-44.69561,-18.82161],[-44.69642,-18.82049],[-44.69641,-18.81946],[-44.69556,-18.81901],[-44.69479,-18.81775],[-44.69328,-18.81804],[-44.69284,-18.81779],[-44.69226,-18.81577],[-44.69223,-18.81533],[-44.69373,-18.81534],[-44.6939,-18.81492],[-44.69345,-18.81364],[-44.69253,-18.81353],[-44.69211,-18.81308],[-44.6933,-18.81079],[-44.69312,-18.81035],[-44.6904,-18.80883],[-44.68509,-18.80723],[-44.68254,-18.80426],[-44.68049,-18.80398],[-44.67965,-18.80449],[-44.67908,-18.80579],[-44.67809,-18.80591],[-44.67591,-18.80326],[-44.67535,-18.80313],[-44.67498,-18.80173],[-44.67377,-18.79976],[-44.67266,-18.79952],[-44.66906,-18.79752],[-44.66713,-18.79738],[-44.66521,-18.79487],[-44.66424,-18.79455],[-44.66297,-18.79532],[-44.66253,-18.79507],[-44.66049,-18.7918],[-44.65695,-18.79066],[-44.65625,-18.79002],[-44.65523,-18.78985],[-44.65428,-18.78887],[-44.65149,-18.78779],[-44.64888,-18.78774],[-44.64694,-18.78242],[-44.64705,-18.78134],[-44.64759,-18.78043],[-44.65231,-18.77641],[-44.65388,-18.77402],[-44.65423,-18.77257],[-44.65323,-18.76908],[-44.65326,-18.76719],[-44.6548,-18.76174],[-44.65497,-18.75974],[-44.65689,-18.75632],[-44.6588,-18.75123],[-44.65863,-18.74852],[-44.65727,-18.74328],[-44.65738,-18.74227],[-44.6585,-18.74069],[-44.66133,-18.73896],[-44.66632,-18.73761],[-44.66886,-18.73642],[-44.66174,-18.72913],[-44.65786,-18.72769],[-44.65481,-18.72751],[-44.65315,-18.72843],[-44.65179,-18.73005],[-44.64949,-18.73113],[-44.6471,-18.7315],[-44.64248,-18.7312],[-44.63944,-18.73155],[-44.63656,-18.73344],[-44.634,-18.73371],[-44.63267,-18.73577],[-44.6317,-18.73567],[-44.62892,-18.7327],[-44.62922,-18.73134],[-44.62901,-18.73042],[-44.6268,-18.7292],[-44.62572,-18.7276],[-44.61943,-18.72376],[-44.61805,-18.72345],[-44.61566,-18.72412],[-44.61491,-18.72337],[-44.61371,-18.71767],[-44.61395,-18.71442],[-44.61262,-18.71176],[-44.61105,-18.7097],[-44.61053,-18.70626],[-44.60946,-18.70525],[-44.60881,-18.70349],[-44.60494,-18.70205],[-44.60344,-18.70229],[-44.60188,-18.70106],[-44.59505,-18.69928],[-44.59305,-18.69762],[-44.59177,-18.6971],[-44.58932,-18.6965],[-44.58833,-18.69665],[-44.58734,-18.69599],[-44.58693,-18.69337],[-44.58778,-18.68708],[-44.58634,-18.68242],[-44.585,-18.68194],[-44.58441,-18.68071],[-44.58162,-18.67919],[-44.57933,-18.68015],[-44.57802,-18.67975],[-44.57698,-18.67875],[-44.57612,-18.67549],[-44.57364,-18.67376],[-44.57327,-18.67261],[-44.57111,-18.67166],[-44.56884,-18.67173],[-44.56883,-18.67081],[-44.56805,-18.67029],[-44.56401,-18.66958],[-44.56311,-18.66842],[-44.56182,-18.66772],[-44.5614,-18.66604],[-44.56043,-18.66607],[-44.5593,-18.66689],[-44.5596,-18.66774],[-44.55939,-18.6682],[-44.5569,-18.66778],[-44.55548,-18.66572],[-44.5546,-18.66522],[-44.5543,-18.66428],[-44.55255,-18.66322],[-44.5513,-18.66053],[-44.54886,-18.658],[-44.54449,-18.65859],[-44.54395,-18.65728],[-44.54305,-18.65694],[-44.54127,-18.65763],[-44.53832,-18.65719],[-44.53761,-18.65644],[-44.53728,-18.65492],[-44.53687,-18.65463],[-44.53397,-18.65463],[-44.53306,-18.65563],[-44.53067,-18.65528],[-44.52968,-18.65552],[-44.52886,-18.65504],[-44.52816,-18.65548],[-44.52779,-18.65466],[-44.52717,-18.65588],[-44.52669,-18.6561],[-44.5265,-18.65568],[-44.52548,-18.65571],[-44.5246,-18.65674],[-44.52353,-18.65658],[-44.52317,-18.65689],[-44.52262,-18.65928],[-44.52116,-18.66068],[-44.52114,-18.66155],[-44.52078,-18.66183],[-44.51787,-18.66308],[-44.51686,-18.66313],[-44.51644,-18.6629],[-44.51636,-18.66189],[-44.51539,-18.66169],[-44.5156,-18.66031],[-44.51436,-18.65933],[-44.51416,-18.6585],[-44.51229,-18.65806],[-44.51125,-18.65708],[-44.51091,-18.6574],[-44.51043,-18.65725],[-44.51083,-18.65637],[-44.51063,-18.65596],[-44.50974,-18.65636],[-44.50877,-18.65533],[-44.50758,-18.6552],[-44.50724,-18.65435],[-44.50675,-18.65426],[-44.50564,-18.65453],[-44.50544,-18.65591],[-44.50449,-18.65748],[-44.50302,-18.65759],[-44.50255,-18.65734],[-44.50281,-18.65646],[-44.50194,-18.65665],[-44.50213,-18.65582],[-44.50178,-18.65504],[-44.5021,-18.65469],[-44.50122,-18.65433],[-44.50117,-18.65346],[-44.5008,-18.65318],[-44.50044,-18.65358],[-44.4976,-18.65381],[-44.49446,-18.65132],[-44.49206,-18.65198],[-44.48974,-18.65182],[-44.48883,-18.65136],[-44.48779,-18.65144],[-44.48726,-18.65069],[-44.48556,-18.64972],[-44.4846,-18.64973],[-44.4848,-18.65067],[-44.48452,-18.65102],[-44.48347,-18.65013],[-44.48277,-18.65077],[-44.48081,-18.65055],[-44.47877,-18.65022],[-44.47784,-18.64918],[-44.47639,-18.64909],[-44.47479,-18.65125],[-44.47353,-18.65202],[-44.47154,-18.65178],[-44.47037,-18.64978],[-44.4713,-18.64951],[-44.47139,-18.64766],[-44.46898,-18.64939],[-44.46714,-18.65008],[-44.46636,-18.64898],[-44.46545,-18.64928],[-44.46517,-18.64889],[-44.46534,-18.64661],[-44.46431,-18.64666],[-44.46364,-18.64539],[-44.46318,-18.64531],[-44.46174,-18.64657],[-44.46081,-18.64681],[-44.46091,-18.64773],[-44.46053,-18.64804],[-44.45893,-18.64771],[-44.45563,-18.65054],[-44.4552,-18.65079],[-44.45384,-18.65055],[-44.45348,-18.65136],[-44.45152,-18.65204],[-44.45132,-18.65159],[-44.45215,-18.65041],[-44.45224,-18.64953],[-44.45158,-18.64773],[-44.45037,-18.64844],[-44.44849,-18.64842],[-44.44762,-18.64683],[-44.44822,-18.64612],[-44.4491,-18.64568],[-44.45508,-18.64506],[-44.45664,-18.64393],[-44.45774,-18.64139],[-44.45784,-18.6377],[-44.46035,-18.63268],[-44.4622,-18.63088],[-44.46916,-18.6311],[-44.47105,-18.63044],[-44.47482,-18.62822],[-44.47732,-18.6276],[-44.48127,-18.62896],[-44.48535,-18.62951],[-44.48716,-18.63022],[-44.48953,-18.62974],[-44.49131,-18.62879],[-44.49272,-18.62741],[-44.49306,-18.62655],[-44.49254,-18.62385],[-44.49287,-18.62304],[-44.49631,-18.62093],[-44.50092,-18.61921],[-44.50399,-18.61948],[-44.50705,-18.61927],[-44.51407,-18.61783],[-44.51675,-18.61689],[-44.51396,-18.61392],[-44.51261,-18.60873],[-44.51073,-18.60469],[-44.50664,-18.59849],[-44.50568,-18.59615],[-44.49936,-18.58557],[-44.4977,-18.58188],[-44.49427,-18.57079],[-44.49339,-18.56969],[-44.49251,-18.5695],[-44.48707,-18.5724],[-44.4855,-18.57244],[-44.4832,-18.57124],[-44.47982,-18.56809],[-44.47627,-18.56653],[-44.47232,-18.56231],[-44.47125,-18.56193],[-44.46715,-18.56234],[-44.46555,-18.56197],[-44.46294,-18.55961],[-44.4598,-18.55815],[-44.45764,-18.55602],[-44.45646,-18.55557],[-44.45117,-18.55598],[-44.44831,-18.55486],[-44.44738,-18.55376],[-44.44669,-18.55032],[-44.44693,-18.54782],[-44.44854,-18.54285],[-44.44966,-18.53522],[-44.4508,-18.53238],[-44.45359,-18.52892],[-44.45537,-18.52576],[-44.45593,-18.52427],[-44.45577,-18.52225],[-44.45467,-18.51928],[-44.45315,-18.51705],[-44.45201,-18.51623],[-44.44903,-18.51507],[-44.44654,-18.51168],[-44.44586,-18.50682],[-44.44726,-18.50132],[-44.44695,-18.5004],[-44.44535,-18.49887],[-44.44452,-18.49545],[-44.44095,-18.49185],[-44.43891,-18.49046],[-44.43603,-18.48931],[-44.43547,-18.48831],[-44.43546,-18.48704],[-44.43662,-18.48301],[-44.4349,-18.47638],[-44.43169,-18.47323],[-44.43012,-18.47032],[-44.43126,-18.46833],[-44.43039,-18.46565],[-44.43093,-18.46178],[-44.43239,-18.46016],[-44.433,-18.45878],[-44.43259,-18.4579],[-44.43251,-18.45542],[-44.4308,-18.45252],[-44.43073,-18.45208],[-44.43156,-18.45081],[-44.43033,-18.44868],[-44.43007,-18.44682],[-44.42793,-18.44658],[-44.42645,-18.44568],[-44.42509,-18.44426],[-44.42468,-18.44199],[-44.42327,-18.4408],[-44.421,-18.43988],[-44.41871,-18.4373],[-44.41585,-18.43525],[-44.41509,-18.43349],[-44.41368,-18.43207],[-44.41344,-18.42959],[-44.4096,-18.42588],[-44.41015,-18.42334],[-44.40912,-18.42068],[-44.40816,-18.41943],[-44.40906,-18.41693],[-44.40845,-18.41423],[-44.40712,-18.41088],[-44.4078,-18.40809],[-44.40604,-18.40581],[-44.40545,-18.40395],[-44.40396,-18.40187],[-44.40558,-18.39953],[-44.40531,-18.39914],[-44.40552,-18.39873],[-44.4071,-18.39759],[-44.40783,-18.39579],[-44.40803,-18.39399],[-44.40571,-18.39327],[-44.40468,-18.39151],[-44.40585,-18.3875],[-44.40559,-18.38548],[-44.40604,-18.38421],[-44.40598,-18.38278],[-44.40467,-18.38217],[-44.40373,-18.38234],[-44.40199,-18.38123],[-44.40198,-18.37971],[-44.40035,-18.37802],[-44.39988,-18.37456],[-44.3986,-18.37091],[-44.39799,-18.37013],[-44.39659,-18.37049],[-44.39573,-18.37027],[-44.39523,-18.36834],[-44.39176,-18.36572],[-44.39125,-18.36557],[-44.38991,-18.36608],[-44.38856,-18.36586],[-44.38766,-18.36484],[-44.38819,-18.36304],[-44.38795,-18.36265],[-44.38729,-18.36185],[-44.38587,-18.36163],[-44.38509,-18.36108],[-44.38462,-18.35955],[-44.38537,-18.35664],[-44.38431,-18.35364],[-44.38319,-18.35287],[-44.38282,-18.352],[-44.38392,-18.34766],[-44.38309,-18.34714],[-44.38129,-18.34791],[-44.38033,-18.34778],[-44.37696,-18.3454],[-44.37603,-18.3443],[-44.37578,-18.34329],[-44.37632,-18.34073],[-44.37607,-18.33982],[-44.37419,-18.33712],[-44.37455,-18.33486],[-44.37418,-18.33387],[-44.37194,-18.33323],[-44.36949,-18.33182],[-44.36844,-18.33268],[-44.36807,-18.33358],[-44.36475,-18.33459],[-44.3641,-18.33425],[-44.36332,-18.33297],[-44.36211,-18.33298],[-44.36102,-18.33154],[-44.35902,-18.33179],[-44.35835,-18.33262],[-44.35739,-18.33258],[-44.35651,-18.33105],[-44.35225,-18.3313],[-44.35046,-18.33048],[-44.34878,-18.32893],[-44.34784,-18.32877],[-44.34692,-18.33041],[-44.34572,-18.33107],[-44.3443,-18.33082],[-44.34401,-18.33119],[-44.34484,-18.33232],[-44.34468,-18.33275],[-44.34305,-18.33376],[-44.34179,-18.3328],[-44.34158,-18.33181],[-44.33989,-18.33072],[-44.34041,-18.32996],[-44.3405,-18.3283],[-44.33938,-18.32721],[-44.33924,-18.32574],[-44.3381,-18.32418],[-44.33807,-18.32322],[-44.3362,-18.32197],[-44.33621,-18.3195],[-44.33586,-18.31866],[-44.33458,-18.31765],[-44.33462,-18.31719],[-44.33339,-18.31647],[-44.33342,-18.31502],[-44.33269,-18.31431],[-44.33064,-18.31313],[-44.32873,-18.31294],[-44.3281,-18.3123],[-44.32955,-18.3104],[-44.32782,-18.30715],[-44.32928,-18.30601],[-44.33168,-18.30558],[-44.33287,-18.30398],[-44.33263,-18.30164],[-44.33352,-18.29857],[-44.33289,-18.29536],[-44.3331,-18.29446],[-44.33356,-18.29432],[-44.3328,-18.29299],[-44.33232,-18.29297],[-44.33238,-18.29155],[-44.33191,-18.29019],[-44.33311,-18.28968],[-44.33322,-18.2883],[-44.33367,-18.28799],[-44.3339,-18.28707],[-44.3319,-18.28672],[-44.33149,-18.28583],[-44.33103,-18.28565],[-44.33114,-18.28461],[-44.33077,-18.28379],[-44.32983,-18.28338],[-44.32798,-18.28408],[-44.32759,-18.28326],[-44.32713,-18.28312],[-44.32606,-18.28481],[-44.32508,-18.28519],[-44.32262,-18.28265],[-44.32157,-18.28289],[-44.32118,-18.28262],[-44.32039,-18.28023],[-44.31902,-18.28038],[-44.31848,-18.27956],[-44.31751,-18.2792],[-44.31709,-18.27782],[-44.31567,-18.27769],[-44.31501,-18.27619],[-44.31271,-18.27788],[-44.30708,-18.28091],[-44.30495,-18.28279],[-44.29793,-18.29165],[-44.29662,-18.2941],[-44.29681,-18.29592],[-44.29952,-18.29799],[-44.30038,-18.29975],[-44.3004,-18.30483],[-44.302,-18.31197],[-44.30173,-18.31402],[-44.29987,-18.3165],[-44.29319,-18.31772],[-44.29048,-18.31981],[-44.28858,-18.3201],[-44.28633,-18.32129],[-44.28493,-18.32098],[-44.28329,-18.32118],[-44.27941,-18.3233],[-44.27608,-18.32264],[-44.27334,-18.32054],[-44.2719,-18.32023],[-44.27113,-18.32083],[-44.2712,-18.32272],[-44.2701,-18.32459],[-44.26416,-18.32866],[-44.26018,-18.33073],[-44.25428,-18.33053],[-44.25071,-18.32929],[-44.24893,-18.32912],[-44.24739,-18.32922],[-44.24455,-18.33025],[-44.24328,-18.33134],[-44.24227,-18.33379],[-44.24264,-18.33512],[-44.24369,-18.33617],[-44.24767,-18.33743],[-44.25367,-18.33768],[-44.26355,-18.33936],[-44.26696,-18.34055],[-44.26982,-18.34232],[-44.27339,-18.34648],[-44.27371,-18.34742],[-44.27212,-18.35031],[-44.27173,-18.35884],[-44.27124,-18.36041],[-44.26952,-18.36187],[-44.26755,-18.36285],[-44.26541,-18.36326],[-44.26221,-18.36308],[-44.25961,-18.36344],[-44.25502,-18.36518],[-44.25273,-18.36441],[-44.24943,-18.36193],[-44.24687,-18.36073],[-44.23654,-18.3586],[-44.23406,-18.35862],[-44.23099,-18.35956],[-44.22659,-18.36405],[-44.22536,-18.36687],[-44.22613,-18.36872],[-44.22915,-18.37017],[-44.23149,-18.37059],[-44.23654,-18.37042],[-44.2386,-18.37093],[-44.24232,-18.37265],[-44.25244,-18.37327],[-44.25527,-18.3743],[-44.25595,-18.37499],[-44.25545,-18.37656],[-44.25304,-18.37871],[-44.25126,-18.38218],[-44.24926,-18.38486],[-44.24773,-18.38616],[-44.24264,-18.38822],[-44.23867,-18.39197],[-44.23666,-18.39725],[-44.23602,-18.39843],[-44.23473,-18.39964],[-44.23286,-18.40016],[-44.23018,-18.39979],[-44.22375,-18.39972],[-44.21857,-18.39996],[-44.21754,-18.40043],[-44.21235,-18.40564],[-44.20868,-18.40753],[-44.20657,-18.40943],[-44.20202,-18.41169],[-44.19275,-18.41316],[-44.19086,-18.41502],[-44.18982,-18.41755],[-44.18725,-18.42141],[-44.18656,-18.42503],[-44.18681,-18.42652],[-44.189,-18.43007],[-44.19156,-18.4332],[-44.19234,-18.43773],[-44.19122,-18.43973],[-44.18645,-18.44503],[-44.18552,-18.4469],[-44.18527,-18.44835],[-44.18575,-18.45187],[-44.18725,-18.45503],[-44.18876,-18.45704],[-44.19443,-18.46147],[-44.19499,-18.46236],[-44.19688,-18.46929],[-44.19807,-18.47154],[-44.20013,-18.47826],[-44.1999,-18.47978],[-44.1988,-18.48172],[-44.19662,-18.48318],[-44.19323,-18.48392],[-44.19042,-18.48548],[-44.18618,-18.48866],[-44.18444,-18.49051],[-44.18162,-18.4949],[-44.18019,-18.49935],[-44.17916,-18.50085],[-44.1795,-18.5061],[-44.18023,-18.5078],[-44.18183,-18.50896],[-44.18657,-18.51081],[-44.19589,-18.5159],[-44.20292,-18.52279],[-44.20469,-18.5238],[-44.20957,-18.52551],[-44.21095,-18.52639],[-44.21167,-18.52782],[-44.21152,-18.52928],[-44.21041,-18.53025],[-44.20983,-18.53031],[-44.20506,-18.52899],[-44.2001,-18.52855],[-44.19514,-18.52725],[-44.19118,-18.5249],[-44.18953,-18.52443],[-44.18176,-18.52782],[-44.1757,-18.52948],[-44.17351,-18.53064],[-44.1726,-18.53235],[-44.175,-18.53781],[-44.17583,-18.54122],[-44.17763,-18.54594],[-44.17819,-18.54852],[-44.17824,-18.55278],[-44.17918,-18.55616],[-44.1794,-18.5635],[-44.18052,-18.56555],[-44.18264,-18.56712],[-44.18672,-18.56849],[-44.19033,-18.56892],[-44.19908,-18.57187],[-44.2024,-18.57233],[-44.20704,-18.57389],[-44.21363,-18.57463],[-44.22005,-18.58215],[-44.22279,-18.58339],[-44.22624,-18.58385],[-44.22872,-18.58466],[-44.23194,-18.58485],[-44.23236,-18.58507],[-44.23293,-18.58728],[-44.23356,-18.588],[-44.23606,-18.58762],[-44.23629,-18.58904],[-44.2374,-18.58981],[-44.23754,-18.59029],[-44.23685,-18.59248],[-44.23794,-18.59337],[-44.24006,-18.59246],[-44.24204,-18.59247],[-44.24294,-18.59093],[-44.24518,-18.59145],[-44.24569,-18.59238],[-44.24602,-18.59628],[-44.24519,-18.59669],[-44.24437,-18.59612],[-44.24392,-18.5962],[-44.24358,-18.59706],[-44.24153,-18.59884],[-44.24143,-18.60018],[-44.24181,-18.601],[-44.24436,-18.60146],[-44.24444,-18.60243],[-44.24325,-18.60393],[-44.24336,-18.60437],[-44.24426,-18.60446],[-44.24507,-18.60407],[-44.246,-18.60457],[-44.2475,-18.60455],[-44.24801,-18.60539],[-44.24884,-18.60585],[-44.2487,-18.60685],[-44.24913,-18.60813],[-44.24885,-18.6085],[-44.24751,-18.60824],[-44.24711,-18.60848],[-44.24673,-18.60879],[-44.24731,-18.60953],[-44.25002,-18.60969],[-44.25092,-18.60934],[-44.25123,-18.6089],[-44.25091,-18.60709],[-44.25186,-18.60591],[-44.25366,-18.60554],[-44.25665,-18.60603],[-44.25755,-18.6064],[-44.25817,-18.60772],[-44.25999,-18.60813],[-44.26085,-18.61023],[-44.26233,-18.61042],[-44.26456,-18.61139],[-44.26565,-18.6107],[-44.26609,-18.61094],[-44.26579,-18.61228],[-44.2661,-18.61276],[-44.26665,-18.61272],[-44.26682,-18.61184],[-44.26735,-18.61189],[-44.26994,-18.61364],[-44.2709,-18.61345],[-44.27161,-18.61466],[-44.27205,-18.61483],[-44.27334,-18.61433],[-44.27438,-18.61527],[-44.27545,-18.61533],[-44.27616,-18.61476],[-44.27622,-18.61382],[-44.27688,-18.61304],[-44.2767,-18.61263],[-44.27523,-18.61281],[-44.27566,-18.61197],[-44.27482,-18.61141],[-44.2747,-18.60953],[-44.27578,-18.6086],[-44.27496,-18.60706],[-44.27582,-18.60669],[-44.27684,-18.60696],[-44.27792,-18.60843],[-44.27887,-18.60863],[-44.27978,-18.60829],[-44.28091,-18.60724],[-44.28099,-18.60678],[-44.28009,-18.60655],[-44.28043,-18.60576],[-44.27949,-18.60585],[-44.28033,-18.60413],[-44.28078,-18.60393],[-44.28215,-18.6044],[-44.28364,-18.60348],[-44.28487,-18.60426],[-44.28632,-18.60422],[-44.28779,-18.60316],[-44.28745,-18.60478],[-44.28889,-18.60433],[-44.28954,-18.60369],[-44.28998,-18.60389],[-44.29015,-18.60531],[-44.29052,-18.6056],[-44.29183,-18.60508],[-44.29317,-18.60557],[-44.29461,-18.60528],[-44.29598,-18.60582],[-44.2969,-18.60575],[-44.29671,-18.60495],[-44.29772,-18.604],[-44.29753,-18.60357],[-44.29784,-18.60323],[-44.29909,-18.60382],[-44.29838,-18.60444],[-44.29877,-18.60471],[-44.29921,-18.60486],[-44.3,-18.60435],[-44.30086,-18.60495],[-44.30282,-18.60446],[-44.30289,-18.60351],[-44.30337,-18.60334],[-44.30492,-18.60433],[-44.30508,-18.60479],[-44.30462,-18.60561],[-44.30555,-18.60666],[-44.30494,-18.60735],[-44.30514,-18.60824],[-44.3046,-18.60959],[-44.30501,-18.60981],[-44.30527,-18.60941],[-44.30754,-18.60875],[-44.30758,-18.60596],[-44.30924,-18.60504],[-44.30968,-18.60521],[-44.30997,-18.60751],[-44.31129,-18.60819],[-44.31161,-18.60912],[-44.31245,-18.60958],[-44.31318,-18.60903],[-44.31284,-18.60819],[-44.3137,-18.6078],[-44.31339,-18.60557],[-44.3168,-18.60426],[-44.31872,-18.60469],[-44.31962,-18.60637],[-44.31722,-18.6086],[-44.31659,-18.61099],[-44.31672,-18.61191],[-44.31914,-18.61371],[-44.31932,-18.61416],[-44.31887,-18.61454],[-44.31798,-18.61436],[-44.31899,-18.61592],[-44.32098,-18.6164],[-44.32178,-18.61702],[-44.32137,-18.61786],[-44.32349,-18.61769],[-44.32455,-18.61607],[-44.32563,-18.61604],[-44.32657,-18.61666],[-44.32759,-18.61668],[-44.32959,-18.616],[-44.33145,-18.61438],[-44.33441,-18.61405],[-44.33511,-18.61463],[-44.33634,-18.61717],[-44.33709,-18.62042],[-44.33959,-18.6192],[-44.34056,-18.61931],[-44.34032,-18.62075],[-44.34105,-18.62114],[-44.34264,-18.61921],[-44.34411,-18.61915],[-44.34537,-18.62155],[-44.3468,-18.62172],[-44.34633,-18.61998],[-44.34756,-18.62059],[-44.34827,-18.62],[-44.34914,-18.6211],[-44.3496,-18.621],[-44.34974,-18.62019],[-44.3502,-18.61992],[-44.35123,-18.62146],[-44.3521,-18.62146],[-44.35338,-18.6205],[-44.35468,-18.62125],[-44.35546,-18.62245],[-44.35929,-18.62184],[-44.35969,-18.62155],[-44.35973,-18.62067],[-44.36019,-18.62055],[-44.36119,-18.6225],[-44.36253,-18.62209],[-44.36353,-18.62239],[-44.36474,-18.62162],[-44.36668,-18.62196],[-44.36885,-18.62102],[-44.3698,-18.62208],[-44.37369,-18.62367],[-44.37373,-18.62416],[-44.37327,-18.62422],[-44.37299,-18.62512],[-44.37354,-18.62672],[-44.37191,-18.62789],[-44.37271,-18.62888],[-44.37159,-18.62993],[-44.372,-18.63167],[-44.37069,-18.63225],[-44.37063,-18.63276],[-44.3714,-18.63334],[-44.37089,-18.634],[-44.37082,-18.63492],[-44.37342,-18.63393],[-44.37363,-18.6353],[-44.37457,-18.63507],[-44.37545,-18.63548],[-44.37682,-18.63535],[-44.37758,-18.63467],[-44.37898,-18.63702],[-44.37887,-18.6399],[-44.37988,-18.64144],[-44.37982,-18.64333],[-44.37776,-18.64551],[-44.37576,-18.65051],[-44.37299,-18.65388],[-44.37327,-18.65687],[-44.37196,-18.66144],[-44.37332,-18.66398],[-44.37558,-18.66521],[-44.376,-18.66614],[-44.3759,-18.66704],[-44.37708,-18.66927],[-44.37641,-18.67097],[-44.3763,-18.67288],[-44.37418,-18.67487],[-44.37306,-18.67827],[-44.37187,-18.68051],[-44.37178,-18.68148],[-44.37258,-18.68236],[-44.37509,-18.68321],[-44.3764,-18.68407],[-44.377,-18.68493],[-44.37724,-18.68651],[-44.37674,-18.68899],[-44.37466,-18.6922],[-44.37404,-18.69401],[-44.37545,-18.69831],[-44.37544,-18.70114],[-44.37599,-18.70469],[-44.37534,-18.70556],[-44.37385,-18.70609],[-44.37247,-18.70746],[-44.37199,-18.70922],[-44.37018,-18.71013],[-44.37012,-18.71109],[-44.37139,-18.7132],[-44.37141,-18.71461],[-44.37069,-18.71582],[-44.37139,-18.71742],[-44.37137,-18.71884],[-44.37243,-18.72195],[-44.37081,-18.72678],[-44.37104,-18.72813],[-44.37262,-18.72975],[-44.37348,-18.72954],[-44.37353,-18.72813],[-44.3743,-18.72781],[-44.3768,-18.72998],[-44.37689,-18.732],[-44.37864,-18.73536],[-44.37835,-18.73786],[-44.38033,-18.74096],[-44.38134,-18.74164],[-44.38535,-18.74218],[-44.38767,-18.74301],[-44.38999,-18.747],[-44.39138,-18.7483],[-44.39092,-18.75123],[-44.38985,-18.75428],[-44.39098,-18.75646],[-44.39205,-18.76078],[-44.39215,-18.76485],[-44.39154,-18.76851],[-44.39165,-18.77231],[-44.38995,-18.77813],[-44.38883,-18.77962],[-44.38681,-18.78073],[-44.38645,-18.78155],[-44.39155,-18.78712],[-44.39197,-18.78892],[-44.39188,-18.79144],[-44.38867,-18.80285],[-44.38682,-18.80406],[-44.38173,-18.80604],[-44.37967,-18.80736],[-44.37715,-18.81038],[-44.37569,-18.81401],[-44.37531,-18.8167],[-44.37548,-18.81819],[-44.37677,-18.82181],[-44.37682,-18.82345],[-44.37435,-18.83116],[-44.37205,-18.83689],[-44.37241,-18.8533],[-44.37167,-18.85781],[-44.37272,-18.87077],[-44.37481,-18.87656],[-44.37513,-18.87917],[-44.37438,-18.88251],[-44.37371,-18.88334],[-44.37126,-18.88469],[-44.37015,-18.88574],[-44.36878,-18.89008],[-44.3696,-18.88878],[-44.36643,-18.8939],[-44.36593,-18.89578],[-44.36677,-18.89955],[-44.36811,-18.90124],[-44.36975,-18.90194],[-44.3748,-18.90239],[-44.37911,-18.90172],[-44.38058,-18.90235],[-44.3813,-18.90309],[-44.38161,-18.90536],[-44.38221,-18.90677],[-44.38133,-18.91115],[-44.37963,-18.91585],[-44.3795,-18.91785],[-44.38084,-18.91885],[-44.38538,-18.92016],[-44.39118,-18.92644],[-44.39391,-18.93157],[-44.39845,-18.93771],[-44.40016,-18.94273],[-44.4025,-18.94406],[-44.40148,-18.94546],[-44.40165,-18.946],[-44.40468,-18.95246],[-44.40943,-18.95873],[-44.41049,-18.96116],[-44.41061,-18.96257],[-44.41005,-18.96332],[-44.40904,-18.96362],[-44.40364,-18.96347],[-44.40013,-18.96497],[-44.39804,-18.96536],[-44.39704,-18.96534],[-44.39585,-18.96449],[-44.39561,-18.96358],[-44.39896,-18.96075],[-44.39993,-18.95851],[-44.39991,-18.95699],[-44.39602,-18.95415],[-44.39481,-18.95241],[-44.38937,-18.93923],[-44.38761,-18.93686],[-44.38521,-18.9352],[-44.38293,-18.93038],[-44.37698,-18.92792],[-44.37139,-18.92789],[-44.37055,-18.92734],[-44.36948,-18.92573],[-44.36726,-18.92439],[-44.36564,-18.92049],[-44.36508,-18.91715],[-44.36523,-18.91567],[-44.36465,-18.9134],[-44.36384,-18.91281],[-44.36302,-18.91055],[-44.36157,-18.9107],[-44.36125,-18.91037],[-44.36151,-18.90948],[-44.35941,-18.90802],[-44.35755,-18.904],[-44.3562,-18.90357],[-44.35324,-18.90391],[-44.35136,-18.90341],[-44.34794,-18.89926],[-44.34646,-18.89894],[-44.34639,-18.89751],[-44.34249,-18.89663],[-44.3415,-18.89573],[-44.3391,-18.89566],[-44.33871,-18.89477],[-44.33783,-18.89436],[-44.33814,-18.8935],[-44.33742,-18.89294],[-44.33659,-18.89352],[-44.33567,-18.89345],[-44.33408,-18.89456],[-44.3335,-18.89284],[-44.33304,-18.89276],[-44.33272,-18.89427],[-44.33196,-18.89473],[-44.33059,-18.89424],[-44.32868,-18.89277],[-44.32576,-18.89296],[-44.32497,-18.89227],[-44.32483,-18.89002],[-44.32397,-18.88896],[-44.32403,-18.88847],[-44.32359,-18.88828],[-44.32293,-18.88885],[-44.3234,-18.89008],[-44.32074,-18.89091],[-44.32053,-18.89048],[-44.32155,-18.88898],[-44.3219,-18.88766],[-44.32099,-18.88554],[-44.3199,-18.88557],[-44.31825,-18.88467],[-44.31697,-18.88553],[-44.31723,-18.88592],[-44.31695,-18.88634],[-44.31599,-18.8866],[-44.3156,-18.88801],[-44.31512,-18.88826],[-44.31431,-18.8878],[-44.31191,-18.88765],[-44.31097,-18.88542],[-44.3117,-18.88319],[-44.31259,-18.88146],[-44.31303,-18.88219],[-44.31356,-18.88215],[-44.31433,-18.88049],[-44.31398,-18.87848],[-44.3117,-18.87824],[-44.31087,-18.87711],[-44.31123,-18.87326],[-44.31089,-18.87297],[-44.31067,-18.87382],[-44.30885,-18.87357],[-44.30818,-18.87233],[-44.30674,-18.87188],[-44.30592,-18.87015],[-44.30303,-18.86669],[-44.30005,-18.86665],[-44.29924,-18.86543],[-44.29735,-18.86518],[-44.29463,-18.86169],[-44.29407,-18.85917],[-44.29333,-18.85843],[-44.29284,-18.85851],[-44.29158,-18.86057],[-44.2907,-18.86117],[-44.2897,-18.86099],[-44.28965,-18.85918],[-44.28879,-18.8589],[-44.28798,-18.85938],[-44.28759,-18.85902],[-44.28723,-18.85685],[-44.28621,-18.85577],[-44.28414,-18.85463],[-44.28404,-18.85371],[-44.28328,-18.85318],[-44.28262,-18.85078],[-44.28296,-18.84989],[-44.28153,-18.84972],[-44.28035,-18.84738],[-44.27821,-18.84548],[-44.27787,-18.84453],[-44.27811,-18.84215],[-44.27747,-18.84028],[-44.27586,-18.83899],[-44.27588,-18.83721],[-44.27512,-18.83675],[-44.27515,-18.83765],[-44.27427,-18.83753],[-44.27347,-18.83585],[-44.2738,-18.83552],[-44.27334,-18.83466],[-44.27191,-18.83446],[-44.27128,-18.83365],[-44.2704,-18.83331],[-44.26994,-18.83249],[-44.27007,-18.832],[-44.26972,-18.83169],[-44.27084,-18.83037],[-44.27036,-18.82956],[-44.2705,-18.82865],[-44.27161,-18.82786],[-44.2716,-18.82738],[-44.27076,-18.82515],[-44.26846,-18.82507],[-44.268,-18.82425],[-44.26908,-18.82075],[-44.26811,-18.82054],[-44.26795,-18.82009],[-44.2696,-18.8171],[-44.27051,-18.81686],[-44.27183,-18.81558],[-44.27669,-18.81331],[-44.27858,-18.81411],[-44.2794,-18.81586],[-44.28076,-18.81601],[-44.28202,-18.81522],[-44.28367,-18.81609],[-44.28557,-18.8165],[-44.28658,-18.8174],[-44.2882,-18.81645],[-44.2906,-18.81662],[-44.29364,-18.81559],[-44.29668,-18.81537],[-44.29809,-18.8148],[-44.3009,-18.81263],[-44.30075,-18.81084],[-44.29994,-18.80962],[-44.29773,-18.80756],[-44.29577,-18.80671],[-44.29299,-18.80617],[-44.28916,-18.80335],[-44.28739,-18.80321],[-44.28636,-18.80356],[-44.28326,-18.80581],[-44.28222,-18.80572],[-44.27912,-18.80473],[-44.27712,-18.80326],[-44.27509,-18.80106],[-44.26995,-18.80035],[-44.26629,-18.79786],[-44.26361,-18.79782],[-44.25975,-18.79901],[-44.25875,-18.79869],[-44.25637,-18.79673],[-44.25512,-18.79621],[-44.25305,-18.79629],[-44.24933,-18.79733],[-44.2479,-18.79712],[-44.2434,-18.7922],[-44.24089,-18.79086],[-44.23799,-18.78992],[-44.23649,-18.78831],[-44.23605,-18.78553],[-44.23673,-18.77764],[-44.23565,-18.77396],[-44.23077,-18.76981],[-44.22828,-18.76835],[-44.22486,-18.7678],[-44.22153,-18.76794],[-44.21967,-18.76727],[-44.2189,-18.76485],[-44.21705,-18.76294],[-44.21436,-18.75779],[-44.21276,-18.75164],[-44.21066,-18.74859],[-44.2084,-18.74651],[-44.20656,-18.74628],[-44.2044,-18.74521],[-44.20125,-18.74582],[-44.19909,-18.74475],[-44.19648,-18.74484],[-44.19493,-18.74555],[-44.19233,-18.74753],[-44.18922,-18.7528],[-44.18547,-18.75587],[-44.1845,-18.75566],[-44.18153,-18.75348],[-44.18014,-18.75299],[-44.17855,-18.75306],[-44.17201,-18.75611],[-44.16804,-18.75925],[-44.16671,-18.75975],[-44.16516,-18.76163],[-44.16156,-18.7624],[-44.15991,-18.76371],[-44.15751,-18.76683],[-44.15757,-18.76982],[-44.15852,-18.77415],[-44.15732,-18.77865],[-44.15732,-18.78429],[-44.15568,-18.78553],[-44.15106,-18.78623],[-44.14975,-18.78677],[-44.14304,-18.79035],[-44.14168,-18.7918],[-44.14185,-18.79276],[-44.14795,-18.7964],[-44.14994,-18.79899],[-44.15068,-18.8022],[-44.1517,-18.80383],[-44.15297,-18.80359],[-44.15218,-18.80381],[-44.15273,-18.80523],[-44.15159,-18.80751],[-44.14858,-18.80957],[-44.1479,-18.81044],[-44.14655,-18.81649],[-44.14565,-18.8169],[-44.14474,-18.81654],[-44.14183,-18.81387],[-44.13915,-18.81229],[-44.13583,-18.80952],[-44.13381,-18.80888],[-44.13011,-18.80914],[-44.12909,-18.80972],[-44.12851,-18.81059],[-44.1283,-18.81243],[-44.12909,-18.81453],[-44.13488,-18.81822],[-44.14037,-18.82093],[-44.1421,-18.82239],[-44.14298,-18.8242],[-44.14318,-18.8262],[-44.14176,-18.82875],[-44.1348,-18.83303],[-44.13119,-18.83375],[-44.12956,-18.83351],[-44.12733,-18.83228],[-44.1236,-18.82953],[-44.12079,-18.82882],[-44.1187,-18.83011],[-44.11662,-18.83236],[-44.10914,-18.83711],[-44.10871,-18.83814],[-44.10955,-18.84481],[-44.1122,-18.84772],[-44.11362,-18.84825],[-44.11977,-18.8454],[-44.12293,-18.84578],[-44.12466,-18.8455],[-44.12738,-18.84262],[-44.12841,-18.84222],[-44.13494,-18.84136],[-44.1374,-18.84194],[-44.13817,-18.84268],[-44.13845,-18.84376],[-44.13826,-18.84572],[-44.13621,-18.85093],[-44.13692,-18.85531],[-44.13668,-18.85638],[-44.13583,-18.85713],[-44.12848,-18.85721],[-44.12599,-18.85806],[-44.12433,-18.8582],[-44.11446,-18.85654],[-44.11301,-18.85575],[-44.10853,-18.8506],[-44.10606,-18.84944],[-44.10462,-18.84987],[-44.1039,-18.85109],[-44.10231,-18.85629],[-44.10223,-18.85859],[-44.10343,-18.86079],[-44.1051,-18.86229],[-44.10699,-18.86326],[-44.10994,-18.86403],[-44.11294,-18.8643],[-44.11682,-18.8636],[-44.121,-18.86091],[-44.12206,-18.86097],[-44.12468,-18.86215],[-44.12499,-18.8635],[-44.12442,-18.86476],[-44.11906,-18.86653],[-44.11618,-18.86847],[-44.1153,-18.86976],[-44.11523,-18.87068],[-44.11661,-18.87143],[-44.11898,-18.87063],[-44.12063,-18.8708],[-44.12599,-18.87395],[-44.13257,-18.8796],[-44.13383,-18.8815],[-44.13361,-18.88625],[-44.13456,-18.88904],[-44.13633,-18.89012],[-44.13886,-18.88971],[-44.13926,-18.89009],[-44.13942,-18.89068],[-44.13851,-18.89446],[-44.13487,-18.89492],[-44.13253,-18.89567],[-44.1302,-18.89557],[-44.12745,-18.89348],[-44.12543,-18.89052],[-44.12389,-18.88989],[-44.12034,-18.89097],[-44.11691,-18.8944],[-44.11408,-18.89607],[-44.11188,-18.89617],[-44.10663,-18.89361],[-44.10118,-18.89267],[-44.09694,-18.89299],[-44.0949,-18.89383],[-44.09294,-18.89526],[-44.09229,-18.89627],[-44.09244,-18.89723],[-44.09375,-18.89904],[-44.09645,-18.90129],[-44.10049,-18.90312],[-44.10605,-18.90385],[-44.11319,-18.90728],[-44.11409,-18.90818],[-44.11479,-18.90977],[-44.11524,-18.91443],[-44.1143,-18.91867],[-44.11298,-18.91986],[-44.11189,-18.92009],[-44.11101,-18.91972],[-44.10701,-18.91423],[-44.10448,-18.91202],[-44.10294,-18.91146],[-44.10185,-18.91165],[-44.09942,-18.91298],[-44.09714,-18.91603],[-44.09621,-18.9164],[-44.09342,-18.91615],[-44.08934,-18.91644],[-44.08572,-18.91426],[-44.08394,-18.91219],[-44.08196,-18.91136],[-44.08085,-18.91146],[-44.07549,-18.91379],[-44.07413,-18.91511],[-44.07513,-18.91702],[-44.08724,-18.92603],[-44.08823,-18.9258],[-44.09064,-18.92378],[-44.09763,-18.92127],[-44.09935,-18.9198],[-44.10035,-18.91984],[-44.10128,-18.92104],[-44.10152,-18.92354],[-44.10108,-18.92599],[-44.0992,-18.92977],[-44.09863,-18.93239],[-44.09875,-18.934],[-44.09948,-18.93527],[-44.10093,-18.93514],[-44.10684,-18.93602],[-44.10959,-18.93749],[-44.11303,-18.93867],[-44.11481,-18.93986],[-44.11723,-18.94058],[-44.11793,-18.94128],[-44.11863,-18.94317],[-44.1205,-18.94554],[-44.12417,-18.94618],[-44.12532,-18.94774],[-44.12579,-18.94787],[-44.12665,-18.94681],[-44.12804,-18.94716],[-44.12802,-18.94576],[-44.12843,-18.94552],[-44.13089,-18.94626],[-44.13135,-18.94765],[-44.13216,-18.94804],[-44.1341,-18.94758],[-44.13567,-18.94657],[-44.1359,-18.94698],[-44.13537,-18.94877],[-44.13614,-18.95121],[-44.13703,-18.95171],[-44.1394,-18.95177],[-44.1394,-18.95092],[-44.14079,-18.9495],[-44.14176,-18.95046],[-44.14236,-18.94955],[-44.14421,-18.94892],[-44.14646,-18.9508],[-44.14644,-18.95423],[-44.14888,-18.9547],[-44.15016,-18.95538],[-44.15059,-18.95617],[-44.15237,-18.95578],[-44.15225,-18.95663],[-44.15385,-18.9576],[-44.15527,-18.95743],[-44.15506,-18.95608],[-44.15651,-18.95574],[-44.15742,-18.9547],[-44.15705,-18.9528],[-44.15761,-18.95143],[-44.15928,-18.95048],[-44.16016,-18.95074],[-44.16218,-18.9502],[-44.16355,-18.95067],[-44.16535,-18.95035],[-44.16621,-18.95067],[-44.16681,-18.94992],[-44.16752,-18.95073],[-44.16846,-18.95089],[-44.169,-18.95009],[-44.16994,-18.94995],[-44.1709,-18.95075],[-44.17193,-18.94939],[-44.17344,-18.95046],[-44.17392,-18.95035],[-44.17523,-18.94983],[-44.17516,-18.94891],[-44.17615,-18.94737],[-44.17754,-18.94747],[-44.17797,-18.94831],[-44.17906,-18.94667],[-44.17982,-18.94628],[-44.17994,-18.94536],[-44.18072,-18.94476],[-44.18158,-18.94504],[-44.18302,-18.94484],[-44.18479,-18.94562],[-44.18676,-18.94596],[-44.18881,-18.94722],[-44.19027,-18.94913],[-44.19033,-18.95056],[-44.18995,-18.95147],[-44.19055,-18.95293],[-44.19058,-18.95479],[-44.19497,-18.95838],[-44.1975,-18.95831],[-44.19851,-18.95882],[-44.20104,-18.9591],[-44.20456,-18.96202],[-44.20716,-18.96248],[-44.20911,-18.96111],[-44.21103,-18.96141],[-44.21256,-18.96084],[-44.21419,-18.95709],[-44.21589,-18.95575],[-44.21716,-18.95185],[-44.21887,-18.95084],[-44.22098,-18.95106],[-44.22227,-18.9519],[-44.22272,-18.95269],[-44.22449,-18.95849],[-44.22623,-18.96155],[-44.22558,-18.96427],[-44.22583,-18.96511],[-44.23211,-18.96326],[-44.23429,-18.96486],[-44.2354,-18.96647],[-44.23737,-18.96745],[-44.23841,-18.96745],[-44.24141,-18.96575],[-44.2449,-18.96856],[-44.24853,-18.96773],[-44.24948,-18.96784],[-44.25025,-18.96846],[-44.25077,-18.96974],[-44.25043,-18.97207],[-44.25149,-18.9737],[-44.25431,-18.97634],[-44.26225,-18.98124],[-44.26459,-18.98355],[-44.26525,-18.98634],[-44.26482,-18.9906],[-44.2652,-18.99351],[-44.26658,-18.99586],[-44.26898,-18.99757],[-44.27103,-19.00039],[-44.2712,-19.00177],[-44.2706,-19.00445],[-44.2706,-19.00633],[-44.27098,-19.00821],[-44.27298,-19.01225],[-44.27467,-19.01395],[-44.27564,-19.01428],[-44.28345,-19.01405],[-44.28755,-19.01745],[-44.29522,-19.02229],[-44.29891,-19.02342],[-44.30651,-19.0278],[-44.31134,-19.03283],[-44.3173,-19.04155],[-44.32113,-19.04541],[-44.33021,-19.05192],[-44.3338,-19.05573],[-44.33653,-19.06032],[-44.33689,-19.06322],[-44.33952,-19.06572],[-44.3408,-19.06891],[-44.34304,-19.0718],[-44.34531,-19.07288],[-44.34681,-19.07297],[-44.34922,-19.07171],[-44.35086,-19.07003],[-44.35398,-19.0695],[-44.36122,-19.07136],[-44.36476,-19.07283],[-44.36631,-19.07265],[-44.37157,-19.07318],[-44.37551,-19.07604],[-44.37613,-19.07685],[-44.37688,-19.0791],[-44.37642,-19.0818],[-44.37669,-19.0832],[-44.3807,-19.08651],[-44.38173,-19.08818],[-44.38186,-19.08917],[-44.38067,-19.09273],[-44.38075,-19.09374],[-44.38287,-19.09534],[-44.38372,-19.09658],[-44.3842,-19.10103],[-44.38478,-19.10298],[-44.38941,-19.10571],[-44.39212,-19.10851],[-44.39239,-19.11485],[-44.39309,-19.1162],[-44.3956,-19.11776],[-44.40137,-19.11872],[-44.40446,-19.1218],[-44.40738,-19.12655],[-44.40914,-19.12857],[-44.40934,-19.12997],[-44.41895,-19.13159],[-44.42211,-19.13292],[-44.43279,-19.14306],[-44.43559,-19.14476],[-44.43718,-19.14483],[-44.43938,-19.14414],[-44.44295,-19.142],[-44.4479,-19.14007],[-44.44954,-19.14023],[-44.45037,-19.14078],[-44.45189,-19.14381],[-44.45324,-19.15035],[-44.45586,-19.15574],[-44.45559,-19.15829],[-44.45654,-19.16396],[-44.45924,-19.1682],[-44.46004,-19.16877],[-44.46093,-19.16909],[-44.46337,-19.16838],[-44.46762,-19.16627],[-44.47161,-19.16558],[-44.47653,-19.16764],[-44.47755,-19.16674],[-44.47895,-19.16679],[-44.48028,-19.16534],[-44.48085,-19.16355],[-44.48254,-19.16321],[-44.48508,-19.16091],[-44.48616,-19.16052],[-44.48754,-19.16072],[-44.4894,-19.16136],[-44.49013,-19.16205],[-44.49109,-19.16212],[-44.49363,-19.15994],[-44.49592,-19.15911],[-44.49838,-19.15936],[-44.50277,-19.16273],[-44.50473,-19.16264],[-44.50649,-19.16194],[-44.50865,-19.16198],[-44.5141,-19.16331],[-44.51629,-19.1624],[-44.51624,-19.16304],[-44.51715,-19.16417],[-44.51796,-19.16436],[-44.51976,-19.16365],[-44.52092,-19.16385],[-44.52196,-19.16318],[-44.52286,-19.16352]],[[-44.15452,-18.80523],[-44.15451,-18.80471],[-44.15456,-18.80475],[-44.15452,-18.80523]],[[-44.24536,-18.44714],[-44.24563,-18.44734],[-44.24468,-18.44665],[-44.24536,-18.44714]],[[-44.30595,-18.46081],[-44.30472,-18.46072],[-44.30628,-18.46083],[-44.30595,-18.46081]],[[-44.30895,-18.91711],[-44.30906,-18.91764],[-44.30895,-18.91719],[-44.30895,-18.91711]],[[-44.31129,-18.8879],[-44.31129,-18.8888],[-44.31118,-18.88836],[-44.31129,-18.8879]],[[-44.31445,-18.89863],[-44.31516,-18.90074],[-44.31458,-18.89939],[-44.31445,-18.89863]],[[-44.31693,-18.43852],[-44.31903,-18.4408],[-44.31802,-18.4398],[-44.31693,-18.43852]],[[-44.32382,-18.43532],[-44.32307,-18.43573],[-44.32369,-18.43528],[-44.32382,-18.43532]],[[-44.32426,-18.43551],[-44.32395,-18.43535],[-44.32401,-18.43537],[-44.32426,-18.43551]],[[-44.32862,-18.44463],[-44.32999,-18.44525],[-44.32894,-18.44486],[-44.32862,-18.44463]],[[-44.34271,-18.44598],[-44.3445,-18.44328],[-44.34308,-18.44558],[-44.34271,-18.44598]],[[-44.34271,-18.44598],[-44.34213,-18.44615],[-44.34183,-18.44615],[-44.34271,-18.44598]],[[-44.36691,-18.43556],[-44.35644,-18.43764],[-44.36713,-18.43549],[-44.36691,-18.43556]],[[-44.36367,-18.98159],[-44.36336,-18.97999],[-44.36336,-18.97975],[-44.36367,-18.98159]],[[-44.36804,-18.43519],[-44.36852,-18.43492],[-44.3683,-18.43511],[-44.36804,-18.43519]],[[-44.36938,-18.4342],[-44.37444,-18.42562],[-44.36991,-18.43339],[-44.36938,-18.4342]],[[-44.37933,-18.96188],[-44.3791,-18.96188],[-44.37876,-18.96168],[-44.37933,-18.96188]],[[-44.38278,-18.50959],[-44.37979,-18.49546],[-44.38258,-18.50823],[-44.38278,-18.50959]],[[-44.38085,-18.96167],[-44.38,-18.9619],[-44.3798,-18.96189],[-44.38085,-18.96167]],[[-44.39505,-18.9251],[-44.39539,-18.925],[-44.39497,-18.92523],[-44.39505,-18.9251]],[[-44.40057,-19.11544],[-44.40064,-19.11523],[-44.40086,-19.11502],[-44.40057,-19.11544]],[[-44.4011,-19.11477],[-44.40129,-19.11457],[-44.40219,-19.11402],[-44.4011,-19.11477]],[[-44.42435,-18.71318],[-44.42449,-18.71312],[-44.425,-18.71397],[-44.4244,-18.71316],[-44.41015,-18.73648],[-44.42435,-18.71318]],[[-44.41192,-18.78172],[-44.41212,-18.78184],[-44.4119,-18.78177],[-44.41192,-18.78172]],[[-44.412,-18.78157],[-44.41196,-18.7816],[-44.41199,-18.78153],[-44.412,-18.78157]],[[-44.41215,-18.78104],[-44.41203,-18.78102],[-44.41283,-18.77999],[-44.41215,-18.78104]],[[-44.41479,-18.77555],[-44.41459,-18.77576],[-44.41305,-18.77598],[-44.41479,-18.77555]],[[-44.41448,-18.77613],[-44.41437,-18.77618],[-44.41457,-18.77584],[-44.41448,-18.77613]],[[-44.41592,-18.74864],[-44.41606,-18.74897],[-44.41492,-18.74761],[-44.41592,-18.74864]],[[-44.41494,-18.77547],[-44.41495,-18.77538],[-44.41498,-18.77545],[-44.41494,-18.77547]],[[-44.41556,-18.77337],[-44.41511,-18.77434],[-44.4152,-18.77394],[-44.41556,-18.77337]],[[-44.41536,-18.75835],[-44.41552,-18.75888],[-44.41525,-18.75838],[-44.41536,-18.75835]],[[-44.41547,-18.75972],[-44.41554,-18.75989],[-44.41547,-18.75973],[-44.41547,-18.75972]],[[-44.41564,-18.75924],[-44.41553,-18.75943],[-44.4156,-18.75912],[-44.41564,-18.75924]],[[-44.41587,-18.76533],[-44.41677,-18.76576],[-44.41579,-18.76535],[-44.41587,-18.76533]],[[-44.41593,-18.77377],[-44.41584,-18.77338],[-44.41609,-18.77381],[-44.41593,-18.77377]],[[-44.41626,-18.77385],[-44.41617,-18.77383],[-44.41737,-18.77308],[-44.41626,-18.77385]],[[-44.41818,-18.7676],[-44.41691,-18.7676],[-44.41903,-18.76718],[-44.41818,-18.7676]],[[-44.41695,-18.76789],[-44.41693,-18.76788],[-44.41692,-18.76776],[-44.41695,-18.76789]],[[-44.41733,-18.75802],[-44.41805,-18.75795],[-44.41701,-18.75823],[-44.41733,-18.75802]],[[-44.4172,-18.757],[-44.41748,-18.75753],[-44.41705,-18.75695],[-44.4172,-18.757]],[[-44.41726,-18.76988],[-44.41719,-18.76981],[-44.41718,-18.76878],[-44.41726,-18.76988]],[[-44.41743,-18.76998],[-44.41739,-18.77001],[-44.41734,-18.76996],[-44.41743,-18.76998]],[[-44.41843,-18.77302],[-44.41811,-18.77331],[-44.41787,-18.77341],[-44.41843,-18.77302]],[[-44.41812,-18.75154],[-44.41808,-18.75228],[-44.41807,-18.75168],[-44.41812,-18.75154]],[[-44.41808,-18.75232],[-44.42123,-18.75493],[-44.41808,-18.75236],[-44.41808,-18.75232]],[[-44.41808,-18.75258],[-44.4183,-18.75367],[-44.41808,-18.75304],[-44.41808,-18.75258]],[[-44.41971,-18.74811],[-44.4193,-18.74928],[-44.4182,-18.75133],[-44.4184,-18.75079],[-44.41971,-18.74811]],[[-44.42127,-18.7613],[-44.41926,-18.75639],[-44.41899,-18.75563],[-44.42127,-18.7613]],[[-44.42003,-18.77203],[-44.41997,-18.77218],[-44.41934,-18.77256],[-44.42003,-18.77203]],[[-44.41957,-18.74992],[-44.41948,-18.74996],[-44.41943,-18.74959],[-44.41957,-18.74992]],[[-44.42005,-18.77185],[-44.42004,-18.77196],[-44.41972,-18.77174],[-44.42005,-18.77185]],[[-44.42024,-18.77245],[-44.42008,-18.7724],[-44.42007,-18.77238],[-44.42024,-18.77245]],[[-44.42041,-18.74742],[-44.42205,-18.74758],[-44.4203,-18.7475],[-44.42041,-18.74742]],[[-44.421,-18.77278],[-44.42087,-18.77373],[-44.42095,-18.77276],[-44.421,-18.77278]],[[-44.42298,-18.74612],[-44.42208,-18.74601],[-44.42302,-18.74607],[-44.42298,-18.74612]],[[-44.42298,-18.76469],[-44.4225,-18.76407],[-44.42217,-18.76334],[-44.42298,-18.76469]],[[-44.42272,-18.75111],[-44.42255,-18.74982],[-44.42253,-18.74878],[-44.42272,-18.75111]],[[-44.42413,-18.74527],[-44.42378,-18.7453],[-44.42412,-18.74524],[-44.42413,-18.74527]],[[-44.42428,-18.7664],[-44.42387,-18.76586],[-44.42494,-18.76689],[-44.42428,-18.7664]],[[-44.42429,-18.77566],[-44.4239,-18.77602],[-44.42427,-18.7756],[-44.42429,-18.77566]],[[-44.42403,-18.74497],[-44.42493,-18.74155],[-44.42418,-18.74488],[-44.42403,-18.74497]],[[-44.42421,-18.7754],[-44.42404,-18.77507],[-44.42409,-18.77499],[-44.42421,-18.7754]],[[-44.42416,-18.77489],[-44.42431,-18.77466],[-44.42465,-18.77455],[-44.42416,-18.77489]],[[-44.42496,-18.78767],[-44.42442,-18.78937],[-44.42512,-18.78714],[-44.42496,-18.78767]],[[-44.42613,-18.77764],[-44.42609,-18.77767],[-44.42565,-18.77722],[-44.42613,-18.77764]],[[-44.42613,-18.71533],[-44.42627,-18.71571],[-44.42579,-18.71506],[-44.42613,-18.71533]],[[-44.42642,-18.65362],[-44.42594,-18.65352],[-44.42669,-18.65353],[-44.42642,-18.65362]],[[-44.4266,-18.76813],[-44.42611,-18.76776],[-44.42919,-18.76985],[-44.4266,-18.76813]],[[-44.42788,-18.7336],[-44.42699,-18.73369],[-44.42775,-18.73355],[-44.42788,-18.7336]],[[-44.42947,-18.76137],[-44.43005,-18.76975],[-44.42997,-18.76953],[-44.42947,-18.76137]],[[-44.43014,-18.77],[-44.43041,-18.77047],[-44.43025,-18.7703],[-44.43014,-18.77]],[[-44.43073,-18.64912],[-44.43029,-18.64869],[-44.43117,-18.64927],[-44.43073,-18.64912]],[[-44.43229,-18.73791],[-44.4306,-18.73735],[-44.43124,-18.73741],[-44.43229,-18.73791]],[[-44.43085,-18.771],[-44.43123,-18.77123],[-44.43608,-18.77449],[-44.43085,-18.771]],[[-44.43093,-18.77879],[-44.43133,-18.77881],[-44.43158,-18.77897],[-44.43093,-18.77879]],[[-44.43172,-18.74402],[-44.43184,-18.74411],[-44.43098,-18.74515],[-44.43172,-18.74402]],[[-44.43395,-18.76636],[-44.43173,-18.76828],[-44.43238,-18.76872],[-44.43174,-18.76829],[-44.43106,-18.76946],[-44.43174,-18.76815],[-44.43395,-18.76636]],[[-44.43174,-18.77907],[-44.43184,-18.77913],[-44.43176,-18.77948],[-44.43174,-18.77907]],[[-44.43283,-18.73977],[-44.43208,-18.73994],[-44.43259,-18.73976],[-44.43283,-18.73977]],[[-44.4327,-18.74034],[-44.4327,-18.74019],[-44.43302,-18.74106],[-44.4327,-18.74034]],[[-44.43273,-18.76446],[-44.43977,-18.75136],[-44.43563,-18.75913],[-44.43273,-18.76446]],[[-44.43343,-18.73155],[-44.43374,-18.73151],[-44.43373,-18.73153],[-44.43343,-18.73155]],[[-44.43459,-18.75016],[-44.43404,-18.74976],[-44.43464,-18.75017],[-44.43459,-18.75016]],[[-44.43685,-18.73744],[-44.43624,-18.73836],[-44.43592,-18.73872],[-44.43685,-18.73744]],[[-44.43592,-18.73872],[-44.43497,-18.73911],[-44.43424,-18.7393],[-44.43592,-18.73872]],[[-44.43444,-18.78623],[-44.43455,-18.78631],[-44.43444,-18.78636],[-44.43444,-18.78623]],[[-44.43671,-18.72415],[-44.43508,-18.72729],[-44.43753,-18.72212],[-44.43671,-18.72415]],[[-44.43519,-18.77477],[-44.43609,-18.77449],[-44.43585,-18.77458],[-44.43519,-18.77477]],[[-44.43613,-18.75046],[-44.4356,-18.75036],[-44.43618,-18.75044],[-44.43613,-18.75046]],[[-44.43877,-18.73185],[-44.43849,-18.73221],[-44.43672,-18.73344],[-44.43877,-18.73185]],[[-44.43834,-18.74875],[-44.43857,-18.74851],[-44.43761,-18.74985],[-44.43824,-18.74892],[-44.43823,-18.74813],[-44.43834,-18.74875]],[[-44.43819,-18.74788],[-44.4382,-18.74796],[-44.43781,-18.74792],[-44.43819,-18.74788]],[[-44.43846,-18.74507],[-44.43901,-18.74473],[-44.43957,-18.74465],[-44.43846,-18.74507]],[[-44.44022,-18.74901],[-44.441,-18.74984],[-44.43925,-18.7485],[-44.44022,-18.74901]],[[-44.43992,-18.77204],[-44.43995,-18.77208],[-44.44001,-18.77218],[-44.43992,-18.77204]],[[-44.44015,-18.77189],[-44.44037,-18.77227],[-44.44012,-18.77192],[-44.44015,-18.77189]],[[-44.44099,-18.72944],[-44.44094,-18.7291],[-44.4405,-18.73131],[-44.4412,-18.72776],[-44.44099,-18.72944]],[[-44.44087,-18.70619],[-44.44236,-18.70969],[-44.44245,-18.71001],[-44.44087,-18.70619]],[[-44.44238,-18.77605],[-44.44108,-18.77785],[-44.44224,-18.77624],[-44.44238,-18.77605]],[[-44.44194,-18.72202],[-44.44146,-18.72578],[-44.44184,-18.72202],[-44.44194,-18.72202]],[[-44.44276,-18.74012],[-44.44275,-18.74019],[-44.44247,-18.73993],[-44.44276,-18.74012]],[[-44.44247,-18.73993],[-44.44259,-18.73956],[-44.44265,-18.73947],[-44.44247,-18.73993]],[[-44.442580410738735,-18.76632999464254],[-44.44258,-18.76632],[-44.44488,-18.7663],[-44.442580410738735,-18.76632999464254]],[[-44.44268,-18.71082],[-44.44282,-18.71134],[-44.44279,-18.71171],[-44.44268,-18.71082]],[[-44.44274,-18.74038],[-44.44272,-18.74038],[-44.44274,-18.74031],[-44.44274,-18.74038]],[[-44.44285,-18.73914],[-44.44289,-18.73908],[-44.44381,-18.73904],[-44.44285,-18.73914]],[[-44.44292,-18.75264],[-44.44307,-18.75434],[-44.44297,-18.75427],[-44.44292,-18.75264]],[[-44.44327,-18.75446],[-44.44351,-18.75452],[-44.44351,-18.75461],[-44.44327,-18.75446]],[[-44.44327,-18.77114],[-44.44331,-18.77106],[-44.44328,-18.77125],[-44.44327,-18.77114]],[[-44.44353,-18.75592],[-44.44342,-18.7554],[-44.44373,-18.75612],[-44.44353,-18.75592]],[[-44.44508,-18.75708],[-44.44429,-18.75671],[-44.44405,-18.75645],[-44.44508,-18.75708]],[[-44.44571,-18.75804],[-44.44531,-18.75736],[-44.44573,-18.75786],[-44.44571,-18.75804]],[[-44.446,-18.75945],[-44.44603,-18.75948],[-44.44586,-18.76079],[-44.446,-18.75945]],[[-44.44761,-18.76852],[-44.44746,-18.76839],[-44.44708,-18.76736],[-44.44761,-18.76852]],[[-44.44708,-18.76736],[-44.44703,-18.76738],[-44.44718,-18.76721],[-44.44708,-18.76736]],[[-44.4474,-18.76554],[-44.44755,-18.76664],[-44.44749,-18.76674],[-44.4474,-18.76554]],[[-44.44945,-19.04785],[-44.44944,-19.04766],[-44.44954,-19.04738],[-44.44945,-19.04785]],[[-44.44965,-19.04709],[-44.44978,-19.04674],[-44.4502,-19.04638],[-44.44965,-19.04709]],[[-44.45464,-18.77068],[-44.46054,-18.78664],[-44.45546,-18.77294],[-44.45464,-18.77068]],[[-44.46662,-19.10794],[-44.46678,-19.10768],[-44.46712,-19.10741],[-44.46662,-19.10794]],[[-44.5201,-18.96576],[-44.52042,-18.96553],[-44.519,-18.96703],[-44.5201,-18.96576]],[[-44.52117,-19.0124],[-44.52013,-19.01226],[-44.52021,-19.01226],[-44.52117,-19.0124]],[[-44.52342,-18.96398],[-44.52454,-18.96395],[-44.52292,-18.96416],[-44.52342,-18.96398]],[[-44.52545,-19.04665],[-44.52545,-19.04626],[-44.52609,-19.04469],[-44.52545,-19.04665]],[[-44.52811,-19.05568],[-44.52826,-19.05605],[-44.5259,-19.05179],[-44.52811,-19.05568]],[[-44.52688,-19.01384],[-44.52631,-19.01366],[-44.52648,-19.01368],[-44.52688,-19.01384]],[[-44.52803,-19.04129],[-44.52631,-19.04413],[-44.52812,-19.04095],[-44.52803,-19.04129]],[[-44.52754,-19.01411],[-44.53013,-19.01593],[-44.52706,-19.01391],[-44.52754,-19.01411]],[[-44.52855,-19.03809],[-44.52843,-19.03595],[-44.52846,-19.03559],[-44.52855,-19.03809]],[[-44.52855,-19.03809],[-44.52839,-19.03988],[-44.52821,-19.04058],[-44.52855,-19.03809]],[[-44.53137,-19.06473],[-44.53119,-19.06431],[-44.52864,-19.05696],[-44.52934,-19.05868],[-44.53137,-19.06473]],[[-44.53538,-19.14858],[-44.53503,-19.14907],[-44.53098,-19.15391],[-44.53538,-19.14858]],[[-44.53538,-19.14858],[-44.53515,-19.14873],[-44.53512,-19.14869],[-44.53538,-19.14858]],[[-44.53383,-19.07159],[-44.53387,-19.07167],[-44.53388,-19.07176],[-44.53383,-19.07159]],[[-44.53406,-19.07349],[-44.53425,-19.07531],[-44.53408,-19.07478],[-44.53406,-19.07349]],[[-44.53504,-19.14859],[-44.5351,-19.14852],[-44.53509,-19.14865],[-44.53504,-19.14859]],[[-44.54239,-19.0823],[-44.54262,-19.08249],[-44.54374,-19.0843],[-44.54239,-19.0823]],[[-44.54472,-19.08588],[-44.5448,-19.08603],[-44.54488,-19.08634],[-44.54472,-19.08588]],[[-44.5537,-19.09983],[-44.55402,-19.10018],[-44.55441,-19.10097],[-44.5537,-19.09983]],[[-44.55796,-19.11358],[-44.55788,-19.11337],[-44.55951,-19.11528],[-44.55796,-19.11358]],[[-44.56852,-19.18388],[-44.56809,-19.18404],[-44.56792,-19.18405],[-44.56852,-19.18388]],[[-44.57245,-19.18207],[-44.57015,-19.18328],[-44.56964,-19.18347],[-44.57245,-19.18207]],[[-44.57396,-18.94053],[-44.57357,-18.93839],[-44.5743,-18.94147],[-44.57396,-18.94053]],[[-44.59405,-18.92932],[-44.59413,-18.92935],[-44.59033,-18.92804],[-44.59405,-18.92932]],[[-44.59619,-18.92996],[-44.59734,-18.93011],[-44.59659,-18.93008],[-44.59619,-18.92996]],[[-44.59812,-18.93013],[-44.60039,-18.92989],[-44.59887,-18.93016],[-44.59812,-18.93013]],[[-44.63639,-18.93983],[-44.63208,-18.93662],[-44.63229,-18.93674],[-44.63639,-18.93983]],[[-44.63639,-18.93983],[-44.63973,-18.94068],[-44.6369,-18.94001],[-44.63639,-18.93983]],[[-44.64693,-19.1486],[-44.64705,-19.14867],[-44.6437,-19.14784],[-44.64693,-19.1486]],[[-44.64924,-18.94233],[-44.64975,-18.94234],[-44.64952,-18.94238],[-44.64924,-18.94233]],[[-44.65444,-19.02703],[-44.65124,-19.03205],[-44.65283,-19.02955],[-44.65444,-19.02703]],[[-44.65257,-18.93924],[-44.6527,-18.93849],[-44.65261,-18.93913],[-44.65257,-18.93924]],[[-44.65364,-18.93136],[-44.65377,-18.93092],[-44.65361,-18.93167],[-44.65364,-18.93136]],[[-44.65443,-19.1502],[-44.65453,-19.15007],[-44.65445,-19.1512],[-44.65443,-19.1502]],[[-44.65533,-19.14797],[-44.65536,-19.14793],[-44.6553,-19.14808],[-44.65533,-19.14797]],[[-44.65643,-18.92676],[-44.66119,-18.92231],[-44.6561,-18.92714],[-44.65643,-18.92676]],[[-44.66111,-18.99846],[-44.66101,-18.99884],[-44.66072,-18.99929],[-44.66111,-18.99846]],[[-44.66262,-18.98702],[-44.66294,-18.98642],[-44.66216,-18.98864],[-44.66262,-18.98702]],[[-44.66216,-18.98864],[-44.66146,-18.99708],[-44.66138,-18.99742],[-44.66216,-18.98864]],[[-44.66213,-18.92143],[-44.66434,-18.91962],[-44.66189,-18.92165],[-44.66213,-18.92143]],[[-44.67959,-18.9618],[-44.6636,-18.98521],[-44.66375,-18.98494],[-44.67959,-18.9618]],[[-44.67782,-18.90858],[-44.6783,-18.90865],[-44.67726,-18.90859],[-44.67782,-18.90858]],[[-44.68369,-18.91532],[-44.6837,-18.91532],[-44.68321,-18.91557],[-44.68369,-18.91532]],[[-44.6836,-18.91601],[-44.68369,-18.92282],[-44.68357,-18.91615],[-44.6836,-18.91601]],[[-44.6839,-18.91543],[-44.68369,-18.91541],[-44.68371,-18.91532],[-44.6839,-18.91543]],[[-44.716,-18.90575],[-44.71576,-18.9059],[-44.71493,-18.90595],[-44.716,-18.90575]],[[-44.75615,-18.88037],[-44.7552,-18.88059],[-44.75424,-18.88057],[-44.75615,-18.88037]],[[-44.76015,-18.87455],[-44.75906,-18.87395],[-44.75934,-18.87403],[-44.76015,-18.87455]],[[-44.7662,-18.87434],[-44.76597,-18.8744],[-44.7658,-18.87435],[-44.7662,-18.87434]]]}}]}