{"type":"FeatureCollection","features":[{"type":"Feature","properties":{"municipio":"CONSELHEIRO LAFAIETE"},"geometry":{"type":"Polygon","coordinates":[[[-43.80254,-20.74538],[-43.80282,-20.74155],[-43.80257,-20.74145],[-43.80377,-20.7394],[-43.80606,-20.73713],[-43.80851,-20.73719],[-43.80936,-20.73674],[-43.81084,-20.73502],[-43.81443,-20.73623],[-43.8172,-20.73461],[-43.82197,-20.73512],[-43.82198,-20.73475],[-43.82413,-20.73425],[-43.82656,-20.73308],[-43.82982,-20.72987],[-43.83039,-20.7279],[-43.83242,-20.72629],[-43.83244,-20.72556],[-43.83154,-20.72394],[-43.83164,-20.72282],[-43.83575,-20.72072],[-43.83797,-20.72081],[-43.8387,-20.72051],[-43.84139,-20.71514],[-43.84323,-20.71332],[-43.84376,-20.7116],[-43.84705,-20.70926],[-43.84779,-20.70953],[-43.84811,-20.71021],[-43.84812,-20.71321],[-43.84866,-20.71398],[-43.84947,-20.71339],[-43.85008,-20.71073],[-43.85557,-20.70845],[-43.85655,-20.70638],[-43.85659,-20.70492],[-43.85491,-20.70294],[-43.85263,-20.70153],[-43.85292,-20.69911],[-43.85641,-20.6954],[-43.86016,-20.6943],[-43.86343,-20.6895],[-43.86634,-20.68979],[-43.86903,-20.69103],[-43.87176,-20.68939],[-43.87211,-20.68847],[-43.87135,-20.68695],[-43.8735,-20.68455],[-43.87311,-20.68129],[-43.87366,-20.68052],[-43.87492,-20.68024],[-43.87521,-20.67633],[-43.87602,-20.67532],[-43.87827,-20.67468],[-43.8786,-20.67324],[-43.87937,-20.67228],[-43.88033,-20.67174],[-43.88249,-20.67247],[-43.88518,-20.67212],[-43.88915,-20.66731],[-43.89069,-20.66629],[-43.89403,-20.6653],[-43.89568,-20.66526],[-43.89673,-20.66675],[-43.89931,-20.66592],[-43.90076,-20.66603],[-43.90188,-20.66678],[-43.90272,-20.66667],[-43.90383,-20.66488],[-43.9074,-20.66192],[-43.90892,-20.65983],[-43.9111,-20.66219],[-43.91276,-20.66333],[-43.91356,-20.66459],[-43.91509,-20.66493],[-43.91646,-20.66318],[-43.91673,-20.65968],[-43.91775,-20.65836],[-43.91931,-20.65816],[-43.92392,-20.65883],[-43.92369,-20.65843],[-43.92419,-20.65791],[-43.92424,-20.65722],[-43.92317,-20.65549],[-43.92409,-20.65535],[-43.92236,-20.65484],[-43.92222,-20.65416],[-43.92297,-20.65234],[-43.92374,-20.65252],[-43.92391,-20.65133],[-43.92646,-20.65068],[-43.92408,-20.64853],[-43.92401,-20.64751],[-43.92336,-20.64637],[-43.92338,-20.64432],[-43.92528,-20.64423],[-43.92605,-20.64294],[-43.92674,-20.64255],[-43.92992,-20.64201],[-43.92989,-20.63953],[-43.92868,-20.6382],[-43.92756,-20.63787],[-43.92894,-20.63621],[-43.92773,-20.6355],[-43.92777,-20.63439],[-43.92646,-20.63197],[-43.92623,-20.63004],[-43.92501,-20.62994],[-43.92396,-20.62791],[-43.92254,-20.62793],[-43.92062,-20.62732],[-43.91979,-20.62626],[-43.91966,-20.62526],[-43.91873,-20.62541],[-43.91799,-20.62477],[-43.91655,-20.6246],[-43.91698,-20.62363],[-43.91595,-20.62351],[-43.91594,-20.62272],[-43.91469,-20.62247],[-43.91511,-20.61872],[-43.91405,-20.61742],[-43.9128,-20.61707],[-43.91086,-20.61392],[-43.90973,-20.6133],[-43.90856,-20.61325],[-43.90834,-20.61263],[-43.90906,-20.61083],[-43.90858,-20.60969],[-43.90773,-20.60999],[-43.90737,-20.60974],[-43.90764,-20.6086],[-43.90681,-20.6077],[-43.90709,-20.60697],[-43.90684,-20.60622],[-43.9075,-20.60564],[-43.90624,-20.6047],[-43.90781,-20.60364],[-43.90852,-20.60472],[-43.90954,-20.60364],[-43.90895,-20.60216],[-43.90702,-20.5995],[-43.90382,-20.59796],[-43.90426,-20.5949],[-43.90344,-20.5934],[-43.89932,-20.59409],[-43.89716,-20.59518],[-43.89622,-20.59632],[-43.89583,-20.59806],[-43.89332,-20.60006],[-43.89156,-20.59969],[-43.89024,-20.59836],[-43.8888,-20.59829],[-43.88722,-20.60034],[-43.88677,-20.60327],[-43.8857,-20.60577],[-43.88411,-20.60786],[-43.88323,-20.61104],[-43.87959,-20.61327],[-43.87863,-20.6144],[-43.8772,-20.61523],[-43.87442,-20.61565],[-43.87407,-20.61775],[-43.87265,-20.6185],[-43.86813,-20.61789],[-43.86687,-20.61722],[-43.86556,-20.61577],[-43.8642,-20.61512],[-43.8614,-20.61541],[-43.85883,-20.61518],[-43.85703,-20.6137],[-43.85497,-20.61303],[-43.85409,-20.61161],[-43.85385,-20.60807],[-43.85158,-20.60612],[-43.85078,-20.60383],[-43.84675,-20.60251],[-43.84509,-20.60125],[-43.84064,-20.6011],[-43.83892,-20.60186],[-43.83684,-20.6018],[-43.83494,-20.60483],[-43.8332,-20.60495],[-43.83119,-20.60404],[-43.8293,-20.60272],[-43.82489,-20.59729],[-43.82228,-20.59227],[-43.82158,-20.59239],[-43.82103,-20.59416],[-43.81977,-20.59556],[-43.81708,-20.59627],[-43.81389,-20.59622],[-43.81224,-20.59816],[-43.81103,-20.59754],[-43.81023,-20.5941],[-43.8096,-20.59292],[-43.80704,-20.59176],[-43.80432,-20.59175],[-43.80151,-20.5925],[-43.79927,-20.59253],[-43.7989,-20.59202],[-43.79892,-20.59108],[-43.80006,-20.58977],[-43.80131,-20.59038],[-43.80234,-20.58902],[-43.80326,-20.58864],[-43.80361,-20.58766],[-43.80605,-20.58586],[-43.80563,-20.58418],[-43.80577,-20.58372],[-43.80663,-20.58324],[-43.80615,-20.58147],[-43.8063,-20.58027],[-43.80567,-20.58001],[-43.80538,-20.58043],[-43.80477,-20.57994],[-43.80586,-20.57921],[-43.80535,-20.57893],[-43.80445,-20.57917],[-43.80438,-20.57862],[-43.80519,-20.57839],[-43.80454,-20.57774],[-43.80577,-20.57634],[-43.80891,-20.57578],[-43.81046,-20.57508],[-43.81089,-20.57395],[-43.81174,-20.57321],[-43.81144,-20.57234],[-43.81083,-20.57242],[-43.8097,-20.57155],[-43.80936,-20.5698],[-43.80974,-20.56918],[-43.80976,-20.5671],[-43.81143,-20.55879],[-43.81235,-20.55662],[-43.81329,-20.55584],[-43.81159,-20.5516],[-43.81189,-20.55085],[-43.81291,-20.55008],[-43.81205,-20.54881],[-43.80875,-20.54858],[-43.80858,-20.54765],[-43.80978,-20.54649],[-43.80966,-20.54579],[-43.8071,-20.54443],[-43.80664,-20.54306],[-43.80377,-20.53997],[-43.80186,-20.53917],[-43.80059,-20.53923],[-43.79982,-20.53803],[-43.79901,-20.53888],[-43.79804,-20.53898],[-43.79669,-20.54031],[-43.79594,-20.54051],[-43.7959,-20.54169],[-43.79655,-20.54289],[-43.79612,-20.54448],[-43.79343,-20.54649],[-43.79292,-20.54778],[-43.79191,-20.54795],[-43.79137,-20.5492],[-43.7909,-20.54922],[-43.79056,-20.54859],[-43.79012,-20.54874],[-43.78951,-20.55024],[-43.78764,-20.55079],[-43.7878,-20.55018],[-43.78747,-20.54996],[-43.78705,-20.55157],[-43.78741,-20.55187],[-43.78668,-20.55338],[-43.78585,-20.55257],[-43.78456,-20.5535],[-43.78383,-20.55242],[-43.78319,-20.55279],[-43.78233,-20.55526],[-43.78048,-20.55528],[-43.78194,-20.55695],[-43.78259,-20.55681],[-43.78295,-20.55758],[-43.78166,-20.55901],[-43.78076,-20.5617],[-43.77852,-20.56176],[-43.7782,-20.56215],[-43.77832,-20.56281],[-43.77729,-20.56288],[-43.77662,-20.56236],[-43.77416,-20.56392],[-43.77485,-20.56462],[-43.77361,-20.5651],[-43.77347,-20.56555],[-43.77443,-20.56761],[-43.77455,-20.5692],[-43.77423,-20.56984],[-43.77156,-20.57014],[-43.77125,-20.5688],[-43.77046,-20.56964],[-43.76943,-20.5695],[-43.76901,-20.56782],[-43.76774,-20.56722],[-43.76513,-20.56716],[-43.76329,-20.56819],[-43.76302,-20.56913],[-43.7618,-20.56879],[-43.76096,-20.56991],[-43.76027,-20.57014],[-43.76077,-20.57157],[-43.76147,-20.57217],[-43.76006,-20.57459],[-43.75959,-20.57474],[-43.75933,-20.57591],[-43.75815,-20.57514],[-43.75748,-20.57533],[-43.75713,-20.57602],[-43.75711,-20.5777],[-43.75773,-20.57797],[-43.75795,-20.57913],[-43.75878,-20.5797],[-43.75687,-20.58224],[-43.75689,-20.58374],[-43.75648,-20.58456],[-43.75681,-20.58517],[-43.75614,-20.58665],[-43.75508,-20.58731],[-43.75381,-20.58959],[-43.75309,-20.58967],[-43.75234,-20.59075],[-43.75077,-20.59167],[-43.74992,-20.59288],[-43.74935,-20.59298],[-43.74896,-20.59414],[-43.74791,-20.59506],[-43.74566,-20.59883],[-43.743,-20.59908],[-43.74297,-20.60047],[-43.74169,-20.60107],[-43.74151,-20.59967],[-43.74068,-20.59977],[-43.74054,-20.59929],[-43.73963,-20.59897],[-43.73905,-20.59796],[-43.73822,-20.59775],[-43.73737,-20.59609],[-43.73646,-20.59521],[-43.73461,-20.59461],[-43.73459,-20.59391],[-43.73364,-20.59355],[-43.73389,-20.59244],[-43.73264,-20.5918],[-43.73129,-20.59244],[-43.72779,-20.59271],[-43.72523,-20.59204],[-43.72567,-20.59198],[-43.72498,-20.59182],[-43.7244,-20.59112],[-43.7231,-20.5912],[-43.72239,-20.59026],[-43.72082,-20.58971],[-43.721,-20.58911],[-43.72049,-20.58902],[-43.72005,-20.58825],[-43.71878,-20.58826],[-43.71739,-20.58883],[-43.717,-20.5882],[-43.71492,-20.58843],[-43.71479,-20.58793],[-43.71036,-20.59024],[-43.70896,-20.59058],[-43.70787,-20.59193],[-43.70692,-20.59244],[-43.70581,-20.59401],[-43.70381,-20.59461],[-43.70169,-20.59612],[-43.6924,-20.59685],[-43.69013,-20.59768],[-43.6887,-20.59892],[-43.68809,-20.59995],[-43.68794,-20.60136],[-43.68879,-20.60456],[-43.68778,-20.60751],[-43.68504,-20.60953],[-43.68362,-20.61185],[-43.68014,-20.61449],[-43.68085,-20.61756],[-43.68019,-20.61974],[-43.67878,-20.6215],[-43.67956,-20.62639],[-43.67956,-20.62918],[-43.68068,-20.63076],[-43.68142,-20.6311],[-43.68296,-20.63084],[-43.68549,-20.62831],[-43.68893,-20.62596],[-43.69023,-20.62576],[-43.69174,-20.62769],[-43.6921,-20.62896],[-43.69411,-20.63019],[-43.69645,-20.6334],[-43.69922,-20.63509],[-43.7032,-20.63534],[-43.70601,-20.63698],[-43.70869,-20.6354],[-43.70906,-20.63628],[-43.70867,-20.63867],[-43.71051,-20.63933],[-43.71082,-20.63973],[-43.71018,-20.64093],[-43.71111,-20.64129],[-43.7099,-20.64095],[-43.70713,-20.64179],[-43.70619,-20.64158],[-43.705,-20.6425],[-43.70358,-20.64275],[-43.70227,-20.64365],[-43.70138,-20.64748],[-43.69935,-20.64909],[-43.69649,-20.65348],[-43.69389,-20.65467],[-43.69231,-20.65616],[-43.69216,-20.65743],[-43.69144,-20.65818],[-43.69134,-20.65999],[-43.68799,-20.66295],[-43.68771,-20.66396],[-43.68817,-20.67119],[-43.68942,-20.67263],[-43.6903,-20.67544],[-43.69179,-20.67739],[-43.69454,-20.68308],[-43.69356,-20.6864],[-43.6947,-20.68956],[-43.69395,-20.69257],[-43.69411,-20.69481],[-43.69487,-20.69591],[-43.69784,-20.69715],[-43.69818,-20.6983],[-43.69742,-20.69952],[-43.69728,-20.70106],[-43.69834,-20.70187],[-43.69915,-20.70389],[-43.69904,-20.70665],[-43.69724,-20.70973],[-43.69509,-20.7111],[-43.693,-20.71158],[-43.69223,-20.7122],[-43.69188,-20.71322],[-43.69202,-20.71677],[-43.69125,-20.71885],[-43.69201,-20.72329],[-43.69349,-20.72367],[-43.69411,-20.72288],[-43.69492,-20.72286],[-43.69509,-20.72369],[-43.69611,-20.72373],[-43.69616,-20.72481],[-43.69795,-20.72492],[-43.69936,-20.72621],[-43.69905,-20.72778],[-43.70057,-20.72883],[-43.7063,-20.72912],[-43.70912,-20.73033],[-43.71031,-20.73223],[-43.71141,-20.73305],[-43.71287,-20.7361],[-43.71382,-20.73636],[-43.71517,-20.73765],[-43.71656,-20.73792],[-43.71731,-20.73872],[-43.71715,-20.74089],[-43.71799,-20.74182],[-43.71819,-20.7432],[-43.71886,-20.74395],[-43.72116,-20.74482],[-43.72513,-20.74706],[-43.7298,-20.74746],[-43.73423,-20.75007],[-43.73687,-20.75303],[-43.73905,-20.7538],[-43.74117,-20.7556],[-43.74511,-20.75614],[-43.74662,-20.75582],[-43.74942,-20.75617],[-43.75151,-20.75747],[-43.7552,-20.75829],[-43.7572,-20.75766],[-43.75915,-20.75499],[-43.76037,-20.75439],[-43.76074,-20.75526],[-43.76005,-20.7573],[-43.76009,-20.759],[-43.75886,-20.7606],[-43.75817,-20.76364],[-43.76107,-20.76635],[-43.76118,-20.76713],[-43.75919,-20.77099],[-43.75799,-20.77173],[-43.75697,-20.77333],[-43.75704,-20.77441],[-43.75819,-20.77623],[-43.75791,-20.77864],[-43.75875,-20.78],[-43.75918,-20.78213],[-43.76017,-20.78418],[-43.76468,-20.7868],[-43.76645,-20.78889],[-43.76897,-20.79],[-43.7693,-20.79146],[-43.76795,-20.7935],[-43.76795,-20.79469],[-43.76837,-20.79585],[-43.76948,-20.79688],[-43.77063,-20.79917],[-43.77275,-20.80102],[-43.77781,-20.799],[-43.77974,-20.79881],[-43.78283,-20.79913],[-43.7863,-20.79767],[-43.78948,-20.79741],[-43.79104,-20.79677],[-43.7929,-20.79559],[-43.79332,-20.79358],[-43.79268,-20.79084],[-43.79496,-20.7891],[-43.79509,-20.78602],[-43.79686,-20.78439],[-43.79828,-20.78396],[-43.80127,-20.78489],[-43.80393,-20.78379],[-43.81008,-20.77977],[-43.8127,-20.779],[-43.8136,-20.77801],[-43.81655,-20.77607],[-43.81773,-20.77384],[-43.81938,-20.77253],[-43.82013,-20.76559],[-43.82126,-20.76342],[-43.82104,-20.76097],[-43.82038,-20.75897],[-43.82035,-20.75625],[-43.81992,-20.75565],[-43.81568,-20.75364],[-43.81276,-20.75305],[-43.81077,-20.75205],[-43.80944,-20.75239],[-43.8077,-20.75193],[-43.80649,-20.75065],[-43.80523,-20.74802],[-43.8026,-20.74664],[-43.80202,-20.74575],[-43.80126,-20.74628],[-43.80254,-20.74538]],[[-43.69913,-20.7107],[-43.69945,-20.71055],[-43.69872,-20.71104],[-43.69913,-20.7107]],[[-43.69872,-20.71104],[-43.69816,-20.71278],[-43.69835,-20.71194],[-43.69872,-20.71104]],[[-43.71381,-20.64206],[-43.7127,-20.64174],[-43.71296,-20.64174],[-43.71381,-20.64206]],[[-43.72799,-20.64722],[-43.72699,-20.64599],[-43.72718,-20.64607],[-43.72799,-20.64722]],[[-43.73189,-20.65034],[-43.7365,-20.65067],[-43.73244,-20.65045],[-43.73189,-20.65034]],[[-43.73435,-20.67802],[-43.73341,-20.67786],[-43.73358,-20.6778],[-43.73435,-20.67802]],[[-43.73379,-20.67988],[-43.73415,-20.68002],[-43.73413,-20.68009],[-43.73379,-20.67988]],[[-43.73553,-20.67882],[-43.73732,-20.67421],[-43.73612,-20.67748],[-43.73553,-20.67882]],[[-43.73939,-20.7332],[-43.73896,-20.73173],[-43.73899,-20.73149],[-43.73939,-20.7332]],[[-43.73989,-20.72983],[-43.739,-20.73135],[-43.73903,-20.73113],[-43.73989,-20.72983]],[[-43.73978,-20.73367],[-43.74076,-20.73463],[-43.74035,-20.73435],[-43.73978,-20.73367]],[[-43.74036,-20.72805],[-43.74033,-20.72815],[-43.7403,-20.72799],[-43.74036,-20.72805]],[[-43.7442,-20.70363],[-43.7422,-20.69846],[-43.74081,-20.69679],[-43.7422,-20.69845],[-43.7442,-20.70363]],[[-43.74083,-20.73467],[-43.74133,-20.73489],[-43.74102,-20.73481],[-43.74083,-20.73467]],[[-43.7477,-20.74268],[-43.74803,-20.7426],[-43.74791,-20.74266],[-43.7477,-20.74268]],[[-43.74821,-20.7425],[-43.74966,-20.7409],[-43.74835,-20.74242],[-43.74821,-20.7425]],[[-43.75182,-20.71891],[-43.74983,-20.7173],[-43.74921,-20.71678],[-43.75182,-20.71891]],[[-43.75305,-20.65069],[-43.75238,-20.65052],[-43.75715,-20.65141],[-43.74987,-20.6502],[-43.75305,-20.65069]],[[-43.75112,-20.64995],[-43.75203,-20.65043],[-43.75178,-20.65037],[-43.75112,-20.64995]],[[-43.75334,-20.73694],[-43.7553,-20.73531],[-43.75323,-20.73712],[-43.75334,-20.73694]],[[-43.75766,-20.71937],[-43.75756,-20.71942],[-43.75688,-20.7194],[-43.75766,-20.71937]],[[-43.75975,-20.65181],[-43.75922,-20.65305],[-43.75859,-20.65404],[-43.75975,-20.65181]],[[-43.75859,-20.65404],[-43.7584,-20.65406],[-43.75826,-20.65387],[-43.75859,-20.65404]],[[-43.75826,-20.65387],[-43.75825,-20.65387],[-43.75771,-20.65201],[-43.75826,-20.65387]],[[-43.75883,-20.65464],[-43.75844,-20.65412],[-43.75976,-20.65536],[-43.75883,-20.65464]],[[-43.75889,-20.67894],[-43.75904,-20.6789],[-43.75883,-20.67899],[-43.75889,-20.67894]],[[-43.76022,-20.67856],[-43.76214,-20.67843],[-43.75947,-20.67877],[-43.76022,-20.67856]],[[-43.76121,-20.65649],[-43.76101,-20.65634],[-43.76134,-20.65652],[-43.76121,-20.65649]],[[-43.76214,-20.65669],[-43.76452,-20.6565],[-43.76463,-20.65652],[-43.76214,-20.65669]],[[-43.76472,-20.71761],[-43.76234,-20.71778],[-43.76225,-20.71777],[-43.76472,-20.71761]],[[-43.76498,-20.66018],[-43.76498,-20.66021],[-43.76279,-20.66271],[-43.76498,-20.66018]],[[-43.76344,-20.68122],[-43.76338,-20.68106],[-43.76372,-20.68042],[-43.76344,-20.68122]],[[-43.76446,-20.67228],[-43.76441,-20.67235],[-43.76352,-20.67349],[-43.76446,-20.67228]],[[-43.76352,-20.67349],[-43.76351,-20.67414],[-43.76482,-20.6744],[-43.76354,-20.67424],[-43.76348,-20.67417],[-43.76352,-20.67349]],[[-43.76361,-20.67913],[-43.76364,-20.67896],[-43.76396,-20.67953],[-43.76361,-20.67913]],[[-43.76383,-20.68201],[-43.76379,-20.68209],[-43.76364,-20.68171],[-43.76383,-20.68201]],[[-43.76368,-20.67863],[-43.76397,-20.67865],[-43.76441,-20.67882],[-43.76368,-20.67863]],[[-43.76398,-20.67549],[-43.76372,-20.67629],[-43.76383,-20.6757],[-43.76398,-20.67549]],[[-43.76468,-20.68352],[-43.76456,-20.68381],[-43.7652,-20.68206],[-43.76468,-20.68352]],[[-43.76476,-20.65654],[-43.76529,-20.65663],[-43.76656,-20.65723],[-43.76476,-20.65654]],[[-43.7648,-20.67177],[-43.76494,-20.6714],[-43.76486,-20.67169],[-43.7648,-20.67177]],[[-43.76666,-20.67584],[-43.76593,-20.67685],[-43.76557,-20.67718],[-43.76666,-20.67584]],[[-43.76567,-20.64517],[-43.76572,-20.64534],[-43.76558,-20.6451],[-43.76567,-20.64517]],[[-43.76584,-20.6458],[-43.76585,-20.64601],[-43.76581,-20.64569],[-43.76584,-20.6458]],[[-43.76606,-20.64924],[-43.76615,-20.64906],[-43.76613,-20.64918],[-43.76606,-20.64924]],[[-43.76669,-20.65578],[-43.76681,-20.65609],[-43.76632,-20.65549],[-43.76669,-20.65578]],[[-43.76632,-20.65549],[-43.76608,-20.65361],[-43.76627,-20.65504],[-43.76632,-20.65549]],[[-43.7661,-20.65986],[-43.76634,-20.66003],[-43.76618,-20.66],[-43.7661,-20.65986]],[[-43.76621,-20.65769],[-43.76628,-20.65839],[-43.76616,-20.65852],[-43.76621,-20.65769]],[[-43.76797,-20.66683],[-43.76695,-20.66589],[-43.76725,-20.66739],[-43.76652,-20.66448],[-43.76645,-20.66353],[-43.76682,-20.66566],[-43.76797,-20.66683]],[[-43.76654,-20.66018],[-43.76657,-20.6602],[-43.76654,-20.66029],[-43.76654,-20.66018]],[[-43.76665,-20.67402],[-43.76715,-20.67423],[-43.76726,-20.67436],[-43.76665,-20.67402]],[[-43.76692,-20.64779],[-43.76691,-20.64789],[-43.76675,-20.64784],[-43.76692,-20.64779]],[[-43.76688,-20.65628],[-43.76677,-20.65689],[-43.76685,-20.6562],[-43.76688,-20.65628]],[[-43.76713,-20.65515],[-43.76702,-20.65513],[-43.76687,-20.655],[-43.76713,-20.65515]],[[-43.76747,-20.65514],[-43.76742,-20.65518],[-43.76731,-20.65517],[-43.76747,-20.65514]],[[-43.76741,-20.67481],[-43.76737,-20.67449],[-43.76751,-20.67467],[-43.76741,-20.67481]],[[-43.76873,-20.65978],[-43.76756,-20.65826],[-43.76758,-20.65822],[-43.76873,-20.65978]],[[-43.76778,-20.65788],[-43.76888,-20.65721],[-43.76877,-20.6574],[-43.76778,-20.65788]],[[-43.76837,-20.66905],[-43.76786,-20.66823],[-43.76851,-20.66912],[-43.76837,-20.66905]],[[-43.76786,-20.66823],[-43.76801,-20.66694],[-43.76807,-20.66713],[-43.76786,-20.66823]],[[-43.76822,-20.6718],[-43.76831,-20.67141],[-43.76818,-20.67327],[-43.76822,-20.6718]],[[-43.76868,-20.66965],[-43.76857,-20.66915],[-43.76881,-20.66759],[-43.76868,-20.66965]],[[-43.76892,-20.65714],[-43.769,-20.65694],[-43.76903,-20.65696],[-43.76892,-20.65714]],[[-43.76896,-20.66742],[-43.76911,-20.66726],[-43.76955,-20.66707],[-43.76896,-20.66742]],[[-43.76999,-20.66688],[-43.77005,-20.66686],[-43.77224,-20.66675],[-43.76999,-20.66688]],[[-43.77079,-20.66221],[-43.7705,-20.66208],[-43.77041,-20.66197],[-43.77079,-20.66221]],[[-43.77046,-20.64966],[-43.77058,-20.64968],[-43.77043,-20.64978],[-43.77046,-20.64966]],[[-43.77178,-20.67838],[-43.77073,-20.67792],[-43.77186,-20.67841],[-43.77178,-20.67838]],[[-43.7713,-20.66234],[-43.77115,-20.66236],[-43.77091,-20.66226],[-43.7713,-20.66234]],[[-43.77151,-20.64505],[-43.77158,-20.64509],[-43.77103,-20.64535],[-43.77151,-20.64505]],[[-43.77171,-20.64516],[-43.77184,-20.64524],[-43.77309,-20.64678],[-43.77171,-20.64516]],[[-43.77453,-20.64521],[-43.77191,-20.64282],[-43.7751,-20.64556],[-43.77453,-20.64521]],[[-43.77226,-20.65983],[-43.77197,-20.65972],[-43.77238,-20.65982],[-43.77226,-20.65983]],[[-43.77416,-20.65956],[-43.77249,-20.6598],[-43.77389,-20.65952],[-43.77416,-20.65956]],[[-43.77335,-20.67293],[-43.77396,-20.67334],[-43.77275,-20.67263],[-43.77335,-20.67293]],[[-43.77293,-20.67882],[-43.77289,-20.67881],[-43.77306,-20.67884],[-43.77293,-20.67882]],[[-43.77304,-20.66536],[-43.77329,-20.66479],[-43.77341,-20.66473],[-43.77304,-20.66536]],[[-43.77358,-20.69987],[-43.77323,-20.69993],[-43.77374,-20.69976],[-43.77358,-20.69987]],[[-43.77422,-20.6644],[-43.77381,-20.66451],[-43.77529,-20.66376],[-43.77422,-20.6644]],[[-43.7741,-20.69952],[-43.77392,-20.69964],[-43.77411,-20.69938],[-43.7741,-20.69952]],[[-43.77394,-20.64862],[-43.77396,-20.64867],[-43.77432,-20.65035],[-43.77394,-20.64862]],[[-43.77604,-20.66017],[-43.77472,-20.65967],[-43.77491,-20.6597],[-43.77604,-20.66017]],[[-43.77689,-20.67676],[-43.77543,-20.67567],[-43.77548,-20.67561],[-43.77689,-20.67676]],[[-43.77667,-20.68093],[-43.7755,-20.68281],[-43.77662,-20.68099],[-43.77667,-20.68093]],[[-43.77574,-20.67921],[-43.77561,-20.67919],[-43.77578,-20.67919],[-43.77574,-20.67921]],[[-43.77574,-20.65887],[-43.77584,-20.65837],[-43.77581,-20.65894],[-43.77574,-20.65887]],[[-43.77853,-20.69302],[-43.77623,-20.69416],[-43.77618,-20.69413],[-43.77853,-20.69302]],[[-43.77676,-20.67883],[-43.77641,-20.67896],[-43.7768,-20.67877],[-43.77676,-20.67883]],[[-43.77709,-20.66326],[-43.77646,-20.66336],[-43.77767,-20.66295],[-43.77709,-20.66326]],[[-43.77754,-20.645],[-43.77688,-20.64535],[-43.77652,-20.64542],[-43.77754,-20.645]],[[-43.77695,-20.65821],[-43.77897,-20.65635],[-43.77777,-20.6575],[-43.77695,-20.65821]],[[-43.77733,-20.66691],[-43.77746,-20.66782],[-43.77762,-20.66908],[-43.77733,-20.66691]],[[-43.77811,-20.74717],[-43.7781,-20.74703],[-43.77903,-20.74508],[-43.77811,-20.74717]],[[-43.77846,-20.74912],[-43.77812,-20.74804],[-43.77811,-20.74749],[-43.77846,-20.74912]],[[-43.77935,-20.689],[-43.77832,-20.68915],[-43.77926,-20.68896],[-43.77935,-20.689]],[[-43.77922,-20.65389],[-43.77873,-20.65173],[-43.77834,-20.64992],[-43.77922,-20.65389]],[[-43.77851,-20.6625],[-43.77858,-20.66231],[-43.77864,-20.66243],[-43.77851,-20.6625]],[[-43.77877,-20.69168],[-43.77877,-20.69178],[-43.77875,-20.69174],[-43.77877,-20.69168]],[[-43.77905,-20.69054],[-43.77918,-20.69005],[-43.77922,-20.69029],[-43.77905,-20.69054]],[[-43.77921,-20.6558],[-43.77924,-20.65581],[-43.7794,-20.65587],[-43.77921,-20.6558]],[[-43.77971,-20.68917],[-43.77991,-20.68956],[-43.77946,-20.68906],[-43.77971,-20.68917]],[[-43.78047,-20.69336],[-43.77952,-20.69324],[-43.78196,-20.69354],[-43.78047,-20.69336]],[[-43.77959,-20.74292],[-43.78018,-20.74195],[-43.7809,-20.74119],[-43.77959,-20.74292]],[[-43.784,-20.68898],[-43.78386,-20.68905],[-43.7808,-20.68804],[-43.784,-20.68898]],[[-43.7808,-20.68804],[-43.78014,-20.68932],[-43.78199,-20.68569],[-43.7808,-20.68804]],[[-43.78199,-20.68569],[-43.7817,-20.68407],[-43.78182,-20.6845],[-43.78199,-20.68569]],[[-43.78095,-20.66119],[-43.78042,-20.66148],[-43.78251,-20.66022],[-43.78095,-20.66119]],[[-43.78096,-20.66021],[-43.78049,-20.65962],[-43.7805,-20.65962],[-43.78096,-20.66021]],[[-43.78198,-20.71594],[-43.78434,-20.71876],[-43.78086,-20.71484],[-43.78198,-20.71594]],[[-43.78136,-20.71179],[-43.78109,-20.7112],[-43.78141,-20.71175],[-43.78136,-20.71179]],[[-43.78212,-20.70951],[-43.78261,-20.70911],[-43.78118,-20.71064],[-43.78212,-20.70951]],[[-43.78151,-20.68317],[-43.78149,-20.68307],[-43.78191,-20.68215],[-43.78151,-20.68317]],[[-43.78167,-20.74017],[-43.78159,-20.74027],[-43.78166,-20.74001],[-43.78167,-20.74017]],[[-43.78329,-20.64432],[-43.78177,-20.64419],[-43.78251,-20.64421],[-43.78329,-20.64432]],[[-43.78233,-20.6013],[-43.78305,-20.60131],[-43.78268,-20.60142],[-43.78233,-20.6013]],[[-43.78239,-20.67965],[-43.7824,-20.6796],[-43.78313,-20.67974],[-43.78239,-20.67965]],[[-43.78393,-20.70802],[-43.78418,-20.7079],[-43.78349,-20.70838],[-43.78393,-20.70802]],[[-43.78394,-20.60133],[-43.78569,-20.60185],[-43.78379,-20.60133],[-43.78394,-20.60133]],[[-43.78431,-20.67349],[-43.78429,-20.67344],[-43.78439,-20.67312],[-43.78431,-20.67349]],[[-43.78501,-20.67465],[-43.78591,-20.67669],[-43.78457,-20.67402],[-43.78501,-20.67465]],[[-43.78474,-20.672],[-43.78475,-20.67197],[-43.78475,-20.67198],[-43.78474,-20.672]],[[-43.7848,-20.67076],[-43.78487,-20.6707],[-43.78483,-20.67115],[-43.7848,-20.67076]],[[-43.78597,-20.66936],[-43.78657,-20.66779],[-43.78584,-20.66973],[-43.78597,-20.66936]],[[-43.78677,-20.69471],[-43.78665,-20.69436],[-43.7863,-20.69304],[-43.78677,-20.69471]],[[-43.7863,-20.69304],[-43.78651,-20.69209],[-43.78661,-20.69197],[-43.7863,-20.69304]],[[-43.78658,-20.661],[-43.78774,-20.66232],[-43.78781,-20.66252],[-43.78658,-20.661]],[[-43.78713,-20.69132],[-43.7884,-20.68976],[-43.78789,-20.69055],[-43.78713,-20.69132]],[[-43.78934,-20.66404],[-43.78917,-20.66414],[-43.78817,-20.66432],[-43.78934,-20.66404]],[[-43.78817,-20.66432],[-43.7887,-20.66609],[-43.78823,-20.6652],[-43.78784,-20.66263],[-43.78817,-20.66432]],[[-43.78908,-20.65491],[-43.78793,-20.65591],[-43.78913,-20.65477],[-43.78908,-20.65491]],[[-43.78798,-20.66605],[-43.78811,-20.66578],[-43.78809,-20.66591],[-43.78798,-20.66605]],[[-43.78837,-20.67012],[-43.78807,-20.67013],[-43.78827,-20.6701],[-43.78837,-20.67012]],[[-43.78885,-20.68905],[-43.78899,-20.68866],[-43.78898,-20.68886],[-43.78885,-20.68905]],[[-43.78925,-20.65439],[-43.7892,-20.65455],[-43.78893,-20.65342],[-43.78925,-20.65439]],[[-43.78893,-20.65342],[-43.78909,-20.6514],[-43.7891,-20.65143],[-43.78893,-20.65342]],[[-43.78917,-20.70376],[-43.79033,-20.70308],[-43.78969,-20.70356],[-43.78917,-20.70376]],[[-43.79114,-20.68445],[-43.79113,-20.68459],[-43.79096,-20.6842],[-43.79114,-20.68445]],[[-43.79096,-20.6842],[-43.78938,-20.68615],[-43.78946,-20.68596],[-43.79096,-20.6842]],[[-43.78968,-20.66213],[-43.79018,-20.66151],[-43.79069,-20.66128],[-43.78968,-20.66213]],[[-43.78988,-20.60274],[-43.79098,-20.60321],[-43.78983,-20.60275],[-43.78988,-20.60274]],[[-43.79096,-20.64548],[-43.79092,-20.64559],[-43.79086,-20.64466],[-43.79096,-20.64548]],[[-43.79142,-20.68623],[-43.79119,-20.686],[-43.79108,-20.68571],[-43.79142,-20.68623]],[[-43.79571,-20.68917],[-43.79271,-20.68908],[-43.79563,-20.68914],[-43.79571,-20.68917]],[[-43.79271,-20.68908],[-43.79117,-20.68865],[-43.79135,-20.68865],[-43.79271,-20.68908]],[[-43.79286,-20.64229],[-43.79323,-20.64227],[-43.79185,-20.64256],[-43.79408,-20.64191],[-43.79286,-20.64229]],[[-43.79185,-20.64256],[-43.79132,-20.64402],[-43.79162,-20.64251],[-43.79185,-20.64256]],[[-43.79133,-20.66006],[-43.79325,-20.65995],[-43.79408,-20.66006],[-43.79133,-20.66006]],[[-43.79168,-20.69891],[-43.79155,-20.69926],[-43.79146,-20.69928],[-43.79168,-20.69891]],[[-43.79179,-20.6648],[-43.79164,-20.66487],[-43.79161,-20.66485],[-43.79179,-20.6648]],[[-43.79195,-20.69899],[-43.79185,-20.6989],[-43.79194,-20.6989],[-43.79195,-20.69899]],[[-43.79194,-20.69933],[-43.79198,-20.69922],[-43.79199,-20.6993],[-43.79194,-20.69933]],[[-43.7921,-20.69064],[-43.79203,-20.69056],[-43.79341,-20.69079],[-43.7921,-20.69064]],[[-43.79238,-20.65322],[-43.79257,-20.65351],[-43.7921,-20.65302],[-43.79238,-20.65322]],[[-43.79251,-20.60358],[-43.79308,-20.60336],[-43.79255,-20.60358],[-43.79251,-20.60358]],[[-43.79257,-20.66368],[-43.79348,-20.66335],[-43.79354,-20.66338],[-43.79257,-20.66368]],[[-43.79524,-20.66037],[-43.7945,-20.66011],[-43.79291,-20.65912],[-43.79524,-20.66037]],[[-43.79345,-20.65143],[-43.79327,-20.65038],[-43.79334,-20.65029],[-43.79345,-20.65143]],[[-43.79347,-20.65013],[-43.79368,-20.64985],[-43.79375,-20.6499],[-43.79347,-20.65013]],[[-43.79351,-20.68359],[-43.79368,-20.68323],[-43.79363,-20.68342],[-43.79351,-20.68359]],[[-43.79414,-20.66786],[-43.79374,-20.66796],[-43.79372,-20.66795],[-43.79414,-20.66786]],[[-43.79404,-20.65519],[-43.79415,-20.65583],[-43.79391,-20.65498],[-43.79404,-20.65519]],[[-43.79401,-20.60299],[-43.79459,-20.6025],[-43.79414,-20.60294],[-43.79401,-20.60299]],[[-43.7941,-20.68167],[-43.79417,-20.68134],[-43.79418,-20.68139],[-43.7941,-20.68167]],[[-43.7954,-20.66058],[-43.79527,-20.66051],[-43.79566,-20.66067],[-43.7954,-20.66058]],[[-43.7954,-20.66058],[-43.79473,-20.66297],[-43.79474,-20.66282],[-43.7954,-20.66058]],[[-43.79497,-20.6757],[-43.7966,-20.67379],[-43.79489,-20.67591],[-43.79497,-20.6757]],[[-43.79539,-20.64804],[-43.79532,-20.64792],[-43.79525,-20.64705],[-43.79539,-20.64804]],[[-43.79551,-20.64315],[-43.79568,-20.6433],[-43.7957,-20.64333],[-43.79551,-20.64315]],[[-43.79686,-20.64978],[-43.7956,-20.64838],[-43.79554,-20.64827],[-43.79686,-20.64978]],[[-43.79673,-20.64337],[-43.79584,-20.64251],[-43.79691,-20.64342],[-43.79673,-20.64337]],[[-43.79666,-20.65869],[-43.79789,-20.65756],[-43.79588,-20.65969],[-43.79666,-20.65869]],[[-43.79625,-20.65968],[-43.79627,-20.65964],[-43.79814,-20.65799],[-43.79625,-20.65968]],[[-43.79715,-20.68978],[-43.79627,-20.68937],[-43.79682,-20.68956],[-43.79715,-20.68978]],[[-43.79683,-20.65416],[-43.79674,-20.65646],[-43.79679,-20.65497],[-43.79683,-20.65416]],[[-43.79865,-20.69303],[-43.7976,-20.69008],[-43.79859,-20.69286],[-43.79971,-20.69383],[-43.79865,-20.69303]],[[-43.79798,-20.6446],[-43.79864,-20.6444],[-43.79894,-20.64446],[-43.79798,-20.6446]],[[-43.79969,-20.74152],[-43.79967,-20.7415],[-43.7985,-20.73917],[-43.79969,-20.74152]],[[-43.80231,-20.66857],[-43.80226,-20.66865],[-43.79871,-20.67168],[-43.80231,-20.66857]],[[-43.80061,-20.64542],[-43.7996,-20.64476],[-43.79904,-20.64449],[-43.79929,-20.64454],[-43.80061,-20.64542]],[[-43.80144,-20.65972],[-43.80078,-20.65977],[-43.79988,-20.65977],[-43.80144,-20.65972]],[[-43.80051,-20.61467],[-43.80035,-20.61402],[-43.80033,-20.61298],[-43.80051,-20.61467]],[[-43.80166,-20.74211],[-43.80063,-20.74218],[-43.80058,-20.74215],[-43.80166,-20.74211]],[[-43.80178,-20.69456],[-43.8009,-20.69434],[-43.80062,-20.69415],[-43.80178,-20.69456]],[[-43.80108,-20.70254],[-43.8012,-20.70188],[-43.80114,-20.70274],[-43.80108,-20.70254]],[[-43.80142,-20.70367],[-43.80136,-20.70345],[-43.80153,-20.70374],[-43.80142,-20.70367]],[[-43.80317,-20.65667],[-43.80323,-20.65662],[-43.80203,-20.65996],[-43.80317,-20.65667]],[[-43.80317,-20.7049],[-43.80215,-20.70418],[-43.80218,-20.7042],[-43.80317,-20.7049]],[[-43.80338,-20.66537],[-43.80338,-20.66547],[-43.80292,-20.66766],[-43.80338,-20.66537]],[[-43.803,-20.64462],[-43.80359,-20.64468],[-43.80379,-20.64482],[-43.803,-20.64462]],[[-43.80418,-20.65608],[-43.80575,-20.65666],[-43.80468,-20.65629],[-43.80418,-20.65608]],[[-43.80418,-20.65608],[-43.80338,-20.65648],[-43.80365,-20.65623],[-43.80418,-20.65608]],[[-43.80397,-20.64494],[-43.80404,-20.64499],[-43.80412,-20.64512],[-43.80397,-20.64494]],[[-43.80424,-20.64532],[-43.80425,-20.64534],[-43.80414,-20.64604],[-43.80424,-20.64532]],[[-43.80555,-20.70828],[-43.80558,-20.70849],[-43.80553,-20.70838],[-43.80555,-20.70828]],[[-43.80586,-20.70899],[-43.80595,-20.70908],[-43.8059,-20.70906],[-43.80586,-20.70899]],[[-43.80686,-20.65919],[-43.80642,-20.65796],[-43.80642,-20.65794],[-43.80686,-20.65919]],[[-43.80643,-20.65781],[-43.80645,-20.65744],[-43.80662,-20.65763],[-43.80643,-20.65781]],[[-43.80857,-20.65404],[-43.80779,-20.65502],[-43.80859,-20.65389],[-43.80857,-20.65404]],[[-43.80968,-20.71082],[-43.80968,-20.71088],[-43.80882,-20.71012],[-43.80968,-20.71082]],[[-43.80907,-20.65117],[-43.8097,-20.64732],[-43.8098,-20.64699],[-43.80907,-20.65117]],[[-43.80939,-20.62864],[-43.81262,-20.63332],[-43.81266,-20.63346],[-43.80939,-20.62864]],[[-43.8146,-20.66832],[-43.81341,-20.66669],[-43.81416,-20.66753],[-43.8146,-20.66832]],[[-43.8146,-20.66832],[-43.80954,-20.67214],[-43.81144,-20.67058],[-43.8146,-20.66832]],[[-43.81074,-20.64484],[-43.81018,-20.64565],[-43.81262,-20.64194],[-43.81074,-20.64484]],[[-43.81172,-20.70459],[-43.81085,-20.70424],[-43.81093,-20.70459],[-43.81063,-20.70405],[-43.81172,-20.70459]],[[-43.81211,-20.70478],[-43.81224,-20.70485],[-43.81255,-20.70512],[-43.81211,-20.70478]],[[-43.81297,-20.65034],[-43.81228,-20.64926],[-43.81311,-20.65045],[-43.81297,-20.65034]],[[-43.81296,-20.7055],[-43.81324,-20.70574],[-43.81371,-20.70641],[-43.81296,-20.7055]],[[-43.81332,-20.65064],[-43.8132,-20.65053],[-43.81462,-20.651],[-43.81332,-20.65064]],[[-43.81396,-20.63987],[-43.81367,-20.64032],[-43.81407,-20.63954],[-43.81396,-20.63987]],[[-43.81434,-20.63877],[-43.81428,-20.63894],[-43.81418,-20.63826],[-43.81434,-20.63877]],[[-43.81443,-20.70743],[-43.81502,-20.70896],[-43.81426,-20.70719],[-43.81443,-20.70743]],[[-43.81623,-20.65565],[-43.8155,-20.65472],[-43.81636,-20.65569],[-43.81623,-20.65565]],[[-43.81643,-20.65367],[-43.81631,-20.65386],[-43.81557,-20.65437],[-43.81643,-20.65367]],[[-43.8156,-20.65947],[-43.81586,-20.65865],[-43.81562,-20.65955],[-43.8156,-20.65947]],[[-43.81579,-20.66019],[-43.81569,-20.6598],[-43.81627,-20.66118],[-43.81579,-20.66019]],[[-43.8158,-20.65202],[-43.81654,-20.65242],[-43.81655,-20.65252],[-43.8158,-20.65202]],[[-43.81656,-20.65296],[-43.81658,-20.65344],[-43.8165,-20.65357],[-43.81656,-20.65296]],[[-43.81722,-20.65573],[-43.81747,-20.65505],[-43.81746,-20.65517],[-43.81722,-20.65573]],[[-43.81722,-20.65573],[-43.81678,-20.6558],[-43.81664,-20.65577],[-43.81722,-20.65573]],[[-43.82264,-20.63522],[-43.82271,-20.63406],[-43.82271,-20.63465],[-43.82264,-20.63522]]]}}]}