{"type":"FeatureCollection","features":[{"type":"Feature","properties":{"municipio":"LAGOA SANTA"},"geometry":{"type":"Polygon","coordinates":[[[-43.93479,-19.66216],[-43.93475,-19.66165],[-43.93542,-19.66083],[-43.94042,-19.65908],[-43.94078,-19.65839],[-43.94052,-19.65676],[-43.94187,-19.65385],[-43.94525,-19.65012],[-43.94788,-19.64877],[-43.94934,-19.64693],[-43.95185,-19.64676],[-43.9533,-19.64594],[-43.95677,-19.64234],[-43.95912,-19.63896],[-43.95872,-19.63607],[-43.95919,-19.63427],[-43.95999,-19.63314],[-43.9592,-19.63068],[-43.95625,-19.62687],[-43.95218,-19.62398],[-43.95211,-19.61978],[-43.95104,-19.61761],[-43.95069,-19.61566],[-43.95139,-19.61278],[-43.95776,-19.60287],[-43.95986,-19.60234],[-43.96191,-19.60114],[-43.96561,-19.60148],[-43.96665,-19.60101],[-43.96815,-19.59928],[-43.97041,-19.59933],[-43.97115,-19.59897],[-43.97183,-19.59788],[-43.97153,-19.59589],[-43.96991,-19.59436],[-43.96993,-19.58858],[-43.9675,-19.58652],[-43.96545,-19.58539],[-43.96514,-19.58451],[-43.96565,-19.58291],[-43.96756,-19.58181],[-43.96829,-19.57881],[-43.9689,-19.57807],[-43.971,-19.57688],[-43.97148,-19.57498],[-43.97373,-19.5736],[-43.9737,-19.57288],[-43.97077,-19.57075],[-43.96593,-19.5706],[-43.96534,-19.57016],[-43.96507,-19.56871],[-43.96435,-19.56802],[-43.96362,-19.56638],[-43.96376,-19.5644],[-43.96309,-19.56345],[-43.96354,-19.56283],[-43.96608,-19.56143],[-43.96732,-19.56137],[-43.96743,-19.56088],[-43.96666,-19.55994],[-43.96663,-19.55715],[-43.96309,-19.55559],[-43.96273,-19.55492],[-43.96483,-19.55346],[-43.96512,-19.55249],[-43.96459,-19.54866],[-43.96237,-19.54807],[-43.96197,-19.54747],[-43.96155,-19.54649],[-43.96187,-19.54559],[-43.96147,-19.54311],[-43.96054,-19.54196],[-43.96039,-19.53973],[-43.95808,-19.53936],[-43.95405,-19.53607],[-43.95254,-19.5354],[-43.94976,-19.53535],[-43.94705,-19.53617],[-43.94571,-19.53744],[-43.94499,-19.53878],[-43.94366,-19.53931],[-43.94207,-19.54117],[-43.93789,-19.5428],[-43.93084,-19.54271],[-43.9273,-19.5399],[-43.92555,-19.53785],[-43.92402,-19.53735],[-43.9219,-19.53569],[-43.919,-19.53773],[-43.91309,-19.53976],[-43.90882,-19.54224],[-43.90438,-19.54325],[-43.90253,-19.54316],[-43.89529,-19.54036],[-43.89423,-19.54037],[-43.89318,-19.54177],[-43.89269,-19.54734],[-43.89145,-19.55121],[-43.89149,-19.55264],[-43.89358,-19.55341],[-43.89679,-19.55257],[-43.89838,-19.55264],[-43.90281,-19.5547],[-43.90467,-19.5551],[-43.9076,-19.55489],[-43.91057,-19.55621],[-43.91124,-19.55877],[-43.91055,-19.56006],[-43.91056,-19.56121],[-43.90878,-19.5615],[-43.90442,-19.561],[-43.90256,-19.55905],[-43.90008,-19.5572],[-43.89864,-19.5568],[-43.89753,-19.55732],[-43.89675,-19.55838],[-43.89692,-19.56252],[-43.89412,-19.56652],[-43.89221,-19.56774],[-43.89179,-19.56946],[-43.89248,-19.57211],[-43.88739,-19.58009],[-43.88437,-19.5815],[-43.88169,-19.58214],[-43.88039,-19.58188],[-43.87873,-19.58079],[-43.87805,-19.57934],[-43.8797,-19.57687],[-43.87961,-19.57571],[-43.87889,-19.575],[-43.87513,-19.57343],[-43.87254,-19.57285],[-43.87113,-19.57183],[-43.87025,-19.57036],[-43.8712,-19.56509],[-43.87103,-19.56449],[-43.86881,-19.56115],[-43.86831,-19.55951],[-43.86784,-19.5591],[-43.8671,-19.55916],[-43.86615,-19.55964],[-43.86483,-19.56238],[-43.86681,-19.5705],[-43.86701,-19.57219],[-43.86648,-19.57373],[-43.86517,-19.57457],[-43.86214,-19.57354],[-43.85992,-19.57434],[-43.85823,-19.57803],[-43.85675,-19.57935],[-43.85396,-19.57983],[-43.85325,-19.57956],[-43.85114,-19.57674],[-43.85008,-19.57592],[-43.84861,-19.57593],[-43.84505,-19.57723],[-43.84242,-19.579],[-43.8412,-19.58124],[-43.84152,-19.58656],[-43.84121,-19.58915],[-43.84033,-19.59153],[-43.8407,-19.59684],[-43.8397,-19.59642],[-43.83936,-19.59813],[-43.83758,-19.59992],[-43.83602,-19.59979],[-43.83092,-19.59694],[-43.82756,-19.59454],[-43.82653,-19.59429],[-43.82491,-19.59455],[-43.82382,-19.59521],[-43.82337,-19.59645],[-43.82356,-19.59983],[-43.82433,-19.60154],[-43.82417,-19.60251],[-43.82378,-19.60319],[-43.8224,-19.60334],[-43.81899,-19.60066],[-43.81735,-19.59864],[-43.81492,-19.59662],[-43.8138,-19.59614],[-43.81275,-19.59642],[-43.81119,-19.59769],[-43.81046,-19.60009],[-43.81218,-19.60299],[-43.81475,-19.6087],[-43.81497,-19.6109],[-43.81439,-19.61213],[-43.81259,-19.61279],[-43.80956,-19.61311],[-43.80609,-19.61106],[-43.80354,-19.6103],[-43.80083,-19.61039],[-43.79871,-19.61111],[-43.79836,-19.61396],[-43.79917,-19.6158],[-43.79924,-19.61981],[-43.80122,-19.62349],[-43.80271,-19.62508],[-43.80405,-19.6258],[-43.8063,-19.62557],[-43.80651,-19.6249],[-43.8059,-19.62328],[-43.80648,-19.62219],[-43.81131,-19.61842],[-43.8125,-19.61796],[-43.81447,-19.61815],[-43.81559,-19.61924],[-43.81652,-19.62173],[-43.81656,-19.62332],[-43.81397,-19.63099],[-43.81385,-19.63307],[-43.81703,-19.63824],[-43.81728,-19.64106],[-43.81656,-19.6417],[-43.81502,-19.64144],[-43.81141,-19.63803],[-43.80965,-19.63838],[-43.80883,-19.63953],[-43.80886,-19.64198],[-43.81088,-19.64708],[-43.81081,-19.64788],[-43.80941,-19.6504],[-43.80959,-19.65172],[-43.81117,-19.6532],[-43.8114,-19.65394],[-43.81076,-19.65719],[-43.80886,-19.65809],[-43.80412,-19.65818],[-43.80123,-19.65889],[-43.79889,-19.65765],[-43.79642,-19.65768],[-43.79211,-19.65991],[-43.79169,-19.66102],[-43.79292,-19.66347],[-43.796,-19.66546],[-43.79799,-19.66867],[-43.79882,-19.66882],[-43.80038,-19.66811],[-43.80377,-19.6646],[-43.80479,-19.6645],[-43.80554,-19.6649],[-43.80646,-19.6667],[-43.80613,-19.66887],[-43.80503,-19.67156],[-43.80423,-19.67204],[-43.80206,-19.67202],[-43.80093,-19.6724],[-43.79886,-19.67544],[-43.7991,-19.67859],[-43.80091,-19.68051],[-43.80326,-19.68221],[-43.80402,-19.68453],[-43.80314,-19.68607],[-43.80014,-19.68592],[-43.79987,-19.68652],[-43.80044,-19.68736],[-43.80173,-19.68794],[-43.80354,-19.68787],[-43.80794,-19.68666],[-43.80899,-19.68741],[-43.80905,-19.6888],[-43.80781,-19.69211],[-43.80848,-19.69675],[-43.80993,-19.69931],[-43.81341,-19.70149],[-43.81525,-19.70385],[-43.81563,-19.70531],[-43.81584,-19.70769],[-43.81542,-19.70887],[-43.81538,-19.71107],[-43.81483,-19.71291],[-43.81389,-19.71418],[-43.81445,-19.71576],[-43.81578,-19.71661],[-43.81863,-19.7171],[-43.82316,-19.71666],[-43.8281,-19.71376],[-43.83187,-19.71208],[-43.83289,-19.71002],[-43.83318,-19.70771],[-43.83384,-19.70703],[-43.83698,-19.70528],[-43.83883,-19.70508],[-43.83989,-19.70573],[-43.84051,-19.70909],[-43.84197,-19.71146],[-43.84282,-19.71233],[-43.84454,-19.71271],[-43.84579,-19.71512],[-43.84664,-19.71601],[-43.84767,-19.71615],[-43.85015,-19.71394],[-43.85383,-19.71212],[-43.85568,-19.71024],[-43.85851,-19.70982],[-43.86018,-19.71012],[-43.86027,-19.70885],[-43.86083,-19.70923],[-43.86263,-19.70868],[-43.863,-19.70807],[-43.86492,-19.70693],[-43.86563,-19.70494],[-43.86672,-19.70539],[-43.86748,-19.70409],[-43.86888,-19.70452],[-43.8702,-19.70439],[-43.87027,-19.70351],[-43.87093,-19.7027],[-43.8717,-19.70256],[-43.87207,-19.70205],[-43.87658,-19.70075],[-43.87725,-19.69967],[-43.87825,-19.69995],[-43.87956,-19.69939],[-43.88091,-19.69983],[-43.88276,-19.69727],[-43.88198,-19.69551],[-43.88482,-19.6942],[-43.88558,-19.69461],[-43.88496,-19.69599],[-43.88525,-19.69739],[-43.88835,-19.69685],[-43.89014,-19.69804],[-43.89132,-19.69978],[-43.8923,-19.70018],[-43.89308,-19.70018],[-43.89491,-19.69867],[-43.8965,-19.69844],[-43.90189,-19.70134],[-43.90544,-19.6999],[-43.90772,-19.69946],[-43.9083,-19.69858],[-43.9109,-19.69926],[-43.91303,-19.69828],[-43.91444,-19.69817],[-43.9149,-19.69795],[-43.91505,-19.69711],[-43.91437,-19.69663],[-43.91418,-19.69487],[-43.90823,-19.69417],[-43.9048,-19.6921],[-43.90417,-19.69089],[-43.90266,-19.68455],[-43.90552,-19.68143],[-43.91019,-19.6826],[-43.91038,-19.6801],[-43.91483,-19.68126],[-43.91445,-19.68183],[-43.91484,-19.68271],[-43.91599,-19.68344],[-43.91711,-19.68267],[-43.92036,-19.68246],[-43.92279,-19.68528],[-43.92421,-19.6848],[-43.92589,-19.68506],[-43.9281,-19.68346],[-43.9313,-19.67979],[-43.93262,-19.67969],[-43.93613,-19.68087],[-43.93727,-19.68092],[-43.93836,-19.67973],[-43.93859,-19.67883],[-43.94164,-19.67677],[-43.9421,-19.6757],[-43.94194,-19.67421],[-43.94249,-19.6725],[-43.94415,-19.67216],[-43.94488,-19.67163],[-43.9444,-19.67114],[-43.94387,-19.66745],[-43.94112,-19.6635],[-43.93647,-19.66344],[-43.93479,-19.66216]],[[-43.93479,-19.66216],[-43.93272,-19.66377],[-43.93367,-19.6629],[-43.93479,-19.66216]],[[-43.79873,-19.66265],[-43.80014,-19.66274],[-43.79908,-19.66274],[-43.79873,-19.66265]],[[-43.8006,-19.66274],[-43.8023,-19.66242],[-43.80072,-19.66274],[-43.8006,-19.66274]],[[-43.81716,-19.67195],[-43.81925,-19.6735],[-43.81729,-19.67215],[-43.81716,-19.67195]],[[-43.85028,-19.66999],[-43.85049,-19.66997],[-43.84833,-19.67051],[-43.85028,-19.66999]],[[-43.85225,-19.66976],[-43.8531,-19.66995],[-43.85165,-19.66983],[-43.85225,-19.66976]],[[-43.86108,-19.66353],[-43.86086,-19.66433],[-43.86074,-19.66448],[-43.86108,-19.66353]],[[-43.86209,-19.65378],[-43.86126,-19.65415],[-43.86094,-19.65421],[-43.86209,-19.65378]],[[-43.86294,-19.64924],[-43.86142,-19.64977],[-43.86285,-19.6492],[-43.86704,-19.64964],[-43.86297,-19.64927],[-43.86312,-19.65048],[-43.86294,-19.64924]],[[-43.86324,-19.66044],[-43.86178,-19.66275],[-43.86286,-19.66085],[-43.86324,-19.66044]],[[-43.8657,-19.65902],[-43.86571,-19.65914],[-43.86556,-19.65923],[-43.8657,-19.65902]],[[-43.87467,-19.64802],[-43.87206,-19.64905],[-43.86786,-19.6507],[-43.87467,-19.64802]],[[-43.87077,-19.67424],[-43.87096,-19.67578],[-43.87079,-19.67468],[-43.87077,-19.67424]],[[-43.87095,-19.67186],[-43.87105,-19.67182],[-43.87131,-19.67229],[-43.87095,-19.67186]],[[-43.87226,-19.67139],[-43.87214,-19.67021],[-43.8723,-19.67137],[-43.87226,-19.67139]],[[-43.87557,-19.65222],[-43.87245,-19.65275],[-43.87298,-19.65263],[-43.87557,-19.65222]],[[-43.8735,-19.66886],[-43.8735,-19.66815],[-43.87358,-19.66851],[-43.8735,-19.66886]],[[-43.87506,-19.67489],[-43.87473,-19.67505],[-43.8752,-19.67477],[-43.87506,-19.67489]],[[-43.87485,-19.66271],[-43.8749,-19.66258],[-43.87493,-19.66257],[-43.87485,-19.66271]],[[-43.87505,-19.62912],[-43.87504,-19.62909],[-43.87565,-19.63074],[-43.87505,-19.62912]],[[-43.87719,-19.65486],[-43.87508,-19.66066],[-43.87513,-19.66032],[-43.87719,-19.65486]],[[-43.87548,-19.6929],[-43.8755,-19.69353],[-43.87546,-19.69284],[-43.87548,-19.6929]],[[-43.87552,-19.69489],[-43.87548,-19.69497],[-43.87552,-19.6948],[-43.87552,-19.69489]],[[-43.87562,-19.66226],[-43.87567,-19.66219],[-43.8758,-19.66223],[-43.87562,-19.66226]],[[-43.87619,-19.67375],[-43.87896,-19.67135],[-43.87589,-19.67414],[-43.87619,-19.67375]],[[-43.87608,-19.66231],[-43.87617,-19.66234],[-43.8763,-19.66248],[-43.87608,-19.66231]],[[-43.87865,-19.63132],[-43.87662,-19.63111],[-43.8764,-19.63103],[-43.87865,-19.63132]],[[-43.87691,-19.66293],[-43.87687,-19.6629],[-43.87704,-19.66294],[-43.87691,-19.66293]],[[-43.87855,-19.66301],[-43.878,-19.66298],[-43.87867,-19.66294],[-43.87855,-19.66301]],[[-43.88167,-19.64974],[-43.88171,-19.6497],[-43.88135,-19.65069],[-43.88167,-19.64974]],[[-43.88135,-19.65069],[-43.87838,-19.65308],[-43.87808,-19.65313],[-43.88135,-19.65069]],[[-43.88083,-19.61508],[-43.88012,-19.61383],[-43.88088,-19.61512],[-43.88083,-19.61508]],[[-43.8808,-19.61231],[-43.88055,-19.61338],[-43.88057,-19.61289],[-43.8808,-19.61231]],[[-43.88139,-19.65578],[-43.88118,-19.65532],[-43.8812,-19.65507],[-43.88139,-19.65578]],[[-43.88141,-19.61557],[-43.8812,-19.61539],[-43.88317,-19.61661],[-43.88141,-19.61557]],[[-43.88122,-19.65491],[-43.88125,-19.65456],[-43.8819,-19.65375],[-43.88122,-19.65491]],[[-43.88182,-19.66274],[-43.88186,-19.66266],[-43.88351,-19.66204],[-43.88182,-19.66274]],[[-43.88203,-19.66239],[-43.88308,-19.66176],[-43.88188,-19.66263],[-43.88203,-19.66239]],[[-43.88551,-19.64557],[-43.88543,-19.6454],[-43.88544,-19.645],[-43.88551,-19.64557]],[[-43.88587,-19.64619],[-43.88575,-19.64613],[-43.88565,-19.64589],[-43.88587,-19.64619]],[[-43.88703,-19.64638],[-43.88625,-19.64638],[-43.88608,-19.6463],[-43.88703,-19.64638]],[[-43.8861,-19.64392],[-43.88609,-19.64361],[-43.88628,-19.6422],[-43.8861,-19.64392]],[[-43.88727,-19.66749],[-43.88801,-19.66739],[-43.88653,-19.66777],[-43.88727,-19.66749]],[[-43.88765,-19.62867],[-43.88754,-19.62851],[-43.88789,-19.62883],[-43.88765,-19.62867]],[[-43.88858,-19.63827],[-43.88864,-19.63854],[-43.88791,-19.63698],[-43.88858,-19.63827]],[[-43.88803,-19.67045],[-43.88814,-19.67074],[-43.88803,-19.67184],[-43.88803,-19.67045]],[[-43.8891,-19.64439],[-43.88921,-19.64436],[-43.88805,-19.64507],[-43.8891,-19.64439]],[[-43.88887,-19.66309],[-43.88842,-19.66163],[-43.88831,-19.66101],[-43.88887,-19.66309]],[[-43.8894,-19.62872],[-43.88859,-19.62878],[-43.88877,-19.62862],[-43.8894,-19.62872]],[[-43.88884,-19.63941],[-43.88875,-19.63958],[-43.88879,-19.6392],[-43.88884,-19.63941]],[[-43.88993,-19.64412],[-43.89081,-19.64412],[-43.88954,-19.64425],[-43.88993,-19.64412]],[[-43.89072,-19.60553],[-43.89077,-19.60545],[-43.89098,-19.60605],[-43.89072,-19.60553]],[[-43.89907,-19.60947],[-43.89892,-19.60938],[-43.89835,-19.60899],[-43.89907,-19.60947]],[[-43.89835,-19.60899],[-43.8922,-19.60744],[-43.89526,-19.60817],[-43.89835,-19.60899]],[[-43.89476,-19.66664],[-43.89447,-19.66722],[-43.89445,-19.66716],[-43.89476,-19.66664]],[[-43.89474,-19.6715],[-43.89486,-19.67088],[-43.89485,-19.67147],[-43.89474,-19.6715]],[[-43.8995,-19.64994],[-43.8974,-19.64481],[-43.89855,-19.64751],[-43.8995,-19.64994]],[[-43.8974,-19.64481],[-43.89737,-19.64481],[-43.89741,-19.6448],[-43.8974,-19.64481]],[[-43.89762,-19.64462],[-43.8985,-19.64378],[-43.89894,-19.6435],[-43.89762,-19.64462]],[[-43.8989,-19.63601],[-43.8993,-19.63643],[-43.89821,-19.63566],[-43.8989,-19.63601]],[[-43.90015,-19.63729],[-43.90042,-19.6378],[-43.89988,-19.63702],[-43.90015,-19.63729]],[[-43.90061,-19.63815],[-43.90079,-19.63901],[-43.90053,-19.63801],[-43.90061,-19.63815]],[[-43.90061,-19.64281],[-43.90075,-19.64283],[-43.90158,-19.64374],[-43.90061,-19.64281]],[[-43.90079,-19.59176],[-43.90084,-19.59153],[-43.90085,-19.59252],[-43.90079,-19.59176]],[[-43.90138,-19.63293],[-43.90119,-19.63235],[-43.90171,-19.63333],[-43.90138,-19.63293]],[[-43.90263,-19.623],[-43.90126,-19.62367],[-43.90143,-19.62358],[-43.90263,-19.623]],[[-43.90126,-19.62367],[-43.90253,-19.62588],[-43.90423,-19.62925],[-43.90126,-19.62367]],[[-43.90296,-19.60215],[-43.90186,-19.60296],[-43.90293,-19.60211],[-43.90296,-19.60215]],[[-43.90293,-19.60211],[-43.90281,-19.60152],[-43.903,-19.60059],[-43.90293,-19.60211]],[[-43.9022,-19.63394],[-43.90206,-19.63376],[-43.90237,-19.63403],[-43.9022,-19.63394]],[[-43.90322,-19.59673],[-43.90367,-19.59624],[-43.90248,-19.59807],[-43.90322,-19.59673]],[[-43.90327,-19.63451],[-43.90301,-19.63437],[-43.90502,-19.63508],[-43.90327,-19.63451]],[[-43.90878,-19.65346],[-43.90576,-19.65254],[-43.90311,-19.64929],[-43.90579,-19.65247],[-43.90878,-19.65346]],[[-43.90878,-19.65346],[-43.90719,-19.65057],[-43.91049,-19.65644],[-43.90878,-19.65346]],[[-43.90374,-19.61131],[-43.90322,-19.60974],[-43.90374,-19.61117],[-43.90374,-19.61131]],[[-43.9035,-19.62992],[-43.90387,-19.62994],[-43.90395,-19.62998],[-43.9035,-19.62992]],[[-43.90378,-19.61341],[-43.90352,-19.61401],[-43.90378,-19.61328],[-43.90378,-19.61341]],[[-43.90377,-19.61286],[-43.90366,-19.61234],[-43.90375,-19.61175],[-43.90377,-19.61286]],[[-43.90401,-19.59445],[-43.90411,-19.59458],[-43.90415,-19.59479],[-43.90401,-19.59445]],[[-43.90435,-19.66709],[-43.90432,-19.66687],[-43.90481,-19.66421],[-43.90435,-19.66709]],[[-43.90433,-19.58973],[-43.90434,-19.58968],[-43.90452,-19.58937],[-43.90433,-19.58973]],[[-43.90486,-19.66827],[-43.9047,-19.66815],[-43.90443,-19.66774],[-43.90486,-19.66827]],[[-43.90535,-19.60043],[-43.90603,-19.59857],[-43.90525,-19.60111],[-43.90535,-19.60043]],[[-43.90855,-19.67009],[-43.90557,-19.66879],[-43.90541,-19.66868],[-43.90855,-19.67009]],[[-43.90765,-19.62947],[-43.90699,-19.62919],[-43.9055,-19.62851],[-43.90765,-19.62947]],[[-43.90584,-19.63728],[-43.90562,-19.6368],[-43.90565,-19.63661],[-43.90584,-19.63728]],[[-43.90584,-19.63728],[-43.90705,-19.63718],[-43.90604,-19.63729],[-43.90584,-19.63728]],[[-43.90575,-19.63592],[-43.90579,-19.63602],[-43.90572,-19.63614],[-43.90575,-19.63592]],[[-43.90784,-19.63327],[-43.90661,-19.63325],[-43.91152,-19.63331],[-43.90784,-19.63327]],[[-43.90702,-19.6014],[-43.90701,-19.59886],[-43.90705,-19.60261],[-43.90702,-19.6014]],[[-43.908,-19.63175],[-43.90706,-19.63134],[-43.90807,-19.63176],[-43.908,-19.63175]],[[-43.90816,-19.57682],[-43.90781,-19.57842],[-43.9083,-19.57579],[-43.90816,-19.57682]],[[-43.90848,-19.59367],[-43.90784,-19.59665],[-43.90831,-19.59394],[-43.90848,-19.59367]],[[-43.91431,-19.58475],[-43.91235,-19.58289],[-43.91244,-19.58295],[-43.91431,-19.58475]],[[-43.91431,-19.58475],[-43.91359,-19.58789],[-43.91337,-19.58855],[-43.91431,-19.58475]],[[-43.91337,-19.58855],[-43.91293,-19.58899],[-43.91109,-19.59053],[-43.91337,-19.58855]],[[-43.91293,-19.58899],[-43.91317,-19.58932],[-43.91348,-19.59001],[-43.91293,-19.58899]],[[-43.91109,-19.59053],[-43.90892,-19.59302],[-43.9091,-19.59276],[-43.91109,-19.59053]],[[-43.90978,-19.63533],[-43.9115,-19.63426],[-43.9107,-19.63479],[-43.90978,-19.63533]],[[-43.91056,-19.56335],[-43.91018,-19.56277],[-43.91022,-19.5626],[-43.91056,-19.56335]],[[-43.91265,-19.65883],[-43.91213,-19.65892],[-43.91032,-19.65897],[-43.91265,-19.65883]],[[-43.91032,-19.65897],[-43.91028,-19.65879],[-43.91044,-19.65842],[-43.91032,-19.65897]],[[-43.911,-19.62997],[-43.91037,-19.6303],[-43.91102,-19.62992],[-43.911,-19.62997]],[[-43.9104,-19.58197],[-43.911,-19.58201],[-43.91111,-19.58208],[-43.9104,-19.58197]],[[-43.91046,-19.65054],[-43.91078,-19.65051],[-43.91062,-19.6506],[-43.91046,-19.65054]],[[-43.91082,-19.67274],[-43.91064,-19.67202],[-43.91109,-19.67255],[-43.91066,-19.67206],[-43.91082,-19.67274]],[[-43.91106,-19.64801],[-43.9107,-19.64719],[-43.91169,-19.64918],[-43.91106,-19.64801]],[[-43.91072,-19.64683],[-43.91098,-19.64663],[-43.91071,-19.64701],[-43.91072,-19.64683]],[[-43.9189,-19.6359],[-43.912895449438196,-19.63659617977528],[-43.9154,-19.63629],[-43.9189,-19.6359]],[[-43.9114,-19.63894],[-43.91166,-19.64022],[-43.9116,-19.64027],[-43.9114,-19.63894]],[[-43.91211,-19.62791],[-43.91183,-19.62856],[-43.91153,-19.62906],[-43.91185,-19.62838],[-43.91211,-19.62791]],[[-43.91217,-19.64951],[-43.91262,-19.65274],[-43.91212,-19.64948],[-43.91217,-19.64951]],[[-43.91324,-19.62906],[-43.91432,-19.62965],[-43.9131,-19.62912],[-43.91324,-19.62906]],[[-43.91582,-19.64501],[-43.91338,-19.64576],[-43.91614,-19.64481],[-43.91582,-19.64501]],[[-43.91381,-19.5591],[-43.91355,-19.55948],[-43.91384,-19.55872],[-43.91381,-19.5591]],[[-43.91397,-19.55839],[-43.91403,-19.55823],[-43.9142,-19.55819],[-43.91397,-19.55839]],[[-43.91491,-19.67518],[-43.91412,-19.6775],[-43.91477,-19.67531],[-43.91491,-19.67518]],[[-43.9144,-19.55815],[-43.91463,-19.55809],[-43.91493,-19.55818],[-43.9144,-19.55815]],[[-43.91459,-19.60394],[-43.91472,-19.60492],[-43.91459,-19.60413],[-43.91459,-19.60394]],[[-43.91465,-19.59836],[-43.91461,-19.59848],[-43.9146,-19.59841],[-43.91465,-19.59836]],[[-43.915,-19.6008],[-43.91501,-19.60162],[-43.91476,-19.59966],[-43.915,-19.6008]],[[-43.91761,-19.63355],[-43.91527,-19.63342],[-43.91621,-19.63346],[-43.91761,-19.63355]],[[-43.91527,-19.60822],[-43.91536,-19.60842],[-43.9153,-19.60837],[-43.91527,-19.60822]],[[-43.91558,-19.62606],[-43.91781,-19.62562],[-43.91669,-19.62585],[-43.91558,-19.62606]],[[-43.91579,-19.66345],[-43.91752,-19.66297],[-43.91899,-19.66278],[-43.91579,-19.66345]],[[-43.9158,-19.65762],[-43.917,-19.65052],[-43.9164,-19.65464],[-43.9158,-19.65762]],[[-43.91601,-19.60887],[-43.91672,-19.60923],[-43.91652,-19.60922],[-43.91601,-19.60887]],[[-43.9163,-19.64422],[-43.91627,-19.64473],[-43.91624,-19.64475],[-43.9163,-19.64422]],[[-43.91687,-19.60924],[-43.9187,-19.609],[-43.91731,-19.60926],[-43.91687,-19.60924]],[[-43.91983,-19.66269],[-43.92013,-19.66421],[-43.91978,-19.66299],[-43.91983,-19.66269]],[[-43.92088,-19.56193],[-43.91997,-19.56054],[-43.9209,-19.56195],[-43.92088,-19.56193]],[[-43.92148,-19.63288],[-43.92148,-19.63368],[-43.92131,-19.63441],[-43.92148,-19.63288]],[[-43.92246,-19.56635],[-43.92258,-19.5672],[-43.92248,-19.56739],[-43.92246,-19.56635]],[[-43.92453,-19.60717],[-43.92508,-19.60737],[-43.9226,-19.60698],[-43.92453,-19.60717]],[[-43.92295,-19.67194],[-43.92302,-19.67207],[-43.92342,-19.67392],[-43.92295,-19.67194]],[[-43.92427,-19.65631],[-43.92304,-19.65564],[-43.92354,-19.6558],[-43.92427,-19.65631]],[[-43.92354,-19.6558],[-43.92322,-19.65358],[-43.92342,-19.65418],[-43.92354,-19.6558]],[[-43.92921,-19.58391],[-43.92478,-19.58474],[-43.92476,-19.58471],[-43.92921,-19.58391]],[[-43.92658,-19.61983],[-43.92826,-19.61777],[-43.92542,-19.62143],[-43.92658,-19.61983]],[[-43.92587,-19.60654],[-43.92675,-19.60525],[-43.92575,-19.60697],[-43.92587,-19.60654]],[[-43.92804,-19.57792],[-43.93329,-19.57808],[-43.93408,-19.57821],[-43.92804,-19.57792]],[[-43.93004,-19.61724],[-43.93069,-19.61647],[-43.93066,-19.61657],[-43.93004,-19.61724]],[[-43.93086,-19.61596],[-43.93117,-19.61124],[-43.9309,-19.61584],[-43.93086,-19.61596]],[[-43.93354,-19.60266],[-43.9342,-19.60279],[-43.93298,-19.60275],[-43.93354,-19.60266]],[[-43.9348,-19.57832],[-43.93481,-19.57832],[-43.93837,-19.57916],[-43.9348,-19.57832]],[[-43.93716,-19.56051],[-43.93621,-19.55952],[-43.93696,-19.56013],[-43.93716,-19.56051]],[[-43.93625,-19.60286],[-43.9366,-19.60285],[-43.93652,-19.60287],[-43.93625,-19.60286]],[[-43.93897,-19.60197],[-43.93914,-19.60202],[-43.93755,-19.60254],[-43.93897,-19.60197]],[[-43.93783,-19.5612],[-43.93781,-19.56118],[-43.93786,-19.56121],[-43.93783,-19.5612]],[[-43.93977,-19.5819],[-43.93972,-19.57879],[-43.93979,-19.58139],[-43.93977,-19.5819]],[[-43.9403,-19.58287],[-43.94074,-19.58519],[-43.94082,-19.58614],[-43.9403,-19.58287]],[[-43.94089,-19.58697],[-43.94093,-19.58745],[-43.94076,-19.58894],[-43.94089,-19.58697]]]}}]}