{"type":"FeatureCollection","features":[{"type":"Feature","properties":{"municipio":"UBERLANDIA"},"geometry":{"type":"Polygon","coordinates":[[[-48.22636,-19.21809],[-48.24344,-19.22889],[-48.24868,-19.23069],[-48.25323,-19.23075],[-48.25569,-19.2312],[-48.2632,-19.23392],[-48.26645,-19.23594],[-48.26788,-19.23782],[-48.26818,-19.23903],[-48.2681,-19.24074],[-48.26678,-19.24556],[-48.26725,-19.24675],[-48.27122,-19.24836],[-48.27284,-19.24946],[-48.27851,-19.25027],[-48.27957,-19.25069],[-48.28014,-19.25153],[-48.28108,-19.25204],[-48.28339,-19.25245],[-48.28615,-19.25727],[-48.28818,-19.25893],[-48.28967,-19.2594],[-48.29028,-19.2604],[-48.29237,-19.26155],[-48.29312,-19.2628],[-48.29802,-19.26765],[-48.29953,-19.26998],[-48.29991,-19.27147],[-48.29967,-19.27242],[-48.30031,-19.27386],[-48.30701,-19.282],[-48.3073,-19.28292],[-48.30871,-19.28411],[-48.31065,-19.28415],[-48.3133,-19.28633],[-48.31493,-19.2868],[-48.31544,-19.28665],[-48.31601,-19.28523],[-48.31741,-19.28509],[-48.31737,-19.2832],[-48.31846,-19.28232],[-48.32069,-19.28329],[-48.32183,-19.28432],[-48.3233,-19.28383],[-48.32516,-19.28565],[-48.3271,-19.28556],[-48.32759,-19.28465],[-48.32815,-19.28464],[-48.32963,-19.28587],[-48.33057,-19.28567],[-48.33211,-19.28409],[-48.33475,-19.28314],[-48.34096,-19.28203],[-48.34298,-19.28235],[-48.34279,-19.28351],[-48.34129,-19.28536],[-48.33997,-19.2882],[-48.33886,-19.29228],[-48.33864,-19.29618],[-48.33795,-19.2976],[-48.33576,-19.30027],[-48.33406,-19.30312],[-48.33054,-19.30483],[-48.32715,-19.30836],[-48.32409,-19.30997],[-48.32063,-19.3132],[-48.319,-19.3161],[-48.31869,-19.31923],[-48.31954,-19.32039],[-48.32146,-19.32154],[-48.32307,-19.32356],[-48.32462,-19.32375],[-48.32641,-19.32521],[-48.32975,-19.33004],[-48.33037,-19.33231],[-48.33049,-19.33548],[-48.33119,-19.3372],[-48.33085,-19.34303],[-48.33171,-19.34566],[-48.33287,-19.34715],[-48.33459,-19.34806],[-48.33613,-19.34775],[-48.33699,-19.34697],[-48.33805,-19.34685],[-48.33846,-19.34592],[-48.33809,-19.34464],[-48.33868,-19.34398],[-48.34347,-19.34427],[-48.3468,-19.34645],[-48.34597,-19.34822],[-48.34511,-19.34891],[-48.34489,-19.34983],[-48.34781,-19.36384],[-48.34796,-19.36591],[-48.34754,-19.36843],[-48.34294,-19.37392],[-48.33951,-19.38217],[-48.3396,-19.38523],[-48.34019,-19.38736],[-48.34166,-19.38894],[-48.34427,-19.39049],[-48.3446,-19.39196],[-48.34444,-19.39238],[-48.34209,-19.39365],[-48.33965,-19.39603],[-48.33939,-19.39701],[-48.33973,-19.39923],[-48.34715,-19.40655],[-48.35106,-19.4096],[-48.3557,-19.41207],[-48.35814,-19.4125],[-48.35895,-19.41193],[-48.35991,-19.4103],[-48.36095,-19.41023],[-48.36261,-19.41081],[-48.36287,-19.41039],[-48.36393,-19.41018],[-48.36413,-19.41135],[-48.36478,-19.41198],[-48.36366,-19.41275],[-48.36419,-19.41455],[-48.36559,-19.41512],[-48.36594,-19.4159],[-48.36686,-19.4165],[-48.36746,-19.41644],[-48.3677,-19.4154],[-48.36814,-19.41518],[-48.36861,-19.41552],[-48.36908,-19.41419],[-48.36997,-19.41456],[-48.37187,-19.41411],[-48.37219,-19.41502],[-48.37265,-19.41508],[-48.3726,-19.41414],[-48.37341,-19.41343],[-48.37378,-19.41372],[-48.37527,-19.41309],[-48.37738,-19.41308],[-48.37939,-19.41173],[-48.38023,-19.41235],[-48.38013,-19.4133],[-48.38155,-19.41394],[-48.38545,-19.41049],[-48.38871,-19.41002],[-48.38993,-19.41025],[-48.39093,-19.40923],[-48.39261,-19.40876],[-48.39347,-19.40925],[-48.39546,-19.40904],[-48.3993,-19.41033],[-48.40009,-19.40898],[-48.39979,-19.4086],[-48.40006,-19.40767],[-48.39935,-19.40646],[-48.3996,-19.40556],[-48.40018,-19.40481],[-48.40153,-19.40411],[-48.40303,-19.40233],[-48.40691,-19.40086],[-48.40932,-19.40143],[-48.41152,-19.40103],[-48.41312,-19.39975],[-48.41304,-19.39886],[-48.41338,-19.39855],[-48.41442,-19.39852],[-48.41544,-19.39747],[-48.4181,-19.39816],[-48.41958,-19.39809],[-48.42027,-19.39869],[-48.42272,-19.39666],[-48.42417,-19.3972],[-48.42577,-19.39626],[-48.42672,-19.39629],[-48.43015,-19.39377],[-48.43302,-19.39412],[-48.43382,-19.39302],[-48.43617,-19.39276],[-48.43839,-19.39142],[-48.44031,-19.3914],[-48.44162,-19.39045],[-48.44175,-19.38998],[-48.44138,-19.38969],[-48.44174,-19.38938],[-48.4428,-19.38934],[-48.44379,-19.38881],[-48.44418,-19.38829],[-48.44358,-19.38635],[-48.44402,-19.38385],[-48.44333,-19.3832],[-48.44358,-19.3816],[-48.44316,-19.38138],[-48.44384,-19.37927],[-48.44543,-19.37887],[-48.44649,-19.37769],[-48.44755,-19.37852],[-48.44806,-19.37839],[-48.44983,-19.37757],[-48.45091,-19.37607],[-48.45187,-19.37563],[-48.4528,-19.37586],[-48.45593,-19.37393],[-48.45834,-19.37309],[-48.4588,-19.37326],[-48.4597,-19.3714],[-48.4588,-19.37036],[-48.45951,-19.36975],[-48.45978,-19.36882],[-48.45984,-19.36619],[-48.45901,-19.36504],[-48.45767,-19.36421],[-48.45764,-19.36373],[-48.46005,-19.36236],[-48.46025,-19.36144],[-48.45993,-19.36112],[-48.46051,-19.36039],[-48.46078,-19.35848],[-48.46106,-19.35808],[-48.46205,-19.3579],[-48.46342,-19.35524],[-48.46473,-19.3544],[-48.46794,-19.35378],[-48.46953,-19.35441],[-48.47045,-19.35427],[-48.47073,-19.35291],[-48.47177,-19.35281],[-48.47268,-19.35222],[-48.47364,-19.3509],[-48.47376,-19.34996],[-48.47498,-19.34919],[-48.47443,-19.34844],[-48.47461,-19.34796],[-48.47654,-19.34577],[-48.47522,-19.34426],[-48.47501,-19.34288],[-48.47439,-19.34209],[-48.47441,-19.3411],[-48.47341,-19.34077],[-48.47101,-19.33899],[-48.47006,-19.33901],[-48.46952,-19.3349],[-48.46756,-19.33409],[-48.46611,-19.33433],[-48.46528,-19.3332],[-48.46317,-19.33219],[-48.46258,-19.33087],[-48.46323,-19.32899],[-48.46399,-19.3283],[-48.46545,-19.32831],[-48.46755,-19.32518],[-48.46844,-19.32477],[-48.46879,-19.32508],[-48.47013,-19.32371],[-48.47118,-19.32383],[-48.47158,-19.32352],[-48.47146,-19.32258],[-48.47313,-19.32134],[-48.47362,-19.31942],[-48.47501,-19.31987],[-48.47668,-19.31801],[-48.4767,-19.31668],[-48.4771,-19.3163],[-48.47753,-19.31599],[-48.47866,-19.31659],[-48.47895,-19.31552],[-48.47994,-19.31446],[-48.47993,-19.3131],[-48.48123,-19.31153],[-48.48163,-19.31127],[-48.48297,-19.31153],[-48.4832,-19.31114],[-48.48522,-19.31033],[-48.48563,-19.31004],[-48.4856,-19.30912],[-48.48722,-19.3089],[-48.48869,-19.3102],[-48.48969,-19.31046],[-48.48963,-19.31002],[-48.49112,-19.30943],[-48.49098,-19.30785],[-48.49148,-19.30668],[-48.49047,-19.3051],[-48.49212,-19.30395],[-48.4936,-19.30408],[-48.49405,-19.30379],[-48.49375,-19.30233],[-48.49444,-19.30176],[-48.49448,-19.30047],[-48.49478,-19.30009],[-48.49583,-19.30018],[-48.49633,-19.29897],[-48.49726,-19.29837],[-48.4973,-19.29789],[-48.49648,-19.2971],[-48.49721,-19.29547],[-48.49859,-19.29512],[-48.49877,-19.2947],[-48.49793,-19.29414],[-48.49789,-19.29366],[-48.49817,-19.29322],[-48.49972,-19.29284],[-48.49949,-19.29047],[-48.50081,-19.29021],[-48.50254,-19.28849],[-48.5037,-19.28837],[-48.50407,-19.28572],[-48.50453,-19.28574],[-48.5048,-19.28666],[-48.50534,-19.28675],[-48.50586,-19.28541],[-48.50719,-19.28471],[-48.5082,-19.28435],[-48.50901,-19.28483],[-48.50814,-19.28256],[-48.5084,-19.28219],[-48.50983,-19.28199],[-48.50987,-19.28103],[-48.5103,-19.28063],[-48.51085,-19.28194],[-48.51162,-19.28161],[-48.51291,-19.28215],[-48.51336,-19.28077],[-48.51428,-19.28044],[-48.51429,-19.27894],[-48.51518,-19.27857],[-48.51539,-19.27767],[-48.51626,-19.2772],[-48.51545,-19.27596],[-48.51612,-19.27449],[-48.51703,-19.27393],[-48.51847,-19.27426],[-48.5189,-19.27396],[-48.51792,-19.27298],[-48.51969,-19.27259],[-48.52277,-19.26969],[-48.52283,-19.26877],[-48.52198,-19.26832],[-48.52192,-19.26726],[-48.52332,-19.26635],[-48.52411,-19.2651],[-48.52553,-19.26447],[-48.52642,-19.26347],[-48.52734,-19.26365],[-48.52872,-19.26249],[-48.5295,-19.26377],[-48.53105,-19.26325],[-48.53147,-19.26456],[-48.53228,-19.26504],[-48.53274,-19.26499],[-48.53382,-19.2638],[-48.5358,-19.26301],[-48.54073,-19.26182],[-48.54308,-19.25867],[-48.54475,-19.25522],[-48.54724,-19.25488],[-48.54936,-19.25362],[-48.55042,-19.25237],[-48.55342,-19.252],[-48.55513,-19.25086],[-48.55587,-19.24963],[-48.5563,-19.24553],[-48.55689,-19.24373],[-48.56106,-19.24427],[-48.56365,-19.24122],[-48.56502,-19.24038],[-48.56742,-19.23978],[-48.56753,-19.23865],[-48.56681,-19.23682],[-48.56702,-19.23624],[-48.57166,-19.23512],[-48.57263,-19.23447],[-48.57259,-19.23297],[-48.56976,-19.23124],[-48.57002,-19.23048],[-48.57328,-19.22907],[-48.57738,-19.22879],[-48.58074,-19.23088],[-48.58416,-19.23099],[-48.58494,-19.23223],[-48.58744,-19.23244],[-48.58779,-19.23094],[-48.58734,-19.22956],[-48.58759,-19.22698],[-48.58667,-19.22519],[-48.5853,-19.22368],[-48.58517,-19.22269],[-48.58706,-19.22185],[-48.58854,-19.22246],[-48.59171,-19.22754],[-48.59217,-19.22786],[-48.59271,-19.2277],[-48.59556,-19.2265],[-48.59623,-19.22578],[-48.59457,-19.22163],[-48.59477,-19.22064],[-48.59656,-19.21933],[-48.59919,-19.21834],[-48.59998,-19.21765],[-48.60651,-19.21575],[-48.60802,-19.21406],[-48.61088,-19.21447],[-48.6109,-19.21659],[-48.61198,-19.21826],[-48.61195,-19.22022],[-48.6134,-19.22156],[-48.61388,-19.22167],[-48.6151,-19.21998],[-48.61523,-19.21814],[-48.61599,-19.21666],[-48.61688,-19.21622],[-48.61885,-19.21675],[-48.62009,-19.21423],[-48.62138,-19.21489],[-48.62228,-19.21758],[-48.62286,-19.21782],[-48.62389,-19.21659],[-48.62452,-19.21378],[-48.6245,-19.21143],[-48.62356,-19.21006],[-48.62321,-19.20861],[-48.62421,-19.20642],[-48.62738,-19.20637],[-48.62851,-19.20732],[-48.6304,-19.208],[-48.63371,-19.20643],[-48.63646,-19.20793],[-48.64007,-19.20796],[-48.64233,-19.20887],[-48.64507,-19.20912],[-48.64551,-19.20895],[-48.64562,-19.20746],[-48.64726,-19.20427],[-48.65164,-19.20393],[-48.65468,-19.20243],[-48.65669,-19.19953],[-48.6572,-19.19732],[-48.65787,-19.19653],[-48.66055,-19.19759],[-48.66176,-19.20071],[-48.66257,-19.20137],[-48.66618,-19.20157],[-48.66698,-19.20101],[-48.66739,-19.19912],[-48.66871,-19.19761],[-48.67407,-19.19803],[-48.67433,-19.19766],[-48.67401,-19.1963],[-48.67259,-19.1947],[-48.67132,-19.19179],[-48.6715,-19.18992],[-48.67229,-19.18943],[-48.67651,-19.18958],[-48.67748,-19.18994],[-48.67817,-19.19072],[-48.6796,-19.19093],[-48.68107,-19.19039],[-48.68186,-19.1893],[-48.68316,-19.18862],[-48.68395,-19.18712],[-48.68494,-19.18672],[-48.68647,-19.18701],[-48.68749,-19.18743],[-48.68803,-19.18821],[-48.68816,-19.18934],[-48.68767,-19.19125],[-48.68657,-19.19283],[-48.6867,-19.1937],[-48.68773,-19.19489],[-48.68875,-19.19511],[-48.69078,-19.19452],[-48.69433,-19.1955],[-48.69502,-19.19437],[-48.69457,-19.19064],[-48.69478,-19.18953],[-48.69649,-19.18853],[-48.69879,-19.18862],[-48.69923,-19.18823],[-48.69933,-19.18685],[-48.69847,-19.18563],[-48.69861,-19.1852],[-48.70438,-19.17983],[-48.71016,-19.17878],[-48.71319,-19.17936],[-48.71571,-19.17929],[-48.71819,-19.18019],[-48.71962,-19.18013],[-48.72266,-19.18077],[-48.72459,-19.18057],[-48.72765,-19.17904],[-48.72886,-19.17804],[-48.72978,-19.17352],[-48.73038,-19.17269],[-48.73191,-19.17293],[-48.73297,-19.17266],[-48.73665,-19.17031],[-48.73732,-19.16896],[-48.73617,-19.16801],[-48.73599,-19.16711],[-48.73637,-19.16676],[-48.73772,-19.16611],[-48.73929,-19.16466],[-48.7419,-19.16487],[-48.74369,-19.16465],[-48.74459,-19.16411],[-48.74599,-19.16191],[-48.74977,-19.15234],[-48.75271,-19.14838],[-48.75447,-19.14747],[-48.75979,-19.14627],[-48.76698,-19.1436],[-48.77047,-19.13919],[-48.77683,-19.13328],[-48.78223,-19.13063],[-48.78627,-19.12993],[-48.78694,-19.12914],[-48.78754,-19.12674],[-48.78817,-19.12595],[-48.79914,-19.11878],[-48.80124,-19.11832],[-48.80439,-19.11854],[-48.805,-19.11684],[-48.80628,-19.11599],[-48.81015,-19.11527],[-48.8138,-19.11302],[-48.81569,-19.11291],[-48.81675,-19.11246],[-48.817,-19.11101],[-48.81824,-19.10879],[-48.82355,-19.10335],[-48.8178,-19.09878],[-48.81685,-19.09842],[-48.81505,-19.09528],[-48.81466,-19.09503],[-48.81253,-19.09574],[-48.8101,-19.09459],[-48.80921,-19.09269],[-48.80819,-19.09268],[-48.80669,-19.09036],[-48.80567,-19.09007],[-48.80429,-19.08813],[-48.80327,-19.08796],[-48.80188,-19.08884],[-48.80088,-19.08899],[-48.7989,-19.08682],[-48.79626,-19.08475],[-48.79236,-19.08626],[-48.79087,-19.08563],[-48.78921,-19.0842],[-48.78691,-19.08385],[-48.78566,-19.08313],[-48.78336,-19.08329],[-48.78042,-19.08433],[-48.77769,-19.08244],[-48.77656,-19.08084],[-48.77468,-19.07968],[-48.77265,-19.07961],[-48.77062,-19.08043],[-48.76943,-19.08021],[-48.76792,-19.07952],[-48.7678,-19.07887],[-48.76736,-19.07867],[-48.76303,-19.07733],[-48.76212,-19.07766],[-48.76074,-19.07578],[-48.75784,-19.0765],[-48.75566,-19.07634],[-48.75275,-19.07837],[-48.75128,-19.07895],[-48.75052,-19.07776],[-48.75068,-19.07687],[-48.75033,-19.07581],[-48.75001,-19.07549],[-48.74856,-19.07543],[-48.74681,-19.07699],[-48.74622,-19.07868],[-48.7454,-19.07917],[-48.74482,-19.07908],[-48.74307,-19.0785],[-48.74113,-19.07564],[-48.73921,-19.07536],[-48.73696,-19.07351],[-48.73371,-19.0746],[-48.73112,-19.07467],[-48.72931,-19.07572],[-48.72804,-19.0747],[-48.7251,-19.07351],[-48.72281,-19.07422],[-48.72237,-19.0739],[-48.72187,-19.07011],[-48.72097,-19.06975],[-48.7137,-19.07363],[-48.70952,-19.07224],[-48.70699,-19.0739],[-48.70593,-19.07391],[-48.70598,-19.07197],[-48.70495,-19.07049],[-48.70449,-19.06801],[-48.70328,-19.06564],[-48.70249,-19.06487],[-48.70226,-19.06298],[-48.69904,-19.06076],[-48.69457,-19.05407],[-48.69409,-19.0523],[-48.69441,-19.05005],[-48.6941,-19.04602],[-48.69299,-19.04336],[-48.6921,-19.04212],[-48.68942,-19.03984],[-48.68516,-19.03816],[-48.68338,-19.03681],[-48.68176,-19.03464],[-48.67889,-19.03289],[-48.67749,-19.03102],[-48.6764,-19.02774],[-48.67648,-19.02412],[-48.67616,-19.01862],[-48.67584,-19.01796],[-48.67457,-19.01675],[-48.67048,-19.01455],[-48.66721,-19.01361],[-48.66503,-19.01135],[-48.6615,-19.00924],[-48.66038,-19.00888],[-48.65886,-19.00924],[-48.65794,-19.00888],[-48.65747,-19.00824],[-48.65694,-19.00534],[-48.65572,-19.00443],[-48.65527,-19.00354],[-48.65506,-19.00122],[-48.65412,-18.9993],[-48.65282,-18.99859],[-48.65079,-18.9984],[-48.6476,-18.9967],[-48.64427,-18.99238],[-48.64267,-18.98857],[-48.6426,-18.9874],[-48.64318,-18.98354],[-48.64576,-18.97938],[-48.64579,-18.97784],[-48.64448,-18.97412],[-48.64429,-18.97187],[-48.6434,-18.97049],[-48.64147,-18.96948],[-48.63787,-18.96497],[-48.63642,-18.96012],[-48.63347,-18.95505],[-48.6335,-18.95415],[-48.6314,-18.9541],[-48.63055,-18.95325],[-48.62997,-18.95318],[-48.62951,-18.95445],[-48.62881,-18.95509],[-48.62748,-18.95477],[-48.62625,-18.95569],[-48.62466,-18.95573],[-48.62434,-18.95663],[-48.62475,-18.9575],[-48.62451,-18.95789],[-48.62314,-18.95803],[-48.62193,-18.96063],[-48.62004,-18.96111],[-48.61862,-18.96318],[-48.61782,-18.96272],[-48.61734,-18.96293],[-48.61683,-18.96375],[-48.61546,-18.96419],[-48.61434,-18.96525],[-48.61343,-18.96529],[-48.61188,-18.96605],[-48.61137,-18.96685],[-48.61092,-18.96662],[-48.61029,-18.96814],[-48.6091,-18.96819],[-48.6079,-18.96892],[-48.6072,-18.97099],[-48.60577,-18.97138],[-48.60572,-18.97239],[-48.60335,-18.97386],[-48.60261,-18.97519],[-48.60219,-18.97733],[-48.59867,-18.97795],[-48.59799,-18.97921],[-48.59698,-18.97928],[-48.59649,-18.98004],[-48.59517,-18.98089],[-48.59449,-18.9802],[-48.59379,-18.98098],[-48.59268,-18.98075],[-48.5928,-18.98263],[-48.5914,-18.98295],[-48.59149,-18.98431],[-48.59115,-18.98477],[-48.59014,-18.98498],[-48.58999,-18.98654],[-48.58934,-18.98714],[-48.58954,-18.98808],[-48.58915,-18.98845],[-48.58811,-18.98865],[-48.58565,-18.98801],[-48.58531,-18.98831],[-48.58533,-18.98916],[-48.58483,-18.98941],[-48.58248,-18.98913],[-48.58118,-18.98975],[-48.58026,-18.98959],[-48.57995,-18.99106],[-48.57854,-18.99212],[-48.57536,-18.99265],[-48.57391,-18.99326],[-48.57335,-18.99398],[-48.57178,-18.99437],[-48.57026,-18.99313],[-48.56937,-18.99306],[-48.56903,-18.99248],[-48.56765,-18.99237],[-48.56797,-18.99152],[-48.56698,-18.99034],[-48.56652,-18.99053],[-48.56591,-18.98926],[-48.56594,-18.98828],[-48.56461,-18.98788],[-48.56364,-18.98816],[-48.56297,-18.98752],[-48.56152,-18.98729],[-48.5621,-18.98655],[-48.56123,-18.98547],[-48.56075,-18.98542],[-48.56034,-18.98451],[-48.55988,-18.98467],[-48.55867,-18.98379],[-48.55824,-18.984],[-48.55802,-18.9831],[-48.55672,-18.98273],[-48.55635,-18.98193],[-48.55423,-18.98161],[-48.55382,-18.9808],[-48.55181,-18.97961],[-48.54954,-18.98013],[-48.54962,-18.97876],[-48.54851,-18.9788],[-48.54723,-18.97793],[-48.54636,-18.97618],[-48.54602,-18.97443],[-48.54518,-18.9745],[-48.54457,-18.97273],[-48.54356,-18.97161],[-48.54257,-18.97165],[-48.54146,-18.97004],[-48.53999,-18.96945],[-48.54052,-18.96871],[-48.54028,-18.96784],[-48.53842,-18.96703],[-48.53806,-18.9665],[-48.53663,-18.96273],[-48.53678,-18.9589],[-48.53582,-18.95713],[-48.5363,-18.95586],[-48.5355,-18.95458],[-48.53551,-18.95308],[-48.53447,-18.95118],[-48.53416,-18.94865],[-48.53314,-18.9481],[-48.53319,-18.94598],[-48.5323,-18.9455],[-48.53203,-18.94435],[-48.53276,-18.94189],[-48.53257,-18.93969],[-48.53192,-18.9387],[-48.53011,-18.93155],[-48.52941,-18.93077],[-48.52953,-18.92776],[-48.52937,-18.92728],[-48.5276,-18.92661],[-48.52633,-18.92413],[-48.52596,-18.92202],[-48.5243,-18.92126],[-48.52391,-18.91981],[-48.52314,-18.91917],[-48.523,-18.91827],[-48.52162,-18.91606],[-48.5216,-18.91468],[-48.52095,-18.91411],[-48.52124,-18.90991],[-48.51982,-18.90836],[-48.51992,-18.90655],[-48.52088,-18.90471],[-48.52298,-18.90384],[-48.52397,-18.90262],[-48.5255,-18.90288],[-48.52735,-18.9021],[-48.52965,-18.89835],[-48.53269,-18.89608],[-48.53322,-18.8947],[-48.53702,-18.89199],[-48.53921,-18.89158],[-48.54358,-18.89186],[-48.548,-18.89372],[-48.55039,-18.89391],[-48.55275,-18.89313],[-48.55869,-18.88973],[-48.55968,-18.88789],[-48.56053,-18.88387],[-48.56316,-18.87946],[-48.56804,-18.87625],[-48.57046,-18.87124],[-48.57157,-18.87002],[-48.57424,-18.86803],[-48.57654,-18.8671],[-48.58214,-18.86566],[-48.58492,-18.86417],[-48.58938,-18.86362],[-48.59206,-18.86194],[-48.59344,-18.85996],[-48.59921,-18.84735],[-48.60143,-18.8422],[-48.60152,-18.84043],[-48.60121,-18.83953],[-48.59771,-18.83995],[-48.59303,-18.83938],[-48.58512,-18.83694],[-48.57556,-18.83207],[-48.56721,-18.82687],[-48.56463,-18.82432],[-48.56246,-18.82407],[-48.56184,-18.82273],[-48.55986,-18.82108],[-48.55776,-18.81602],[-48.55438,-18.81051],[-48.55378,-18.80821],[-48.55468,-18.80345],[-48.5541,-18.80138],[-48.55441,-18.79929],[-48.55282,-18.79617],[-48.5527,-18.79258],[-48.55355,-18.78971],[-48.55275,-18.78797],[-48.55044,-18.78636],[-48.54868,-18.78661],[-48.54709,-18.78599],[-48.54574,-18.78413],[-48.54489,-18.7838],[-48.54383,-18.78217],[-48.54275,-18.78194],[-48.54231,-18.78013],[-48.54077,-18.77994],[-48.5384,-18.77854],[-48.53701,-18.77904],[-48.53558,-18.77865],[-48.53481,-18.77778],[-48.53295,-18.77737],[-48.53037,-18.77819],[-48.52832,-18.77667],[-48.52688,-18.77725],[-48.52473,-18.77736],[-48.52166,-18.77931],[-48.52104,-18.77934],[-48.51993,-18.77837],[-48.51805,-18.77798],[-48.51718,-18.77619],[-48.5172,-18.77508],[-48.51624,-18.77485],[-48.51576,-18.77409],[-48.51525,-18.77412],[-48.51532,-18.77368],[-48.51397,-18.77361],[-48.51376,-18.77196],[-48.51311,-18.77108],[-48.51221,-18.77136],[-48.51144,-18.77058],[-48.51024,-18.76796],[-48.50843,-18.76665],[-48.50672,-18.76359],[-48.50416,-18.76384],[-48.50327,-18.76244],[-48.50334,-18.76062],[-48.50224,-18.75975],[-48.50127,-18.75979],[-48.49976,-18.75732],[-48.49824,-18.75715],[-48.49802,-18.75674],[-48.49926,-18.75514],[-48.49965,-18.7533],[-48.50097,-18.75309],[-48.50092,-18.75079],[-48.50181,-18.75067],[-48.50133,-18.74941],[-48.50278,-18.74723],[-48.50357,-18.74665],[-48.50323,-18.74585],[-48.50396,-18.74466],[-48.50381,-18.7441],[-48.50292,-18.74429],[-48.50256,-18.74397],[-48.50249,-18.74293],[-48.50449,-18.74247],[-48.50493,-18.73997],[-48.50534,-18.73976],[-48.50594,-18.73809],[-48.5056,-18.73613],[-48.50768,-18.73439],[-48.5064,-18.73299],[-48.50594,-18.73324],[-48.50573,-18.73427],[-48.50452,-18.73269],[-48.50404,-18.73275],[-48.50334,-18.73213],[-48.50242,-18.73229],[-48.50066,-18.73108],[-48.50108,-18.72921],[-48.50151,-18.72896],[-48.50194,-18.7297],[-48.50252,-18.72986],[-48.50349,-18.72763],[-48.50351,-18.72595],[-48.50445,-18.7249],[-48.50392,-18.72414],[-48.50556,-18.72228],[-48.50571,-18.71998],[-48.50602,-18.71964],[-48.50947,-18.71989],[-48.50988,-18.71909],[-48.51003,-18.71702],[-48.51097,-18.71569],[-48.51075,-18.71468],[-48.513,-18.71376],[-48.51295,-18.7133],[-48.51136,-18.71236],[-48.51162,-18.71153],[-48.51119,-18.71066],[-48.51163,-18.70834],[-48.51143,-18.70788],[-48.51049,-18.70799],[-48.51042,-18.70755],[-48.51221,-18.70379],[-48.51402,-18.70314],[-48.51474,-18.702],[-48.51689,-18.70106],[-48.51665,-18.70062],[-48.51474,-18.69977],[-48.51443,-18.69834],[-48.51494,-18.69756],[-48.51631,-18.6971],[-48.5166,-18.69524],[-48.51778,-18.69336],[-48.51764,-18.69278],[-48.51629,-18.69223],[-48.51617,-18.69168],[-48.51728,-18.6901],[-48.51697,-18.68929],[-48.51472,-18.6898],[-48.51337,-18.68823],[-48.51101,-18.68722],[-48.51089,-18.68628],[-48.51121,-18.68596],[-48.51263,-18.68589],[-48.51318,-18.68511],[-48.51299,-18.68355],[-48.51174,-18.68272],[-48.51063,-18.68028],[-48.51123,-18.67835],[-48.51104,-18.67628],[-48.51198,-18.67318],[-48.51186,-18.67114],[-48.51124,-18.66928],[-48.50743,-18.66815],[-48.50673,-18.66728],[-48.50668,-18.66633],[-48.50775,-18.66535],[-48.51064,-18.66383],[-48.51204,-18.66243],[-48.51267,-18.6574],[-48.51619,-18.6551],[-48.51732,-18.65368],[-48.51846,-18.65081],[-48.5192,-18.65028],[-48.51954,-18.64945],[-48.52118,-18.64821],[-48.52333,-18.64775],[-48.52391,-18.6469],[-48.52408,-18.64543],[-48.52215,-18.64194],[-48.52056,-18.64077],[-48.52005,-18.63868],[-48.52099,-18.63833],[-48.52309,-18.63645],[-48.52425,-18.63647],[-48.52656,-18.63806],[-48.52798,-18.63751],[-48.52837,-18.63668],[-48.52798,-18.63452],[-48.52832,-18.63367],[-48.53049,-18.63144],[-48.53348,-18.63014],[-48.53406,-18.62933],[-48.53365,-18.62855],[-48.53127,-18.62699],[-48.52985,-18.62416],[-48.52968,-18.62219],[-48.53011,-18.62136],[-48.53233,-18.61982],[-48.53435,-18.61971],[-48.53527,-18.62012],[-48.53643,-18.61895],[-48.53638,-18.61791],[-48.53558,-18.6166],[-48.53631,-18.61598],[-48.53643,-18.61536],[-48.53383,-18.61385],[-48.53187,-18.61428],[-48.52722,-18.61359],[-48.52525,-18.61414],[-48.5244,-18.61387],[-48.52508,-18.61136],[-48.52433,-18.6095],[-48.52465,-18.60851],[-48.52636,-18.60739],[-48.52725,-18.605],[-48.52829,-18.60403],[-48.52834,-18.60295],[-48.52569,-18.60167],[-48.52467,-18.60042],[-48.52364,-18.59983],[-48.52,-18.59939],[-48.51803,-18.59652],[-48.51744,-18.59469],[-48.5127,-18.59582],[-48.50935,-18.59596],[-48.5075,-18.59683],[-48.50533,-18.59653],[-48.50049,-18.59389],[-48.49811,-18.59437],[-48.49551,-18.59324],[-48.4945,-18.59307],[-48.49349,-18.5935],[-48.4927,-18.59419],[-48.4897,-18.5991],[-48.48933,-18.60069],[-48.48944,-18.60249],[-48.49063,-18.60467],[-48.49053,-18.60617],[-48.49137,-18.61014],[-48.49101,-18.61209],[-48.49012,-18.6127],[-48.4876,-18.61342],[-48.48271,-18.61379],[-48.48074,-18.61498],[-48.4784,-18.61852],[-48.47345,-18.62274],[-48.47177,-18.62542],[-48.46948,-18.62731],[-48.46595,-18.63244],[-48.46305,-18.63466],[-48.45993,-18.63979],[-48.45815,-18.64204],[-48.45605,-18.64255],[-48.45208,-18.64118],[-48.4468,-18.6385],[-48.44276,-18.63795],[-48.43956,-18.63842],[-48.43748,-18.64002],[-48.43667,-18.64238],[-48.43683,-18.64394],[-48.43784,-18.6462],[-48.44097,-18.65031],[-48.44299,-18.65406],[-48.4429,-18.65645],[-48.44173,-18.65779],[-48.44025,-18.65903],[-48.4379,-18.66013],[-48.43356,-18.66001],[-48.42795,-18.66062],[-48.421,-18.66078],[-48.41637,-18.66262],[-48.41345,-18.66511],[-48.4094,-18.66683],[-48.40766,-18.66689],[-48.40232,-18.66577],[-48.40042,-18.66437],[-48.39956,-18.66245],[-48.39941,-18.66192],[-48.40005,-18.66056],[-48.40513,-18.65789],[-48.40815,-18.65422],[-48.40821,-18.65314],[-48.40736,-18.65005],[-48.40482,-18.64759],[-48.40235,-18.64394],[-48.39998,-18.63953],[-48.39971,-18.63689],[-48.39881,-18.63545],[-48.39688,-18.63365],[-48.39522,-18.63374],[-48.39373,-18.63462],[-48.38919,-18.63825],[-48.38216,-18.64106],[-48.38071,-18.64133],[-48.379,-18.6413],[-48.37695,-18.64065],[-48.3758,-18.63974],[-48.37477,-18.63794],[-48.37367,-18.63687],[-48.36474,-18.63121],[-48.36319,-18.63067],[-48.35902,-18.63023],[-48.35745,-18.63048],[-48.35166,-18.63226],[-48.34733,-18.63283],[-48.34098,-18.63454],[-48.33417,-18.63353],[-48.33175,-18.63265],[-48.33076,-18.63285],[-48.32976,-18.63352],[-48.32872,-18.63517],[-48.32807,-18.63839],[-48.32823,-18.63947],[-48.32944,-18.64224],[-48.33201,-18.6458],[-48.33359,-18.64737],[-48.33446,-18.64954],[-48.33231,-18.65108],[-48.32752,-18.65248],[-48.3246,-18.65447],[-48.32335,-18.6565],[-48.32296,-18.65864],[-48.32525,-18.66094],[-48.32624,-18.66095],[-48.32835,-18.65997],[-48.33473,-18.65864],[-48.33607,-18.66052],[-48.33104,-18.67075],[-48.32885,-18.67277],[-48.32685,-18.67299],[-48.32334,-18.67158],[-48.31865,-18.67047],[-48.31764,-18.67085],[-48.31515,-18.67563],[-48.31455,-18.67761],[-48.31506,-18.68007],[-48.31657,-18.68205],[-48.3211,-18.68357],[-48.32295,-18.68516],[-48.32352,-18.68642],[-48.3238,-18.69083],[-48.32184,-18.69469],[-48.32048,-18.69571],[-48.31817,-18.6984],[-48.31409,-18.70113],[-48.31194,-18.70499],[-48.31416,-18.71455],[-48.3139,-18.71694],[-48.31181,-18.72032],[-48.31052,-18.72426],[-48.30991,-18.7253],[-48.30761,-18.72737],[-48.30457,-18.72701],[-48.30222,-18.72583],[-48.30055,-18.72548],[-48.29717,-18.72765],[-48.29342,-18.72916],[-48.29049,-18.72976],[-48.28532,-18.73169],[-48.28226,-18.73227],[-48.27139,-18.73042],[-48.26596,-18.72821],[-48.26068,-18.72785],[-48.25763,-18.727],[-48.25666,-18.72853],[-48.25673,-18.73119],[-48.26093,-18.73814],[-48.2642,-18.73986],[-48.26889,-18.74303],[-48.27219,-18.74739],[-48.27395,-18.74777],[-48.27487,-18.74746],[-48.27596,-18.74784],[-48.27659,-18.74855],[-48.27726,-18.75052],[-48.27582,-18.75375],[-48.27298,-18.75651],[-48.27026,-18.75729],[-48.26406,-18.7574],[-48.26265,-18.75888],[-48.26164,-18.76114],[-48.26159,-18.76303],[-48.26246,-18.76819],[-48.25901,-18.77514],[-48.25797,-18.77524],[-48.25534,-18.77342],[-48.25399,-18.7707],[-48.25108,-18.7691],[-48.24794,-18.76839],[-48.2471,-18.76904],[-48.24665,-18.77008],[-48.24677,-18.77256],[-48.24499,-18.77752],[-48.24251,-18.78078],[-48.24106,-18.78107],[-48.24004,-18.77977],[-48.24018,-18.77685],[-48.24095,-18.77434],[-48.24231,-18.77255],[-48.24291,-18.77002],[-48.24151,-18.76771],[-48.24136,-18.76682],[-48.23781,-18.76389],[-48.23053,-18.76285],[-48.2285,-18.76206],[-48.22206,-18.75775],[-48.21789,-18.75724],[-48.21477,-18.75731],[-48.21348,-18.75776],[-48.21086,-18.75962],[-48.20872,-18.75992],[-48.2063,-18.75952],[-48.20422,-18.76127],[-48.20278,-18.76165],[-48.19947,-18.76112],[-48.19629,-18.75954],[-48.19369,-18.75931],[-48.19009,-18.75957],[-48.18863,-18.76025],[-48.1882,-18.76083],[-48.18691,-18.7645],[-48.18685,-18.76611],[-48.18908,-18.76949],[-48.18965,-18.77355],[-48.19034,-18.77557],[-48.19298,-18.77876],[-48.19326,-18.78053],[-48.19706,-18.78362],[-48.19872,-18.78395],[-48.20028,-18.7852],[-48.20063,-18.78619],[-48.20047,-18.78768],[-48.19951,-18.78999],[-48.19857,-18.7908],[-48.19556,-18.79133],[-48.18798,-18.79096],[-48.18522,-18.78995],[-48.18324,-18.78755],[-48.18116,-18.78613],[-48.17935,-18.78375],[-48.17909,-18.7824],[-48.17772,-18.78011],[-48.17796,-18.7776],[-48.17706,-18.77711],[-48.1749,-18.7777],[-48.1727,-18.77742],[-48.16829,-18.77576],[-48.16568,-18.77757],[-48.1645,-18.77995],[-48.16453,-18.78045],[-48.16565,-18.7815],[-48.16848,-18.78293],[-48.1692,-18.78487],[-48.16938,-18.78843],[-48.16851,-18.79072],[-48.16693,-18.8002],[-48.15998,-18.80982],[-48.15588,-18.81307],[-48.15435,-18.81386],[-48.15022,-18.81445],[-48.14705,-18.81324],[-48.14465,-18.81133],[-48.14151,-18.80643],[-48.14187,-18.80303],[-48.143,-18.8004],[-48.14627,-18.79704],[-48.14739,-18.79735],[-48.14757,-18.79878],[-48.14851,-18.79879],[-48.15063,-18.79611],[-48.15092,-18.79358],[-48.14819,-18.79052],[-48.14523,-18.78846],[-48.13775,-18.78581],[-48.13674,-18.78614],[-48.13588,-18.78739],[-48.13382,-18.78917],[-48.13259,-18.79143],[-48.13289,-18.79263],[-48.13439,-18.79367],[-48.13509,-18.79525],[-48.13482,-18.79776],[-48.13301,-18.80042],[-48.13277,-18.80373],[-48.13312,-18.8074],[-48.13423,-18.80955],[-48.13388,-18.81119],[-48.13274,-18.81246],[-48.12994,-18.81324],[-48.12656,-18.81253],[-48.12405,-18.81056],[-48.124,-18.80948],[-48.12457,-18.80871],[-48.12345,-18.80757],[-48.11852,-18.80401],[-48.11705,-18.80241],[-48.11446,-18.80121],[-48.11299,-18.8012],[-48.1083,-18.80331],[-48.10779,-18.80469],[-48.107,-18.80557],[-48.10651,-18.80732],[-48.10767,-18.81097],[-48.11103,-18.81652],[-48.11011,-18.81867],[-48.10715,-18.8218],[-48.1018,-18.82285],[-48.09901,-18.82432],[-48.09708,-18.82383],[-48.09532,-18.82451],[-48.09432,-18.8281],[-48.09527,-18.83184],[-48.09651,-18.83353],[-48.10374,-18.83802],[-48.10909,-18.83906],[-48.11204,-18.84018],[-48.11347,-18.84275],[-48.11297,-18.84372],[-48.11287,-18.84631],[-48.11226,-18.84783],[-48.11064,-18.85012],[-48.10818,-18.8503],[-48.10574,-18.84991],[-48.10172,-18.84847],[-48.09634,-18.84636],[-48.09054,-18.84319],[-48.08887,-18.84272],[-48.08535,-18.84293],[-48.08328,-18.84391],[-48.08199,-18.84714],[-48.08225,-18.84941],[-48.08383,-18.85071],[-48.08978,-18.85211],[-48.0908,-18.85332],[-48.09115,-18.85456],[-48.09135,-18.85798],[-48.09102,-18.85897],[-48.08932,-18.86025],[-48.08756,-18.8609],[-48.08445,-18.86098],[-48.08217,-18.86207],[-48.07913,-18.86286],[-48.07784,-18.86415],[-48.076,-18.86888],[-48.07628,-18.87276],[-48.07684,-18.87354],[-48.08006,-18.87477],[-48.08255,-18.87813],[-48.08229,-18.88167],[-48.08129,-18.88508],[-48.07933,-18.8882],[-48.07617,-18.89064],[-48.07238,-18.89092],[-48.06981,-18.88995],[-48.06481,-18.88623],[-48.06169,-18.88579],[-48.05878,-18.8868],[-48.05653,-18.88903],[-48.05436,-18.88994],[-48.05279,-18.88945],[-48.04694,-18.88529],[-48.04479,-18.88526],[-48.04272,-18.8861],[-48.03845,-18.88935],[-48.03802,-18.88981],[-48.03784,-18.89129],[-48.03974,-18.89332],[-48.04042,-18.8966],[-48.04144,-18.89781],[-48.04132,-18.90293],[-48.04186,-18.90444],[-48.04367,-18.90689],[-48.04621,-18.90781],[-48.04763,-18.90927],[-48.04747,-18.91079],[-48.04572,-18.91197],[-48.04393,-18.9116],[-48.04024,-18.91197],[-48.03744,-18.91172],[-48.03534,-18.91256],[-48.0338,-18.91243],[-48.02882,-18.90951],[-48.02648,-18.90891],[-48.02472,-18.90738],[-48.02293,-18.90684],[-48.02104,-18.90569],[-48.01826,-18.90566],[-48.01624,-18.90623],[-48.01495,-18.90736],[-48.01532,-18.9086],[-48.01607,-18.90933],[-48.01567,-18.90954],[-48.01534,-18.91115],[-48.01782,-18.9127],[-48.01889,-18.91404],[-48.01951,-18.9162],[-48.019,-18.919],[-48.0175,-18.92113],[-48.01632,-18.92371],[-48.01443,-18.92609],[-48.01182,-18.92841],[-48.0107,-18.93005],[-48.00965,-18.9321],[-48.00793,-18.93747],[-48.008,-18.93952],[-48.01052,-18.94106],[-48.01155,-18.94293],[-48.01325,-18.94391],[-48.0136,-18.94487],[-48.01103,-18.95211],[-48.01048,-18.95661],[-48.01503,-18.9626],[-48.01416,-18.96589],[-48.01111,-18.96824],[-48.01004,-18.9696],[-48.00689,-18.97165],[-48.0082,-18.97561],[-48.01166,-18.97836],[-48.01442,-18.98],[-48.01779,-18.98379],[-48.01833,-18.98509],[-48.01854,-18.98686],[-48.01806,-18.99008],[-48.016,-18.99219],[-48.01378,-18.99537],[-48.01324,-18.99952],[-48.01216,-19.00186],[-48.00986,-19.0037],[-48.00819,-19.004],[-48.00511,-19.00325],[-48.00343,-19.00202],[-48.00276,-19.001],[-48.00219,-18.99946],[-48.00175,-18.99565],[-48.0004,-18.99375],[-47.99862,-18.99297],[-47.9955,-18.99275],[-47.99225,-18.99385],[-47.99058,-18.99532],[-47.98164,-18.99985],[-47.97794,-19.00239],[-47.97434,-19.00698],[-47.96986,-19.01468],[-47.96645,-19.01718],[-47.96053,-19.02001],[-47.95986,-19.02089],[-47.95945,-19.02301],[-47.96043,-19.02494],[-47.96478,-19.02909],[-47.97191,-19.03328],[-47.97364,-19.03497],[-47.97739,-19.03984],[-47.98148,-19.04403],[-47.98188,-19.04548],[-47.98108,-19.0476],[-47.97894,-19.04933],[-47.97749,-19.04987],[-47.96771,-19.0518],[-47.96227,-19.05212],[-47.95779,-19.05122],[-47.95154,-19.04628],[-47.94965,-19.04533],[-47.94713,-19.04508],[-47.94535,-19.04647],[-47.94442,-19.04809],[-47.94346,-19.05111],[-47.94362,-19.05293],[-47.94485,-19.05455],[-47.94816,-19.05673],[-47.95417,-19.05795],[-47.95573,-19.05878],[-47.95644,-19.05961],[-47.95787,-19.06205],[-47.95807,-19.06539],[-47.95596,-19.0699],[-47.95271,-19.07158],[-47.94809,-19.07192],[-47.93763,-19.06654],[-47.9349,-19.06684],[-47.93191,-19.06813],[-47.92929,-19.07222],[-47.92821,-19.07543],[-47.92824,-19.07872],[-47.93075,-19.08282],[-47.93157,-19.08585],[-47.93144,-19.08735],[-47.92914,-19.09144],[-47.92707,-19.093],[-47.92163,-19.09362],[-47.91864,-19.09501],[-47.91472,-19.0952],[-47.91345,-19.09599],[-47.91297,-19.09929],[-47.91324,-19.10018],[-47.91238,-19.10123],[-47.91278,-19.1021],[-47.91111,-19.1046],[-47.91094,-19.10725],[-47.914,-19.11088],[-47.91383,-19.11376],[-47.91576,-19.11542],[-47.91569,-19.11742],[-47.91769,-19.12182],[-47.91848,-19.12582],[-47.91877,-19.12839],[-47.91779,-19.12944],[-47.91777,-19.13047],[-47.91893,-19.13207],[-47.9193,-19.13373],[-47.9206,-19.13473],[-47.92,-19.1354],[-47.92027,-19.13577],[-47.91999,-19.13724],[-47.91908,-19.13792],[-47.9191,-19.14056],[-47.91836,-19.14142],[-47.91703,-19.14178],[-47.91637,-19.14303],[-47.91686,-19.14606],[-47.91737,-19.14631],[-47.91732,-19.14677],[-47.9156,-19.14863],[-47.91544,-19.15238],[-47.91597,-19.15426],[-47.91614,-19.15727],[-47.91469,-19.15777],[-47.91418,-19.15955],[-47.91322,-19.16059],[-47.91304,-19.16167],[-47.91091,-19.16457],[-47.91031,-19.16763],[-47.90976,-19.16851],[-47.90952,-19.17102],[-47.90859,-19.1731],[-47.90849,-19.1751],[-47.90911,-19.17648],[-47.90906,-19.17841],[-47.90711,-19.18476],[-47.90733,-19.18775],[-47.90667,-19.18957],[-47.90542,-19.19039],[-47.9053,-19.19359],[-47.90483,-19.19467],[-47.90456,-19.19714],[-47.90591,-19.19869],[-47.90707,-19.20103],[-47.90655,-19.20186],[-47.90683,-19.20349],[-47.90606,-19.2046],[-47.90603,-19.20603],[-47.90341,-19.21107],[-47.90378,-19.21196],[-47.90612,-19.21323],[-47.90722,-19.2143],[-47.9127,-19.22236],[-47.91343,-19.22509],[-47.91358,-19.23082],[-47.91296,-19.23669],[-47.90865,-19.24181],[-47.9082,-19.24287],[-47.9072,-19.25202],[-47.90484,-19.25646],[-47.90314,-19.26292],[-47.90294,-19.2652],[-47.90343,-19.26846],[-47.90536,-19.2718],[-47.90616,-19.27237],[-47.90796,-19.27265],[-47.9135,-19.26727],[-47.91659,-19.26597],[-47.91976,-19.26574],[-47.92738,-19.26661],[-47.92875,-19.26582],[-47.9296,-19.26611],[-47.92944,-19.26887],[-47.93049,-19.27029],[-47.93072,-19.27126],[-47.93036,-19.27158],[-47.92884,-19.27166],[-47.92852,-19.27203],[-47.92877,-19.27286],[-47.92779,-19.27407],[-47.92735,-19.27564],[-47.92763,-19.27761],[-47.9331,-19.28175],[-47.93614,-19.28264],[-47.9394,-19.28607],[-47.94391,-19.28906],[-47.94831,-19.29328],[-47.94857,-19.2948],[-47.94783,-19.29814],[-47.94688,-19.31007],[-47.94882,-19.31481],[-47.94974,-19.31913],[-47.95114,-19.32112],[-47.95123,-19.32535],[-47.953,-19.32849],[-47.9535,-19.33164],[-47.95598,-19.33479],[-47.95915,-19.33704],[-47.96189,-19.33699],[-47.96696,-19.33485],[-47.97399,-19.33281],[-47.97693,-19.33113],[-47.97861,-19.32959],[-47.9815,-19.32522],[-47.983,-19.32221],[-47.98436,-19.32061],[-47.98596,-19.31567],[-47.98889,-19.31068],[-47.98971,-19.30305],[-47.98965,-19.29965],[-47.98863,-19.29501],[-47.98798,-19.29285],[-47.98581,-19.28887],[-47.98558,-19.28372],[-47.99056,-19.27734],[-47.99385,-19.27411],[-47.99415,-19.2731],[-47.99368,-19.26535],[-47.99396,-19.26385],[-47.99553,-19.26133],[-47.99816,-19.2596],[-47.99983,-19.2554],[-48.0031,-19.25346],[-48.00503,-19.25296],[-48.00933,-19.25234],[-48.0102,-19.25303],[-48.01122,-19.25324],[-48.01329,-19.25161],[-48.01605,-19.2525],[-48.01714,-19.25128],[-48.01909,-19.25089],[-48.02168,-19.24852],[-48.02515,-19.24667],[-48.02597,-19.24534],[-48.02842,-19.2432],[-48.03176,-19.24324],[-48.03382,-19.242],[-48.0372,-19.24232],[-48.04383,-19.24207],[-48.04451,-19.24286],[-48.04565,-19.24298],[-48.04676,-19.24277],[-48.04748,-19.24165],[-48.04977,-19.2407],[-48.05302,-19.24101],[-48.05404,-19.23993],[-48.05474,-19.23975],[-48.05671,-19.24026],[-48.06132,-19.2404],[-48.06386,-19.24117],[-48.06534,-19.24036],[-48.06683,-19.24079],[-48.06794,-19.24028],[-48.0697,-19.24024],[-48.07349,-19.24129],[-48.07431,-19.24245],[-48.07593,-19.24313],[-48.07631,-19.24397],[-48.07585,-19.24497],[-48.0759,-19.24592],[-48.07698,-19.24647],[-48.07874,-19.24512],[-48.08133,-19.24403],[-48.08312,-19.24162],[-48.08474,-19.24133],[-48.08547,-19.24067],[-48.08712,-19.24073],[-48.08888,-19.23936],[-48.0896,-19.23782],[-48.08926,-19.2368],[-48.09029,-19.23544],[-48.08954,-19.2341],[-48.08968,-19.23317],[-48.09117,-19.23134],[-48.09122,-19.23031],[-48.09278,-19.22882],[-48.09137,-19.22752],[-48.09093,-19.22513],[-48.0915,-19.22282],[-48.09081,-19.22097],[-48.08943,-19.22031],[-48.08923,-19.21983],[-48.08968,-19.21823],[-48.0893,-19.21669],[-48.08786,-19.21542],[-48.08833,-19.21556],[-48.08929,-19.21511],[-48.09102,-19.21337],[-48.09308,-19.21332],[-48.09532,-19.21081],[-48.1014,-19.20629],[-48.10624,-19.19983],[-48.1074,-19.19771],[-48.11234,-19.1915],[-48.11213,-19.18957],[-48.11088,-19.18783],[-48.10589,-19.18305],[-48.10681,-19.17967],[-48.10818,-19.1784],[-48.1132,-19.17739],[-48.11976,-19.18032],[-48.12403,-19.17953],[-48.12965,-19.17932],[-48.13008,-19.17904],[-48.13016,-19.17738],[-48.13141,-19.17572],[-48.13822,-19.17166],[-48.14082,-19.17112],[-48.14367,-19.16942],[-48.14503,-19.16647],[-48.14581,-19.16291],[-48.1464,-19.16193],[-48.14823,-19.16048],[-48.14951,-19.15838],[-48.15062,-19.15808],[-48.1522,-19.15846],[-48.15594,-19.1576],[-48.15851,-19.15789],[-48.16037,-19.15746],[-48.16344,-19.15617],[-48.1689,-19.15465],[-48.17153,-19.15278],[-48.1783,-19.14938],[-48.18055,-19.14911],[-48.18085,-19.14944],[-48.18213,-19.14956],[-48.18335,-19.14893],[-48.1871,-19.14846],[-48.18828,-19.15014],[-48.18866,-19.15397],[-48.1878,-19.15731],[-48.18774,-19.16016],[-48.1888,-19.16401],[-48.18737,-19.16777],[-48.18863,-19.16986],[-48.18855,-19.17081],[-48.18896,-19.17165],[-48.19099,-19.17324],[-48.19525,-19.17525],[-48.19735,-19.17695],[-48.2014,-19.17887],[-48.20291,-19.17939],[-48.20818,-19.17985],[-48.21074,-19.18138],[-48.22422,-19.18751],[-48.22663,-19.18923],[-48.22827,-19.18975],[-48.22934,-19.19076],[-48.23263,-19.19663],[-48.23316,-19.19962],[-48.22955,-19.20566],[-48.22489,-19.20921],[-48.22395,-19.21066],[-48.22376,-19.21299],[-48.22526,-19.21685],[-48.22636,-19.21809]],[[-47.92143,-19.14554],[-47.92171,-19.14515],[-47.9229,-19.14412],[-47.92143,-19.14554]],[[-48.02327,-18.99807],[-48.02378,-18.99811],[-48.02351,-18.99817],[-48.02327,-18.99807]],[[-48.02342,-19.07406],[-48.02457,-19.07368],[-48.02409,-19.07397],[-48.02342,-19.07406]],[[-48.02558,-18.96147],[-48.028,-18.95846],[-48.02795,-18.95864],[-48.02558,-18.96147]],[[-48.02905,-18.95622],[-48.03046,-18.95602],[-48.02984,-18.9562],[-48.02905,-18.95622]],[[-48.02905,-18.95622],[-48.02813,-18.95708],[-48.02844,-18.95677],[-48.02905,-18.95622]],[[-48.02813,-18.95708],[-48.02818,-18.95775],[-48.02811,-18.95802],[-48.02813,-18.95708]],[[-48.03092,-18.95589],[-48.03393,-18.95222],[-48.03111,-18.95583],[-48.03092,-18.95589]],[[-48.08719,-19.01756],[-48.08732,-19.0173],[-48.08718,-19.01816],[-48.08719,-19.01756]],[[-48.08764,-19.01664],[-48.08801,-19.01633],[-48.08749,-19.01696],[-48.08764,-19.01664]],[[-48.15373,-18.89445],[-48.16217,-18.90255],[-48.16047,-18.90095],[-48.15373,-18.89445]],[[-48.18774,-19.14721],[-48.18815,-19.1466],[-48.18847,-19.14631],[-48.18774,-19.14721]],[[-48.20006,-18.91537],[-48.19216,-18.91068],[-48.19425,-18.9119],[-48.20006,-18.91537]],[[-48.20376,-18.9219],[-48.19281,-18.92839],[-48.1928,-18.92839],[-48.20376,-18.9219]],[[-48.20317,-18.93572],[-48.20202,-18.93513],[-48.20141,-18.93468],[-48.20317,-18.93572]],[[-48.20616,-18.88218],[-48.20602,-18.88232],[-48.20499,-18.88298],[-48.20616,-18.88218]],[[-48.21318,-18.87248],[-48.21312,-18.87263],[-48.20726,-18.88106],[-48.21318,-18.87248]],[[-48.20896,-18.86268],[-48.20877,-18.86225],[-48.20927,-18.86297],[-48.20896,-18.86268]],[[-48.21115,-18.85501],[-48.21161,-18.8549],[-48.21028,-18.85551],[-48.21115,-18.85501]],[[-48.2186,-18.89816],[-48.21585,-18.89411],[-48.21235,-18.88894],[-48.2186,-18.89816]],[[-48.2186,-18.89816],[-48.22203,-18.89631],[-48.21281,-18.90132],[-48.2186,-18.89816]],[[-48.21302,-18.85454],[-48.21454,-18.85449],[-48.21237,-18.85471],[-48.21302,-18.85454]],[[-48.21267,-18.86618],[-48.2132,-18.86701],[-48.21369,-18.86795],[-48.21267,-18.86618]],[[-48.21384,-18.8707],[-48.21384,-18.87086],[-48.21361,-18.87142],[-48.21384,-18.8707]],[[-48.24669,-18.97558],[-48.21442,-18.97117],[-48.24774,-18.97561],[-48.24669,-18.97558]],[[-48.21847,-18.94514],[-48.21818,-18.94698],[-48.2195,-18.93847],[-48.21847,-18.94514]],[[-48.2192,-18.90749],[-48.21927,-18.90743],[-48.21923,-18.90765],[-48.2192,-18.90749]],[[-48.21928,-18.908],[-48.21927,-18.90792],[-48.21954,-18.90812],[-48.21928,-18.908]],[[-48.2195,-18.90724],[-48.21991,-18.90728],[-48.21934,-18.90738],[-48.2195,-18.90724]],[[-48.24038,-18.85376],[-48.22103,-18.85432],[-48.22019,-18.85433],[-48.24038,-18.85376]],[[-48.22103,-18.85432],[-48.2239,-18.86327],[-48.22425,-18.86442],[-48.22103,-18.85432]],[[-48.22173,-18.91107],[-48.25131,-18.89354],[-48.25177,-18.89327],[-48.22173,-18.91107]],[[-48.22861,-18.88455],[-48.223,-18.86796],[-48.22207,-18.8651],[-48.22861,-18.88455]],[[-48.22257,-18.9122],[-48.22242,-18.91199],[-48.22286,-18.91227],[-48.22257,-18.9122]],[[-48.25195,-18.95579],[-48.25195,-18.95585],[-48.25192,-18.95581],[-48.25195,-18.95579]],[[-48.25192,-18.95581],[-48.23722,-18.95041],[-48.22933,-18.9475],[-48.23043,-18.94774],[-48.23011,-18.94778],[-48.25192,-18.95581]],[[-48.25169,-18.88447],[-48.23426,-18.89616],[-48.25199,-18.88422],[-48.25169,-18.88447]],[[-48.23512,-18.93308],[-48.23754,-18.93161],[-48.23879,-18.93103],[-48.23512,-18.93308]],[[-48.2353,-18.91516],[-48.23523,-18.91516],[-48.23567,-18.91498],[-48.2353,-18.91516]],[[-48.24228,-18.92968],[-48.2391,-18.93089],[-48.24018,-18.93039],[-48.24228,-18.92968]],[[-48.24825,-18.94273],[-48.2479,-18.94148],[-48.24764,-18.93961],[-48.24825,-18.94273]],[[-48.24764,-18.93961],[-48.24229,-18.93999],[-48.24954,-18.93947],[-48.24764,-18.93961]],[[-48.24569,-18.90958],[-48.24585,-18.90937],[-48.24592,-18.90937],[-48.24569,-18.90958]],[[-48.24595,-18.93577],[-48.24918,-18.93549],[-48.249,-18.93551],[-48.24595,-18.93577]],[[-48.246,-18.90938],[-48.24613,-18.90939],[-48.24624,-18.90965],[-48.246,-18.90938]],[[-48.25833,-18.86032],[-48.25391,-18.85837],[-48.2464,-18.85495],[-48.25833,-18.86032]],[[-48.24759,-18.88129],[-48.24978,-18.88064],[-48.24908,-18.88086],[-48.24759,-18.88129]],[[-48.24911,-18.94486],[-48.2491,-18.9448],[-48.24916,-18.94494],[-48.24911,-18.94486]],[[-48.24919,-18.97565],[-48.25164,-18.97519],[-48.24972,-18.97567],[-48.24919,-18.97565]],[[-48.25039,-18.93429],[-48.25053,-18.93425],[-48.25017,-18.9346],[-48.25039,-18.93429]],[[-48.25068,-18.91041],[-48.2505,-18.91013],[-48.25076,-18.91035],[-48.25068,-18.91041]],[[-48.25149,-18.93392],[-48.25198,-18.93386],[-48.25071,-18.93418],[-48.25149,-18.93392]],[[-48.25747,-18.92673],[-48.25184,-18.92782],[-48.25936,-18.92635],[-48.25747,-18.92673]],[[-48.25266,-18.95588],[-48.25883,-18.95195],[-48.25903,-18.9519],[-48.25266,-18.95588]],[[-48.25469,-18.93341],[-48.2554,-18.93342],[-48.25397,-18.93355],[-48.25469,-18.93341]],[[-48.25591,-18.87889],[-48.25609,-18.87872],[-48.25578,-18.87909],[-48.25591,-18.87889]],[[-48.25665,-18.87822],[-48.25712,-18.8778],[-48.25976,-18.87601],[-48.25665,-18.87822]],[[-48.2649,-18.92875],[-48.26331,-18.92829],[-48.25789,-18.92667],[-48.2649,-18.92875]],[[-48.25871,-18.91492],[-48.25903,-18.91566],[-48.25888,-18.91545],[-48.25871,-18.91492]],[[-48.2591,-18.93307],[-48.26147,-18.93358],[-48.26198,-18.93379],[-48.2591,-18.93307]],[[-48.2606,-18.90283],[-48.26033,-18.90218],[-48.26052,-18.90245],[-48.2606,-18.90283]],[[-48.26119,-18.92532],[-48.26104,-18.9254],[-48.2621,-18.92433],[-48.26119,-18.92532]],[[-48.26379,-18.91132],[-48.26225,-18.91139],[-48.26331,-18.91123],[-48.26379,-18.91132]],[[-48.2631,-18.79136],[-48.2631,-18.79076],[-48.26325,-18.7905],[-48.2631,-18.79136]],[[-48.26336,-18.79032],[-48.26354,-18.78998],[-48.26451,-18.78924],[-48.26336,-18.79032]],[[-48.26431,-18.91141],[-48.26448,-18.91145],[-48.2646,-18.91154],[-48.26431,-18.91141]],[[-48.26534,-18.93522],[-48.26588,-18.93533],[-48.26447,-18.93534],[-48.26534,-18.93522]],[[-48.26712,-18.9359],[-48.26592,-18.93534],[-48.26616,-18.93539],[-48.26712,-18.9359]],[[-48.26638,-18.77848],[-48.26615,-18.77732],[-48.26627,-18.77755],[-48.26638,-18.77848]],[[-48.26739,-18.93598],[-48.26857,-18.93518],[-48.26749,-18.93601],[-48.26739,-18.93598]],[[-48.26825,-18.95365],[-48.26823,-18.95365],[-48.26904,-18.9535],[-48.26825,-18.95365]],[[-48.28879,-18.86938],[-48.29144,-18.87194],[-48.2887,-18.86931],[-48.28499,-18.86434],[-48.28879,-18.86938]],[[-48.2887,-18.86931],[-48.28523,-18.87162],[-48.27038,-18.88147],[-48.2887,-18.86931]],[[-48.27038,-18.88147],[-48.27378,-18.88644],[-48.27183,-18.88377],[-48.27009,-18.88108],[-48.27038,-18.88147]],[[-48.27034,-18.93552],[-48.27082,-18.9353],[-48.27061,-18.93548],[-48.27034,-18.93552]],[[-48.27063,-18.89598],[-48.27148,-18.89536],[-48.27049,-18.89618],[-48.27063,-18.89598]],[[-48.28098,-18.92457],[-48.27756,-18.92374],[-48.28177,-18.92476],[-48.28098,-18.92457]],[[-48.27756,-18.92374],[-48.27111,-18.9192],[-48.27066,-18.91881],[-48.27756,-18.92374]],[[-48.27758,-18.96544],[-48.27106,-18.96691],[-48.27366,-18.96627],[-48.27758,-18.96544]],[[-48.27366,-18.99601],[-48.27375,-18.99614],[-48.27306,-18.99598],[-48.27366,-18.99601]],[[-48.27492,-18.93453],[-48.27773,-18.9299],[-48.27383,-18.93633],[-48.27492,-18.93453]],[[-48.27386,-18.99629],[-48.27385,-18.99701],[-48.27383,-18.99624],[-48.27386,-18.99629]],[[-48.2764,-18.89103],[-48.27584,-18.89235],[-48.27639,-18.8909],[-48.2764,-18.89103]],[[-48.27633,-18.89015],[-48.27636,-18.8906],[-48.27615,-18.88989],[-48.27633,-18.89015]],[[-48.2878,-18.90498],[-48.27966,-18.9032],[-48.27935,-18.90312],[-48.2878,-18.90498]],[[-48.27966,-18.9032],[-48.27657,-18.91278],[-48.27744,-18.91005],[-48.27966,-18.9032]],[[-48.28361,-18.9202],[-48.27906,-18.92328],[-48.28459,-18.91952],[-48.28361,-18.9202]],[[-48.27999,-18.89237],[-48.28074,-18.89108],[-48.2808,-18.89102],[-48.27999,-18.89237]],[[-48.28142,-18.8517],[-48.2823,-18.852],[-48.28235,-18.85206],[-48.28142,-18.8517]],[[-48.28212,-18.96449],[-48.28348,-18.96442],[-48.28156,-18.96461],[-48.28212,-18.96449]],[[-48.28305,-18.93197],[-48.28282,-18.93203],[-48.28178,-18.93195],[-48.28305,-18.93197]],[[-48.29094,-18.83695],[-48.28232,-18.85008],[-48.28237,-18.84996],[-48.29094,-18.83695]],[[-48.29011,-18.89122],[-48.28305,-18.88883],[-48.28309,-18.88878],[-48.29011,-18.89122]],[[-48.2845,-18.93146],[-48.28546,-18.93132],[-48.2835,-18.93185],[-48.2845,-18.93146]],[[-48.28412,-18.97824],[-48.28425,-18.97787],[-48.28464,-18.97735],[-48.28412,-18.97824]],[[-48.28414,-18.94963],[-48.28423,-18.9496],[-48.28556,-18.94956],[-48.28414,-18.94963]],[[-48.28497,-18.9769],[-48.28514,-18.97667],[-48.28575,-18.97631],[-48.28497,-18.9769]],[[-48.2934,-18.9245],[-48.28833,-18.92207],[-48.29021,-18.92294],[-48.2934,-18.9245]],[[-48.29393,-18.92212],[-48.29381,-18.92227],[-48.29297,-18.92271],[-48.29393,-18.92212]],[[-48.29405,-18.9287],[-48.29526,-18.92836],[-48.29504,-18.92853],[-48.29405,-18.9287]],[[-48.29407,-18.8906],[-48.29678,-18.89026],[-48.29503,-18.89048],[-48.29407,-18.8906]],[[-48.29433,-18.90511],[-48.29494,-18.90536],[-48.29517,-18.90548],[-48.29433,-18.90511]],[[-48.29919,-18.95018],[-48.29962,-18.95004],[-48.2997,-18.95011],[-48.29919,-18.95018]],[[-48.29993,-18.89096],[-48.30126,-18.8912],[-48.30074,-18.89122],[-48.29993,-18.89096]],[[-48.30027,-18.95072],[-48.30003,-18.95038],[-48.30137,-18.95151],[-48.30027,-18.95072]],[[-48.30066,-18.88061],[-48.30049,-18.88037],[-48.30177,-18.88177],[-48.30066,-18.88061]],[[-48.30612,-18.93722],[-48.30639,-18.93763],[-48.30107,-18.93004],[-48.30612,-18.93722]],[[-48.30278,-18.88322],[-48.30239,-18.88273],[-48.30197,-18.88175],[-48.30278,-18.88322]],[[-48.30388,-18.91967],[-48.30375,-18.91993],[-48.30245,-18.92135],[-48.30388,-18.91967]],[[-48.30287,-18.89148],[-48.30564,-18.89125],[-48.3045,-18.89141],[-48.30287,-18.89148]],[[-48.30357,-18.9263],[-48.3083,-18.92719],[-48.32028,-18.92945],[-48.30357,-18.9263]],[[-48.31533939526751,-18.891860764772805],[-48.31533940009345,-18.891860767661573],[-48.30547,-18.90449],[-48.30484,-18.90728],[-48.30544,-18.90438],[-48.31533939526751,-18.891860764772805]],[[-48.31533375443577,-18.891857388218597],[-48.31424,-18.8914],[-48.31472,-18.89149],[-48.31533375443577,-18.891857388218597]],[[-48.3061,-18.9087],[-48.30636,-18.90838],[-48.30583,-18.90923],[-48.3061,-18.9087]],[[-48.32142,-18.94296],[-48.30735,-18.93906],[-48.32054,-18.9427],[-48.32142,-18.94296]],[[-48.30735,-18.93906],[-48.30695,-18.95477],[-48.30725,-18.93921],[-48.30603,-18.94068],[-48.30735,-18.93906]],[[-48.32054,-18.9427],[-48.32113,-18.9409],[-48.32113,-18.94093],[-48.32054,-18.9427]],[[-48.30696,-18.91287],[-48.30693,-18.9131],[-48.30708,-18.91142],[-48.30696,-18.91287]],[[-48.30759,-18.88776],[-48.30845,-18.88904],[-48.30818,-18.88872],[-48.30759,-18.88776]],[[-48.31082,-18.91509],[-48.30935,-18.91419],[-48.31071,-18.91489],[-48.31082,-18.91509]],[[-48.31267,-18.91622],[-48.31098,-18.91519],[-48.31125,-18.91521],[-48.31267,-18.91622]],[[-48.31639,-18.84226],[-48.31558,-18.84139],[-48.31974,-18.84525],[-48.31639,-18.84226]],[[-48.31984,-18.89182],[-48.32027,-18.89161],[-48.32005,-18.8918],[-48.31984,-18.89182]],[[-48.32348,-18.9224],[-48.32216,-18.92092],[-48.32266,-18.92131],[-48.32348,-18.9224]],[[-48.32429,-18.95075],[-48.32454,-18.95079],[-48.32507,-18.95122],[-48.32429,-18.95075]],[[-48.32479,-18.89952],[-48.32549,-18.90005],[-48.32866,-18.90247],[-48.32479,-18.89952]],[[-48.33124,-18.88226],[-48.33261,-18.87923],[-48.33156,-18.88167],[-48.33124,-18.88226]],[[-48.3318,-18.9253],[-48.33139,-18.92527],[-48.33143,-18.92526],[-48.3318,-18.9253]],[[-48.33685,-18.9098],[-48.33478,-18.90926],[-48.33343,-18.90888],[-48.33654,-18.90968],[-48.33685,-18.9098]],[[-48.33365,-18.92548],[-48.33349,-18.92545],[-48.33361,-18.92546],[-48.33365,-18.92548]],[[-48.33546,-18.97085],[-48.33388,-18.96957],[-48.33387161224904,-18.969551318191044],[-48.33546,-18.97085]],[[-48.33531,-18.90648],[-48.3351,-18.90647],[-48.33535,-18.90646],[-48.33531,-18.90648]],[[-48.33783,-18.91021],[-48.33825,-18.91051],[-48.33717,-18.90994],[-48.33783,-18.91021]],[[-48.33892,-18.91098],[-48.33914,-18.91124],[-48.33873,-18.91084],[-48.33892,-18.91098]],[[-48.34009,-18.91237],[-48.34021,-18.91267],[-48.33993,-18.91218],[-48.34009,-18.91237]],[[-48.34009,-18.92176],[-48.34043,-18.92467],[-48.34015,-18.92323],[-48.34009,-18.92176]],[[-48.341,-18.89905],[-48.34066,-18.89011],[-48.34141,-18.90443],[-48.341,-18.89905]],[[-48.35428904514965,-18.969829820493175],[-48.36335,-18.96965],[-48.35441,-18.96989],[-48.35428904514965,-18.969829820493175]],[[-48.34602,-18.90517],[-48.34853,-18.90506],[-48.34603,-18.90517],[-48.34602,-18.90517]],[[-48.36531,-18.9688],[-48.35896,-18.96152],[-48.36524,-18.96857],[-48.36531,-18.9688]],[[-48.36976,-18.98014],[-48.37188,-18.98387],[-48.37087,-18.98215],[-48.36976,-18.98014]],[[-48.37426,-18.99093],[-48.37372,-18.99153],[-48.37429,-18.99075],[-48.37426,-18.99093]],[[-48.40714,-18.97969],[-48.40675,-18.97987],[-48.40477,-18.98029],[-48.40714,-18.97969]],[[-48.40477,-18.98029],[-48.39827,-18.97666],[-48.37553,-18.96391],[-48.40477,-18.98029]],[[-48.37937,-18.68489],[-48.37927,-18.68575],[-48.3793,-18.68502],[-48.37937,-18.68489]],[[-48.38128,-18.68315],[-48.37957,-18.68454],[-48.37972,-18.68427],[-48.38128,-18.68315]],[[-48.38778,-18.90216],[-48.38911,-18.89656],[-48.38902,-18.89704],[-48.38778,-18.90216]],[[-48.3942,-18.93306],[-48.39429,-18.9316],[-48.3943,-18.93302],[-48.3942,-18.93306]],[[-48.395,-19.04134],[-48.39488,-19.04055],[-48.39537,-19.04256],[-48.395,-19.04134]],[[-48.39873,-18.66899],[-48.39861,-18.66984],[-48.3986,-18.66921],[-48.39873,-18.66899]],[[-48.39999,-18.6661],[-48.39905,-18.66745],[-48.39908,-18.66723],[-48.39999,-18.6661]],[[-48.40958,-18.97857],[-48.40806,-18.97927],[-48.40917,-18.97864],[-48.40958,-18.97857]],[[-48.41481,-18.97636],[-48.41394,-18.97726],[-48.41362,-18.97745],[-48.41481,-18.97636]],[[-48.42748,-19.09897],[-48.42344,-19.09208],[-48.42738,-19.09873],[-48.42748,-19.09897]],[[-48.42756,-19.15964],[-48.42723,-19.15883],[-48.42769,-19.15981],[-48.42756,-19.15964]],[[-48.42911,-19.10952],[-48.42783,-19.09987],[-48.42801,-19.10033],[-48.42911,-19.10952]],[[-48.43011,-19.25732],[-48.43075,-19.25727],[-48.43064,-19.25738],[-48.43011,-19.25732]],[[-48.44562,-18.98796],[-48.44338,-18.99212],[-48.44488,-18.98909],[-48.44562,-18.98796]],[[-48.446,-18.79052],[-48.44656,-18.79074],[-48.44635,-18.79072],[-48.446,-18.79052]],[[-48.44647,-18.98638],[-48.44632,-18.98666],[-48.44635,-18.98641],[-48.44647,-18.98638]],[[-48.44729,-18.98639],[-48.44666,-18.98632],[-48.4469,-18.98625],[-48.44729,-18.98639]],[[-48.44716,-18.79068],[-48.44745,-18.79081],[-48.4469,-18.79076],[-48.44716,-18.79068]],[[-48.56658,-19.06823],[-48.5667,-19.06832],[-48.56665,-19.06854],[-48.56658,-19.06823]]]}}]}